{"type": "FeatureCollection", "features": [{"type": "Feature", "geometry": {"type": "Point", "coordinates": [-91.1950345, 14.826597]}, "properties": {"Municipio": "Sololá", "No": 1, "Grupo": "Chaquijyá", "Nombre": "Carlos Saloj Yaxón"}}, {"type": "Feature", "geometry": {"type": "Point", "coordinates": [-91.2297828, 14.8198196]}, "properties": {"Municipio": "Sololá", "No": 2, "Grupo": "Argueta", "Nombre": "Victoria Angélica Batz Juárez"}}, {"type": "Feature", "geometry": {"type": "Point", "coordinates": [-91.2534888, 14.7823209]}, "properties": {"Municipio": "Santa Lucía Utatlán", "No": 3, "Grupo": "Chové", "Nombre": "Lesbia Joj Saquic"}}, {"type": "Feature", "geometry": {"type": "Point", "coordinates": [-91.274212, 14.8113371]}, "properties": {"Municipio": "Santa Lucía Utatlán", "No": 4, "Grupo": "Xesampual", "Nombre": "Pedro Zabala Joj"}}, {"type": "Feature", "geometry": {"type": "Point", "coordinates": [-91.2742752, 14.785139]}, "properties": {"Municipio": "Santa Lucía Utatlán", "No": 5, "Grupo": "Xejuyupá", "Nombre": "Juana Thelma Ovalle"}}, {"type": "Feature", "geometry": {"type": "Point", "coordinates": [-91.2743038, 14.7788566]}, "properties": {"Municipio": "Santa Lucía Utatlán", "No": 6, "Grupo": "Chuimachá", "Nombre": "Agustín Chox Ibaté"}}, {"type": "Feature", "geometry": {"type": "Point", "coordinates": [-91.2703257, 14.7810536]}, "properties": {"Municipio": "Santa Lucía Utatlán", "No": 7, "Grupo": "Pachipak", "Nombre": "Rosa Yax Vásquez"}}, {"type": "Feature", "geometry": {"type": "Point", "coordinates": [-91.2916565, 14.7746472]}, "properties": {"Municipio": "Santa Lucía Utatlán", "No": 8, "Grupo": "Pamezabal", "Nombre": "Abraham Dionicio Vásquez Alva"}}, {"type": "Feature", "geometry": {"type": "Point", "coordinates": [-91.2958955, 14.7699339]}, "properties": {"Municipio": "Santa Lucía Utatlán", "No": 9, "Grupo": "Buena Vista", "Nombre": "Rosa Jeteyá Chávez"}}, {"type": "Feature", "geometry": {"type": "Point", "coordinates": [-91.3125013, 14.7046829]}, "properties": {"Municipio": "Santa Clara La Laguna", "No": 10, "Grupo": "Paquip", "Nombre": "Herlindo Álvarez Román"}}, {"type": "Feature", "geometry": {"type": "Point", "coordinates": [-91.3236225, 14.6999399]}, "properties": {"Municipio": "Santa María Visitación", "No": 11, "Grupo": "Montecristo", "Nombre": "Victor Cux Tzoc"}}, {"type": "Feature", "geometry": {"type": "Point", "coordinates": [-91.3135679, 14.6794972]}, "properties": {"Municipio": "San Juan La Laguna", "No": 12, "Grupo": "Cipresales", "Nombre": "Olga Alicia Jorge Tohom"}}, {"type": "Feature", "geometry": {"type": "Point", "coordinates": [-91.3181092, 14.6705978]}, "properties": {"Municipio": "San Juan La Laguna", "No": 13, "Grupo": "Panyebar", "Nombre": "Angélica Elizabeth Puac Ixcamparic"}}, {"type": "Feature", "geometry": {"type": "Point", "coordinates": [-91.3102695, 14.7805768]}, "properties": {"Municipio": "Nahualá", "No": 14, "Grupo": "Tzucubal", "Nombre": "Fransisco Chávez Ixtos"}}, {"type": "Feature", "geometry": {"type": "Point", "coordinates": [-91.2076948, 14.7713819]}, "properties": {"Municipio": "San José Chacayá", "No": 15, "Grupo": "Chuacruz", "Nombre": "Angelina Coxaj Cuá"}}, {"type": "Feature", "geometry": {"type": "Point", "coordinates": [-91.2197929, 14.7702236]}, "properties": {"Municipio": "San José Chacayá", "No": 16, "Grupo": "Paromero", "Nombre": "Rosa Marcela Roquel aju"}}]}