{"type": "FeatureCollection", "features": [{"type": "Feature", "geometry": {"type": "Point", "coordinates": [-91.2009385, 14.8278095]}, "properties": {"Municipio": "Sololá", "Grupo": "ECA Chaquijyá", "No": 1, "Nombre": "Tomás Cosiguá Tuiz"}}, {"type": "Feature", "geometry": {"type": "Point", "coordinates": [-91.1993143, 14.8196667]}, "properties": {"Municipio": "Sololá", "Grupo": "ECA Chaquijyá", "No": 2, "Nombre": "Dori Casandra Tohom Morales"}}, {"type": "Feature", "geometry": {"type": "Point", "coordinates": [-91.1982798, 14.8162134]}, "properties": {"Municipio": "Sololá", "Grupo": "ECA Chaquijyá", "No": 3, "Nombre": "Rosa Saloj Tuy"}}, {"type": "Feature", "geometry": {"type": "Point", "coordinates": [-91.1959512, 14.8095365]}, "properties": {"Municipio": "Sololá", "Grupo": "ECA Chaquijyá", "No": 4, "Nombre": "Angelina González Saloj"}}, {"type": "Feature", "geometry": {"type": "Point", "coordinates": [-91.1946208, 14.8290052]}, "properties": {"Municipio": "Sololá", "Grupo": "ECA Chaquijyá", "No": 5, "Nombre": "Vilma Josefina Saloj Cuxulic"}}, {"type": "Feature", "geometry": {"type": "Point", "coordinates": [-91.1946208, 14.8290052]}, "properties": {"Municipio": "Sololá", "Grupo": "ECA Chaquijyá", "No": 6, "Nombre": "Justa Cuxulíc Julajuj"}}, {"type": "Feature", "geometry": {"type": "Point", "coordinates": [-91.1946347, 14.8293544]}, "properties": {"Municipio": "Sololá", "Grupo": "ECA Chaquijyá", "No": 7, "Nombre": "Odilia Estela Saloj Tzay "}}, {"type": "Feature", "geometry": {"type": "Point", "coordinates": [-91.1946348, 14.8293523]}, "properties": {"Municipio": "Sololá", "Grupo": "ECA Chaquijyá", "No": 8, "Nombre": "Olga Marina Patzán Cotzojay"}}, {"type": "Feature", "geometry": {"type": "Point", "coordinates": [-91.1994688, 14.8224882]}, "properties": {"Municipio": "Sololá", "Grupo": "ECA Chaquijyá", "No": 9, "Nombre": "Candelaria Tauitiu Julajuj"}}, {"type": "Feature", "geometry": {"type": "Point", "coordinates": [-91.1987017, 14.824309]}, "properties": {"Municipio": "Sololá", "Grupo": "ECA Chaquijyá", "No": 10, "Nombre": "Santos Yaxon Cosiguá"}}, {"type": "Feature", "geometry": {"type": "Point", "coordinates": [-91.1950345, 14.826597]}, "properties": {"Municipio": "Sololá", "Grupo": "ECA Chaquijyá", "No": 11, "Nombre": "Carlos Saloj Yaxón"}}, {"type": "Feature", "geometry": {"type": "Point", "coordinates": [-91.1991474, 14.8227901]}, "properties": {"Municipio": "Sololá", "Grupo": "ECA Chaquijyá", "No": 12, "Nombre": "Amilcar Joselito Yaxón Pablo"}}, {"type": "Feature", "geometry": {"type": "Point", "coordinates": [-91.1948497, 14.8281248]}, "properties": {"Municipio": "Sololá", "Grupo": "ECA Chaquijyá", "No": 13, "Nombre": "Salvador Saloj Panjoj"}}, {"type": "Feature", "geometry": {"type": "Point", "coordinates": [-91.2230979, 14.8128687]}, "properties": {"Municipio": "Sololá", "Grupo": "ECA Argueta", "No": 14, "Nombre": "Ana Manuela Gutierrez Say"}}, {"type": "Feature", "geometry": {"type": "Point", "coordinates": [-91.2306288, 14.8120271]}, "properties": {"Municipio": "Sololá", "Grupo": "ECA Argueta", "No": 15, "Nombre": "Lissi elizabet García Ajpacaja"}}, {"type": "Feature", "geometry": {"type": "Point", "coordinates": [-91.2270043, 14.8143068]}, "properties": {"Municipio": "Sololá", "Grupo": "ECA Argueta", "No": 16, "Nombre": "Jesus Manuel Matias cipirano"}}, {"type": "Feature", "geometry": {"type": "Point", "coordinates": [-91.2363208, 14.8237395]}, "properties": {"Municipio": "Sololá", "Grupo": "ECA Argueta", "No": 17, "Nombre": "Juan Jerónimo rosales batz"}}, {"type": "Feature", "geometry": {"type": "Point", "coordinates": [-91.2322028, 14.8198367]}, "properties": {"Municipio": "Sololá", "Grupo": "ECA Argueta", "No": 18, "Nombre": "Filomena rosales García"}}, {"type": "Feature", "geometry": {"type": "Point", "coordinates": [-91.2301322, 14.8121448]}, "properties": {"Municipio": "Sololá", "Grupo": "ECA Argueta", "No": 19, "Nombre": "Míriam Yolanda Pascual Cotuc "}}, {"type": "Feature", "geometry": {"type": "Point", "coordinates": [-91.2334003, 14.8129016]}, "properties": {"Municipio": "Sololá", "Grupo": "ECA Argueta", "No": 20, "Nombre": "Vilma Victoria Pascual Cotuc"}}, {"type": "Feature", "geometry": {"type": "Point", "coordinates": [-91.233509, 14.8128585]}, "properties": {"Municipio": "Sololá", "Grupo": "ECA Argueta", "No": 21, "Nombre": "Santos María Tzunún Pú"}}, {"type": "Feature", "geometry": {"type": "Point", "coordinates": [-91.2347911, 14.8217448]}, "properties": {"Municipio": "Sololá", "Grupo": "ECA Argueta", "No": 22, "Nombre": "Irene Petrona López Say"}}, {"type": "Feature", "geometry": {"type": "Point", "coordinates": [-91.2395436, 14.8236934]}, "properties": {"Municipio": "Sololá", "Grupo": "ECA Argueta", "No": 23, "Nombre": "Felipa Esperanza Gutierra Say"}}, {"type": "Feature", "geometry": {"type": "Point", "coordinates": [-91.2354451, 14.8219545]}, "properties": {"Municipio": "Sololá", "Grupo": "ECA Argueta", "No": 24, "Nombre": "Jerónimo Emiliano Batz Par"}}, {"type": "Feature", "geometry": {"type": "Point", "coordinates": [-91.2300041, 14.8199111]}, "properties": {"Municipio": "Sololá", "Grupo": "ECA Argueta", "No": 25, "Nombre": "Rosalda Carolina Chuc Vásquez"}}, {"type": "Feature", "geometry": {"type": "Point", "coordinates": [-91.2296685, 14.8124117]}, "properties": {"Municipio": "Sololá", "Grupo": "ECA Argueta", "No": 26, "Nombre": "Juana Encarnación Menchú Tiu"}}, {"type": "Feature", "geometry": {"type": "Point", "coordinates": [-91.224949, 14.8153744]}, "properties": {"Municipio": "Sololá", "Grupo": "ECA Argueta", "No": 27, "Nombre": "Santa Felipa Pascual Cotuc"}}, {"type": "Feature", "geometry": {"type": "Point", "coordinates": [-91.2298781, 14.819796]}, "properties": {"Municipio": "Sololá", "Grupo": "ECA Argueta", "No": 28, "Nombre": "Ronaldo Emiliano Gutiérrez Batz"}}, {"type": "Feature", "geometry": {"type": "Point", "coordinates": [-91.2297268, 14.8193601]}, "properties": {"Municipio": "Sololá", "Grupo": "ECA Argueta", "No": 29, "Nombre": "Florinda Luisa López Say"}}, {"type": "Feature", "geometry": {"type": "Point", "coordinates": [-91.2312908, 14.8187469]}, "properties": {"Municipio": "Sololá", "Grupo": "ECA Argueta", "No": 30, "Nombre": "Juana Gladys Roxana Tumax Yax"}}, {"type": "Feature", "geometry": {"type": "Point", "coordinates": [-91.2317553, 14.8187031]}, "properties": {"Municipio": "Sololá", "Grupo": "ECA Argueta", "No": 31, "Nombre": "Abilia Rosalina García Solis"}}, {"type": "Feature", "geometry": {"type": "Point", "coordinates": [-91.2297828, 14.8198196]}, "properties": {"Municipio": "Sololá", "Grupo": "ECA Argueta", "No": 32, "Nombre": "Victoria Angélica Batz Juárez"}}, {"type": "Feature", "geometry": {"type": "Point", "coordinates": [-91.2307467, 14.8194846]}, "properties": {"Municipio": "Sololá", "Grupo": "ECA Argueta", "No": 33, "Nombre": "Ericka María Rosales Pérez"}}, {"type": "Feature", "geometry": {"type": "Point", "coordinates": [-91.2534888, 14.7823209]}, "properties": {"Municipio": "Santa Lucía Utatlán", "Grupo": "ECA Chové", "No": 34, "Nombre": "Rosario Saquic Chávez"}}, {"type": "Feature", "geometry": {"type": "Point", "coordinates": [-91.2534888, 14.7823209]}, "properties": {"Municipio": "Santa Lucía Utatlán", "Grupo": "ECA Chové", "No": 35, "Nombre": "Lesbia Joj Saquic"}}, {"type": "Feature", "geometry": {"type": "Point", "coordinates": [-91.2526822, 14.7848962]}, "properties": {"Municipio": "Santa Lucía Utatlán", "Grupo": "ECA Chové", "No": 36, "Nombre": "Yanira Martina Yaxon Yac"}}, {"type": "Feature", "geometry": {"type": "Point", "coordinates": [-91.2528273, 14.7851216]}, "properties": {"Municipio": "Santa Lucía Utatlán", "Grupo": "ECA Chové", "No": 37, "Nombre": "Luisa Teresa Yac Vasquez"}}, {"type": "Feature", "geometry": {"type": "Point", "coordinates": [-91.253924, 14.7861106]}, "properties": {"Municipio": "Santa Lucía Utatlán", "Grupo": "ECA Chové", "No": 38, "Nombre": "Juana Sabina Menchu"}}, {"type": "Feature", "geometry": {"type": "Point", "coordinates": [-91.2537237, 14.7862667]}, "properties": {"Municipio": "Santa Lucía Utatlán", "Grupo": "ECA Chové", "No": 39, "Nombre": "Josefa Celestina Menchu Ajpacaja"}}, {"type": "Feature", "geometry": {"type": "Point", "coordinates": [-91.2525943, 14.7827458]}, "properties": {"Municipio": "Santa Lucía Utatlán", "Grupo": "ECA Chové", "No": 40, "Nombre": "María margarita joj sazo"}}, {"type": "Feature", "geometry": {"type": "Point", "coordinates": [-91.2529308, 14.7844369]}, "properties": {"Municipio": "Santa Lucía Utatlán", "Grupo": "ECA Chové", "No": 41, "Nombre": "Beatriz elizabeth Yaxon Escobar"}}, {"type": "Feature", "geometry": {"type": "Point", "coordinates": [-91.2530456, 14.7829837]}, "properties": {"Municipio": "Santa Lucía Utatlán", "Grupo": "ECA Chové", "No": 42, "Nombre": "Pabla chaperon castro"}}, {"type": "Feature", "geometry": {"type": "Point", "coordinates": [-91.2472844, 14.7863079]}, "properties": {"Municipio": "Santa Lucía Utatlán", "Grupo": "ECA Chové", "No": 43, "Nombre": "Teresa Avelina Toc Yax"}}, {"type": "Feature", "geometry": {"type": "Point", "coordinates": [-91.2473156, 14.7863205]}, "properties": {"Municipio": "Santa Lucía Utatlán", "Grupo": "ECA Chové", "No": 44, "Nombre": "Yesica Vanesa Ángela Cux Toc. "}}, {"type": "Feature", "geometry": {"type": "Point", "coordinates": [-91.2475032, 14.7854486]}, "properties": {"Municipio": "Santa Lucía Utatlán", "Grupo": "ECA Chové", "No": 45, "Nombre": "Ana Elizabeth Cux Yaxón"}}, {"type": "Feature", "geometry": {"type": "Point", "coordinates": [-91.2471035, 14.7858337]}, "properties": {"Municipio": "Santa Lucía Utatlán", "Grupo": "ECA Chové", "No": 46, "Nombre": "Catarina Sohom Tambriz"}}, {"type": "Feature", "geometry": {"type": "Point", "coordinates": [-91.2478367, 14.7854545]}, "properties": {"Municipio": "Santa Lucía Utatlán", "Grupo": "ECA Chové", "No": 47, "Nombre": "María Teresa Saquic Yaxón"}}, {"type": "Feature", "geometry": {"type": "Point", "coordinates": [-91.2492857, 14.7895364]}, "properties": {"Municipio": "Santa Lucía Utatlán", "Grupo": "ECA Chové", "No": 48, "Nombre": "Ilsa Yaxón Vásquez"}}, {"type": "Feature", "geometry": {"type": "Point", "coordinates": [-91.2542362, 14.798987]}, "properties": {"Municipio": "Santa Lucía Utatlán", "Grupo": "ECA Chové", "No": 49, "Nombre": "Leona Petronila Yaxón Ixcol"}}, {"type": "Feature", "geometry": {"type": "Point", "coordinates": [-91.2517367, 14.7843977]}, "properties": {"Municipio": "Santa Lucía Utatlán", "Grupo": "ECA Chové", "No": 50, "Nombre": "María Luciana Vásquez Muy"}}, {"type": "Feature", "geometry": {"type": "Point", "coordinates": [-91.2514028, 14.7847013]}, "properties": {"Municipio": "Santa Lucía Utatlán", "Grupo": "ECA Chové", "No": 51, "Nombre": "Julia Elvira Elizabeth Vásquez Menchú"}}, {"type": "Feature", "geometry": {"type": "Point", "coordinates": [-91.2458257, 14.789003]}, "properties": {"Municipio": "Santa Lucía Utatlán", "Grupo": "ECA Chové", "No": 52, "Nombre": "Santos Carmen Yaxón Joj"}}, {"type": "Feature", "geometry": {"type": "Point", "coordinates": [-91.245534, 14.7890315]}, "properties": {"Municipio": "Santa Lucía Utatlán", "Grupo": "ECA Chové", "No": 53, "Nombre": "Hortencia Petrona Mendez Yaxón"}}, {"type": "Feature", "geometry": {"type": "Point", "coordinates": [-91.2756031, 14.8053278]}, "properties": {"Municipio": "Santa Lucía Utatlán", "Grupo": "ECA Xesampual", "No": 54, "Nombre": "Juan Jacinto Ixcol Chavez"}}, {"type": "Feature", "geometry": {"type": "Point", "coordinates": [-91.275807, 14.8139801]}, "properties": {"Municipio": "Santa Lucía Utatlán", "Grupo": "ECA Xesampual", "No": 55, "Nombre": "Bernardina Zavala joj"}}, {"type": "Feature", "geometry": {"type": "Point", "coordinates": [-91.2687946, 14.8155406]}, "properties": {"Municipio": "Santa Lucía Utatlán", "Grupo": "ECA Xesampual", "No": 56, "Nombre": "Isabel Celestina Zavala joj"}}, {"type": "Feature", "geometry": {"type": "Point", "coordinates": [-91.269123, 14.8055324]}, "properties": {"Municipio": "Santa Lucía Utatlán", "Grupo": "ECA Xesampual", "No": 57, "Nombre": "Gregorio Ixcol López"}}, {"type": "Feature", "geometry": {"type": "Point", "coordinates": [-91.274212, 14.8113371]}, "properties": {"Municipio": "Santa Lucía Utatlán", "Grupo": "ECA Xesampual", "No": 58, "Nombre": "Pedro Zabala Joj"}}, {"type": "Feature", "geometry": {"type": "Point", "coordinates": [-91.2745634, 14.8127777]}, "properties": {"Municipio": "Santa Lucía Utatlán", "Grupo": "ECA Xesampual", "No": 59, "Nombre": "María Juana Locón Raxón"}}, {"type": "Feature", "geometry": {"type": "Point", "coordinates": [-91.2753737, 14.8136394]}, "properties": {"Municipio": "Santa Lucía Utatlán", "Grupo": "ECA Xesampual", "No": 60, "Nombre": "María Floridelia Eugenia López Yac"}}, {"type": "Feature", "geometry": {"type": "Point", "coordinates": [-91.2751611, 14.8133912]}, "properties": {"Municipio": "Santa Lucía Utatlán", "Grupo": "ECA Xesampual", "No": 61, "Nombre": "Zulmi Mariela Yac Ixmucur"}}, {"type": "Feature", "geometry": {"type": "Point", "coordinates": [-91.274585, 14.8134733]}, "properties": {"Municipio": "Santa Lucía Utatlán", "Grupo": "ECA Xesampual", "No": 62, "Nombre": "Beatriz Anabella Zavala Yac"}}, {"type": "Feature", "geometry": {"type": "Point", "coordinates": [-91.274848, 14.8135755]}, "properties": {"Municipio": "Santa Lucía Utatlán", "Grupo": "ECA Xesampual", "No": 63, "Nombre": "Bernarda del Rosario Morales Tipaz"}}, {"type": "Feature", "geometry": {"type": "Point", "coordinates": [-91.274618, 14.8134376]}, "properties": {"Municipio": "Santa Lucía Utatlán", "Grupo": "ECA Xesampual", "No": 64, "Nombre": "Lucila Brígida Yac Ixcol"}}, {"type": "Feature", "geometry": {"type": "Point", "coordinates": [-91.275114, 14.8133804]}, "properties": {"Municipio": "Santa Lucía Utatlán", "Grupo": "ECA Xesampual", "No": 65, "Nombre": "Adrián Francisco Zavala Joj"}}, {"type": "Feature", "geometry": {"type": "Point", "coordinates": [-91.2754367, 14.813416]}, "properties": {"Municipio": "Santa Lucía Utatlán", "Grupo": "ECA Xesampual", "No": 66, "Nombre": "Martina Lucía Tuj Sosa"}}, {"type": "Feature", "geometry": {"type": "Point", "coordinates": [-91.27579, 14.813963]}, "properties": {"Municipio": "Santa Lucía Utatlán", "Grupo": "ECA Xesampual", "No": 67, "Nombre": "Magdaleno de La Cruz Zavala"}}, {"type": "Feature", "geometry": {"type": "Point", "coordinates": [-91.2758079, 14.8139408]}, "properties": {"Municipio": "Santa Lucía Utatlán", "Grupo": "ECA Xesampual", "No": 68, "Nombre": "Carmen Timoteo Zavala Tayum"}}, {"type": "Feature", "geometry": {"type": "Point", "coordinates": [-91.2760359, 14.8135911]}, "properties": {"Municipio": "Santa Lucía Utatlán", "Grupo": "ECA Xesampual", "No": 69, "Nombre": "Crisanto Dario Zavala"}}, {"type": "Feature", "geometry": {"type": "Point", "coordinates": [-91.2727055, 14.7882966]}, "properties": {"Municipio": "Santa Lucía Utatlán", "Grupo": "ECA Xejuyupá", "No": 70, "Nombre": "Miriam Mariana Tzapinel Godoy"}}, {"type": "Feature", "geometry": {"type": "Point", "coordinates": [-91.2742182, 14.78477]}, "properties": {"Municipio": "Santa Lucía Utatlán", "Grupo": "ECA Xejuyupá", "No": 71, "Nombre": "Reinan Valentina Ovalle"}}, {"type": "Feature", "geometry": {"type": "Point", "coordinates": [-91.2735731, 14.7852467]}, "properties": {"Municipio": "Santa Lucía Utatlán", "Grupo": "ECA Xejuyupá", "No": 72, "Nombre": "Dina Rebeca Quiche Ovalle"}}, {"type": "Feature", "geometry": {"type": "Point", "coordinates": [-91.2736054, 14.784624]}, "properties": {"Municipio": "Santa Lucía Utatlán", "Grupo": "ECA Xejuyupá", "No": 73, "Nombre": "Manuela Tambriz Saquic"}}, {"type": "Feature", "geometry": {"type": "Point", "coordinates": [-91.2662364, 14.7975398]}, "properties": {"Municipio": "Santa Lucía Utatlán", "Grupo": "ECA Xejuyupá", "No": 74, "Nombre": "María Santiaga Godoy"}}, {"type": "Feature", "geometry": {"type": "Point", "coordinates": [-91.2678923, 14.7947597]}, "properties": {"Municipio": "Santa Lucía Utatlán", "Grupo": "ECA Xejuyupá", "No": 75, "Nombre": "Petrona Manuela Vasquez Menchu"}}, {"type": "Feature", "geometry": {"type": "Point", "coordinates": [-91.2742752, 14.785139]}, "properties": {"Municipio": "Santa Lucía Utatlán", "Grupo": "ECA Xejuyupá", "No": 76, "Nombre": "Juana Thelma Ovalle"}}, {"type": "Feature", "geometry": {"type": "Point", "coordinates": [-91.273082, 14.7846756]}, "properties": {"Municipio": "Santa Lucía Utatlán", "Grupo": "ECA Xejuyupá", "No": 77, "Nombre": "Leona Geronima Tzapinel  Gonzales"}}, {"type": "Feature", "geometry": {"type": "Point", "coordinates": [-91.2729329, 14.7829912]}, "properties": {"Municipio": "Santa Lucía Utatlán", "Grupo": "ECA Xejuyupá", "No": 78, "Nombre": "Marta Raquel Saloj Yac"}}, {"type": "Feature", "geometry": {"type": "Point", "coordinates": [-91.2740559, 14.7822001]}, "properties": {"Municipio": "Santa Lucía Utatlán", "Grupo": "ECA Xejuyupá", "No": 79, "Nombre": "María Silvia Ulario Chávez"}}, {"type": "Feature", "geometry": {"type": "Point", "coordinates": [-91.2740795, 14.7822401]}, "properties": {"Municipio": "Santa Lucía Utatlán", "Grupo": "ECA Xejuyupá", "No": 80, "Nombre": "María Dominga Yac Noj"}}, {"type": "Feature", "geometry": {"type": "Point", "coordinates": [-91.2663628, 14.7974397]}, "properties": {"Municipio": "Santa Lucía Utatlán", "Grupo": "ECA Xejuyupá", "No": 81, "Nombre": "Clara Dominga Tzapinel Godoy"}}, {"type": "Feature", "geometry": {"type": "Point", "coordinates": [-91.2707881, 14.793278]}, "properties": {"Municipio": "Santa Lucía Utatlán", "Grupo": "ECA Xejuyupá", "No": 82, "Nombre": "Santa Roberta Chamorra Chávez"}}, {"type": "Feature", "geometry": {"type": "Point", "coordinates": [-91.2743546, 14.7784916]}, "properties": {"Municipio": "Santa Lucía Utatlán", "Grupo": "ECA Chuimachá", "No": 83, "Nombre": "Luisa Cindy Joj Saloj"}}, {"type": "Feature", "geometry": {"type": "Point", "coordinates": [-91.2742582, 14.7787451]}, "properties": {"Municipio": "Santa Lucía Utatlán", "Grupo": "ECA Chuimachá", "No": 84, "Nombre": "Haydee de los Ángeles De León"}}, {"type": "Feature", "geometry": {"type": "Point", "coordinates": [-91.2743066, 14.7788548]}, "properties": {"Municipio": "Santa Lucía Utatlán", "Grupo": "ECA Chuimachá", "No": 85, "Nombre": "María Inmaculada Chox Charrar"}}, {"type": "Feature", "geometry": {"type": "Point", "coordinates": [-91.2743038, 14.7788566]}, "properties": {"Municipio": "Santa Lucía Utatlán", "Grupo": "ECA Chuimachá", "No": 86, "Nombre": "Agustín Chox Ibaté"}}, {"type": "Feature", "geometry": {"type": "Point", "coordinates": [-91.2747833, 14.7793081]}, "properties": {"Municipio": "Santa Lucía Utatlán", "Grupo": "ECA Chuimachá", "No": 87, "Nombre": "Abel Geovani Ibate Yac"}}, {"type": "Feature", "geometry": {"type": "Point", "coordinates": [-91.2746951, 14.7773432]}, "properties": {"Municipio": "Santa Lucía Utatlán", "Grupo": "ECA Chuimachá", "No": 88, "Nombre": "Santos Víctor Charrar Chávez"}}, {"type": "Feature", "geometry": {"type": "Point", "coordinates": [-91.2754272, 14.7776279]}, "properties": {"Municipio": "Santa Lucía Utatlán", "Grupo": "ECA Chuimachá", "No": 89, "Nombre": "Juana Godoy Gonzales"}}, {"type": "Feature", "geometry": {"type": "Point", "coordinates": [-91.2755569, 14.7782634]}, "properties": {"Municipio": "Santa Lucía Utatlán", "Grupo": "ECA Chuimachá", "No": 90, "Nombre": "María Izabel López Chox"}}, {"type": "Feature", "geometry": {"type": "Point", "coordinates": [-91.2913056, 14.7803999]}, "properties": {"Municipio": "Santa Lucía Utatlán", "Grupo": "ECA Chuimachá", "No": 91, "Nombre": "Gloria Estrella Chox Charrar"}}, {"type": "Feature", "geometry": {"type": "Point", "coordinates": [-91.2913904, 14.7807004]}, "properties": {"Municipio": "Santa Lucía Utatlán", "Grupo": "ECA Chuimachá", "No": 92, "Nombre": "José Sazo Cux"}}, {"type": "Feature", "geometry": {"type": "Point", "coordinates": [-91.2913292, 14.7904449]}, "properties": {"Municipio": "Santa Lucía Utatlán", "Grupo": "ECA Chuimachá", "No": 93, "Nombre": "Luisa Fransisca Yac Escun"}}, {"type": "Feature", "geometry": {"type": "Point", "coordinates": [-91.2921079, 14.7554228]}, "properties": {"Municipio": "Santa Lucía Utatlán", "Grupo": "ECA Chuimachá", "No": 94, "Nombre": "Santos Timotea Chamorro Cajtunaj"}}, {"type": "Feature", "geometry": {"type": "Point", "coordinates": [-91.2982243, 14.7787527]}, "properties": {"Municipio": "Santa Lucía Utatlán", "Grupo": "ECA Chuimachá", "No": 95, "Nombre": "Bonifacia Joj de Chutá"}}, {"type": "Feature", "geometry": {"type": "Point", "coordinates": [-91.2743637, 14.7783469]}, "properties": {"Municipio": "Santa Lucía Utatlán", "Grupo": "ECA Chuimachá", "No": 96, "Nombre": "Marieta Guadalupe Chox Charar"}}, {"type": "Feature", "geometry": {"type": "Point", "coordinates": [-91.2753168, 14.7778275]}, "properties": {"Municipio": "Santa Lucía Utatlán", "Grupo": "ECA Chuimachá", "No": 97, "Nombre": "María Maribel Vásquez López"}}, {"type": "Feature", "geometry": {"type": "Point", "coordinates": [-91.275515, 14.777702]}, "properties": {"Municipio": "Santa Lucía Utatlán", "Grupo": "ECA Chuimachá", "No": 98, "Nombre": "Irma Encarnación Chávez Saquic"}}, {"type": "Feature", "geometry": {"type": "Point", "coordinates": [-91.27464, 14.7777081]}, "properties": {"Municipio": "Santa Lucía Utatlán", "Grupo": "ECA Chuimachá", "No": 99, "Nombre": "Miriam Jocabed Vero Figueroa "}}, {"type": "Feature", "geometry": {"type": "Point", "coordinates": [-91.2746243, 14.7776954]}, "properties": {"Municipio": "Santa Lucía Utatlán", "Grupo": "ECA Chuimachá", "No": 100, "Nombre": "Rosa Candida Chipín Yac"}}, {"type": "Feature", "geometry": {"type": "Point", "coordinates": [-91.2703257, 14.7810536]}, "properties": {"Municipio": "Santa Lucía Utatlán", "Grupo": "ECA Pachipak", "No": 101, "Nombre": "Rosa Yax Vasquez"}}, {"type": "Feature", "geometry": {"type": "Point", "coordinates": [-91.2703218, 14.7810443]}, "properties": {"Municipio": "Santa Lucía Utatlán", "Grupo": "ECA Pachipak", "No": 102, "Nombre": "Ana María quinillo"}}, {"type": "Feature", "geometry": {"type": "Point", "coordinates": [-91.2754656, 14.775805]}, "properties": {"Municipio": "Santa Lucía Utatlán", "Grupo": "ECA Pachipak", "No": 103, "Nombre": "Jesus Antonia Yax"}}, {"type": "Feature", "geometry": {"type": "Point", "coordinates": [-91.2702573, 14.7801855]}, "properties": {"Municipio": "Santa Lucía Utatlán", "Grupo": "ECA Pachipak", "No": 104, "Nombre": "Jesus Gerardo Muy"}}, {"type": "Feature", "geometry": {"type": "Point", "coordinates": [-91.2691529, 14.7725963]}, "properties": {"Municipio": "Santa Lucía Utatlán", "Grupo": "ECA Pachipak", "No": 105, "Nombre": "Glendy Liliana Chávez"}}, {"type": "Feature", "geometry": {"type": "Point", "coordinates": [-91.2877493, 14.7789717]}, "properties": {"Municipio": "Santa Lucía Utatlán", "Grupo": "ECA Pachipak", "No": 106, "Nombre": "Juana Petronila Yax Vasquez"}}, {"type": "Feature", "geometry": {"type": "Point", "coordinates": [-91.2705061, 14.7814533]}, "properties": {"Municipio": "Santa Lucía Utatlán", "Grupo": "ECA Pachipak", "No": 107, "Nombre": "Jacklin Irene Presensín Alva"}}, {"type": "Feature", "geometry": {"type": "Point", "coordinates": [-91.2708243, 14.7811787]}, "properties": {"Municipio": "Santa Lucía Utatlán", "Grupo": "ECA Pachipak", "No": 108, "Nombre": "Fausto Rolando Alva Coxolca"}}, {"type": "Feature", "geometry": {"type": "Point", "coordinates": [-91.2698335, 14.7791018]}, "properties": {"Municipio": "Santa Lucía Utatlán", "Grupo": "ECA Pachipak", "No": 109, "Nombre": "Rogelia Catarina Yác Tax"}}, {"type": "Feature", "geometry": {"type": "Point", "coordinates": [-91.2696891, 14.7727881]}, "properties": {"Municipio": "Santa Lucía Utatlán", "Grupo": "ECA Pachipak", "No": 110, "Nombre": "Reyna Tomasa Ajú"}}, {"type": "Feature", "geometry": {"type": "Point", "coordinates": [-91.2734019, 14.7904854]}, "properties": {"Municipio": "Santa Lucía Utatlán", "Grupo": "ECA Pachipak", "No": 111, "Nombre": "Mariana Vicenta Yac Yac"}}, {"type": "Feature", "geometry": {"type": "Point", "coordinates": [-91.27086, 14.793913]}, "properties": {"Municipio": "Santa Lucía Utatlán", "Grupo": "ECA Pachipak", "No": 112, "Nombre": "Marta Dominga Cux Yac"}}, {"type": "Feature", "geometry": {"type": "Point", "coordinates": [-91.2669998, 14.7746163]}, "properties": {"Municipio": "Santa Lucía Utatlán", "Grupo": "ECA Pachipak", "No": 113, "Nombre": "María Paula Chipín Yaxón"}}, {"type": "Feature", "geometry": {"type": "Point", "coordinates": [-91.2669359, 14.7746438]}, "properties": {"Municipio": "Santa Lucía Utatlán", "Grupo": "ECA Pachipak", "No": 114, "Nombre": "Filomena Manuela Chipín Yaxón"}}, {"type": "Feature", "geometry": {"type": "Point", "coordinates": [-91.27062, 14.7809701]}, "properties": {"Municipio": "Santa Lucía Utatlán", "Grupo": "ECA Pachipak", "No": 115, "Nombre": "Emilia Elena Vásquez Chávez "}}, {"type": "Feature", "geometry": {"type": "Point", "coordinates": [-91.2800364, 14.7834727]}, "properties": {"Municipio": "Santa Lucía Utatlán", "Grupo": "ECA Pamezabal", "No": 116, "Nombre": "Henry Alexander Tzapinel Yac"}}, {"type": "Feature", "geometry": {"type": "Point", "coordinates": [-91.2862968, 14.7773585]}, "properties": {"Municipio": "Santa Lucía Utatlán", "Grupo": "ECA Pamezabal", "No": 117, "Nombre": "Santos Juana Joj López"}}, {"type": "Feature", "geometry": {"type": "Point", "coordinates": [-91.2916565, 14.7746472]}, "properties": {"Municipio": "Santa Lucía Utatlán", "Grupo": "ECA Pamezabal", "No": 118, "Nombre": "Abraham Dionicio Vasquez Alva"}}, {"type": "Feature", "geometry": {"type": "Point", "coordinates": [-91.2851175, 14.7787709]}, "properties": {"Municipio": "Santa Lucía Utatlán", "Grupo": "ECA Pamezabal", "No": 119, "Nombre": "Elmer Alexander Ulario Cux"}}, {"type": "Feature", "geometry": {"type": "Point", "coordinates": [-91.2869757, 14.7770646]}, "properties": {"Municipio": "Santa Lucía Utatlán", "Grupo": "ECA Pamezabal", "No": 120, "Nombre": "Marcela Vasquez Zavala"}}, {"type": "Feature", "geometry": {"type": "Point", "coordinates": [-91.2851428, 14.7646937]}, "properties": {"Municipio": "Santa Lucía Utatlán", "Grupo": "ECA Pamezabal", "No": 121, "Nombre": "Maynor Catarino Chávez de León"}}, {"type": "Feature", "geometry": {"type": "Point", "coordinates": [-91.2797933, 14.7833919]}, "properties": {"Municipio": "Santa Lucía Utatlán", "Grupo": "ECA Pamezabal", "No": 122, "Nombre": "Tomás Ixcotoyac Osorio"}}, {"type": "Feature", "geometry": {"type": "Point", "coordinates": [-91.2828637, 14.7807439]}, "properties": {"Municipio": "Santa Lucía Utatlán", "Grupo": "ECA Pamezabal", "No": 123, "Nombre": "Juliana Vicenta Joj Saloj"}}, {"type": "Feature", "geometry": {"type": "Point", "coordinates": [-91.2884537, 14.7779064]}, "properties": {"Municipio": "Santa Lucía Utatlán", "Grupo": "ECA Pamezabal", "No": 124, "Nombre": "Rosa Quilina Sajché Joj de Yac"}}, {"type": "Feature", "geometry": {"type": "Point", "coordinates": [-91.2869443, 14.7821749]}, "properties": {"Municipio": "Santa Lucía Utatlán", "Grupo": "ECA Pamezabal", "No": 125, "Nombre": "Cristobal Ulario Sulugüi"}}, {"type": "Feature", "geometry": {"type": "Point", "coordinates": [-91.2873485, 14.7823415]}, "properties": {"Municipio": "Santa Lucía Utatlán", "Grupo": "ECA Pamezabal", "No": 126, "Nombre": "Juan Ulario"}}, {"type": "Feature", "geometry": {"type": "Point", "coordinates": [-91.2911922, 14.7745429]}, "properties": {"Municipio": "Santa Lucía Utatlán", "Grupo": "ECA Pamezabal", "No": 127, "Nombre": "Pedro Pablo Ajanel"}}, {"type": "Feature", "geometry": {"type": "Point", "coordinates": [-91.2908204, 14.7668636]}, "properties": {"Municipio": "Santa Lucía Utatlán", "Grupo": "ECA Pamezabal", "No": 128, "Nombre": "Nelson Jesús Ixcol Yac"}}, {"type": "Feature", "geometry": {"type": "Point", "coordinates": [-91.2907984, 14.7668716]}, "properties": {"Municipio": "Santa Lucía Utatlán", "Grupo": "ECA Pamezabal", "No": 129, "Nombre": "Selvin Josué Ixcol Yac"}}, {"type": "Feature", "geometry": {"type": "Point", "coordinates": [-91.2899285, 14.7734477]}, "properties": {"Municipio": "Santa Lucía Utatlán", "Grupo": "ECA Pamezabal", "No": 130, "Nombre": "Santos Laureano Yac Noj"}}, {"type": "Feature", "geometry": {"type": "Point", "coordinates": [-91.29017, 14.7755365]}, "properties": {"Municipio": "Santa Lucía Utatlán", "Grupo": "ECA Pamezabal", "No": 131, "Nombre": "Lucía Ixcol Alva"}}, {"type": "Feature", "geometry": {"type": "Point", "coordinates": [-91.2902121, 14.7754055]}, "properties": {"Municipio": "Santa Lucía Utatlán", "Grupo": "ECA Pamezabal", "No": 132, "Nombre": "Juana Noemí Ixcol Ixcol"}}, {"type": "Feature", "geometry": {"type": "Point", "coordinates": [-91.2927054, 14.7765624]}, "properties": {"Municipio": "Santa Lucía Utatlán", "Grupo": "ECA Pamezabal", "No": 133, "Nombre": "Francisco Pedro Yac Saloj"}}, {"type": "Feature", "geometry": {"type": "Point", "coordinates": [-91.3024505, 14.7621389]}, "properties": {"Municipio": "Santa Lucía Utatlán", "Grupo": "ECA Buena Vista", "No": 134, "Nombre": "Sara Victoriana Ixcol Chutá"}}, {"type": "Feature", "geometry": {"type": "Point", "coordinates": [-91.3026643, 14.7622188]}, "properties": {"Municipio": "Santa Lucía Utatlán", "Grupo": "ECA Buena Vista", "No": 135, "Nombre": "Vilma Marcelina Yac Yac"}}, {"type": "Feature", "geometry": {"type": "Point", "coordinates": [-91.3023548, 14.762433]}, "properties": {"Municipio": "Santa Lucía Utatlán", "Grupo": "ECA Buena Vista", "No": 136, "Nombre": "Santa Petronila Xaminez Ulario"}}, {"type": "Feature", "geometry": {"type": "Point", "coordinates": [-91.3012147, 14.7689117]}, "properties": {"Municipio": "Santa Lucía Utatlán", "Grupo": "ECA Buena Vista", "No": 137, "Nombre": "Eusebia Juana Ixcol Yac"}}, {"type": "Feature", "geometry": {"type": "Point", "coordinates": [-91.2519005, 14.7844047]}, "properties": {"Municipio": "Santa Lucía Utatlán", "Grupo": "ECA Buena Vista", "No": 138, "Nombre": "Aura Yaneth Vicente Suy"}}, {"type": "Feature", "geometry": {"type": "Point", "coordinates": [-91.3034351, 14.7649158]}, "properties": {"Municipio": "Santa Lucía Utatlán", "Grupo": "ECA Buena Vista", "No": 139, "Nombre": "Jandy Anal8 Ixcol Chávez"}}, {"type": "Feature", "geometry": {"type": "Point", "coordinates": [-91.2967892, 14.7686485]}, "properties": {"Municipio": "Santa Lucía Utatlán", "Grupo": "ECA Buena Vista", "No": 140, "Nombre": "Jesica Vanesa joj Quiche"}}, {"type": "Feature", "geometry": {"type": "Point", "coordinates": [-91.2968272, 14.7687786]}, "properties": {"Municipio": "Santa Lucía Utatlán", "Grupo": "ECA Buena Vista", "No": 141, "Nombre": "Marleny Nicolasa Yac Joj"}}, {"type": "Feature", "geometry": {"type": "Point", "coordinates": [-91.3020371, 14.7642468]}, "properties": {"Municipio": "Santa Lucía Utatlán", "Grupo": "ECA Buena Vista", "No": 142, "Nombre": "Marilin Benny Kimberly xaminrz chox"}}, {"type": "Feature", "geometry": {"type": "Point", "coordinates": [-91.2958955, 14.7699339]}, "properties": {"Municipio": "Santa Lucía Utatlán", "Grupo": "ECA Buena Vista", "No": 143, "Nombre": "Rosa Jeteya Chávez"}}, {"type": "Feature", "geometry": {"type": "Point", "coordinates": [-91.2976961, 14.7685905]}, "properties": {"Municipio": "Santa Lucía Utatlán", "Grupo": "ECA Buena Vista", "No": 144, "Nombre": "Débora Victoria Joj Alva"}}, {"type": "Feature", "geometry": {"type": "Point", "coordinates": [-91.2973018, 14.768324]}, "properties": {"Municipio": "Santa Lucía Utatlán", "Grupo": "ECA Buena Vista", "No": 145, "Nombre": "Verónica González López"}}, {"type": "Feature", "geometry": {"type": "Point", "coordinates": [-91.2966862, 14.7695]}, "properties": {"Municipio": "Santa Lucía Utatlán", "Grupo": "ECA Buena Vista", "No": 146, "Nombre": "Santa Patricia Alva Tohom"}}, {"type": "Feature", "geometry": {"type": "Point", "coordinates": [-91.29697, 14.7685643]}, "properties": {"Municipio": "Santa Lucía Utatlán", "Grupo": "ECA Buena Vista", "No": 147, "Nombre": "Ofelia Manuela Yac González"}}, {"type": "Feature", "geometry": {"type": "Point", "coordinates": [-91.2965674, 14.7689965]}, "properties": {"Municipio": "Santa Lucía Utatlán", "Grupo": "ECA Buena Vista", "No": 148, "Nombre": "Evelyn Maribel Muy Escún"}}, {"type": "Feature", "geometry": {"type": "Point", "coordinates": [-91.2973131, 14.7703922]}, "properties": {"Municipio": "Santa Lucía Utatlán", "Grupo": "ECA Buena Vista", "No": 149, "Nombre": "Isabela Francisca Yac Chávez"}}, {"type": "Feature", "geometry": {"type": "Point", "coordinates": [-91.2975882, 14.7702292]}, "properties": {"Municipio": "Santa Lucía Utatlán", "Grupo": "ECA Buena Vista", "No": 150, "Nombre": "Elena Paulina Muy Alvarez"}}, {"type": "Feature", "geometry": {"type": "Point", "coordinates": [-91.2963833, 14.7703831]}, "properties": {"Municipio": "Santa Lucía Utatlán", "Grupo": "ECA Buena Vista", "No": 151, "Nombre": "Simona Micaela Yac Mactzul"}}, {"type": "Feature", "geometry": {"type": "Point", "coordinates": [-91.296001, 14.7702506]}, "properties": {"Municipio": "Santa Lucía Utatlán", "Grupo": "ECA Buena Vista", "No": 152, "Nombre": "Dominga Ixcol Alva"}}, {"type": "Feature", "geometry": {"type": "Point", "coordinates": [-91.3061104, 14.7227311]}, "properties": {"Municipio": "Santa Clara La Laguna", "Grupo": "ECA Paquip", "No": 153, "Nombre": "Clara Chocoy tuj"}}, {"type": "Feature", "geometry": {"type": "Point", "coordinates": [-91.3068595, 14.7135847]}, "properties": {"Municipio": "Santa Clara La Laguna", "Grupo": "ECA Paquip", "No": 154, "Nombre": "María Xitamul tahay"}}, {"type": "Feature", "geometry": {"type": "Point", "coordinates": [-91.3222426, 14.6894581]}, "properties": {"Municipio": "Santa Clara La Laguna", "Grupo": "ECA Paquip", "No": 155, "Nombre": "Pedro Alvarado de León"}}, {"type": "Feature", "geometry": {"type": "Point", "coordinates": [-91.3070136, 14.7106992]}, "properties": {"Municipio": "Santa Clara La Laguna", "Grupo": "ECA Paquip", "No": 156, "Nombre": "Ana Ramirez Tay"}}, {"type": "Feature", "geometry": {"type": "Point", "coordinates": [-91.3094222, 14.7121434]}, "properties": {"Municipio": "Santa Clara La Laguna", "Grupo": "ECA Paquip", "No": 157, "Nombre": "Candelaria Xitamul Tahay"}}, {"type": "Feature", "geometry": {"type": "Point", "coordinates": [-91.3062409, 14.7207999]}, "properties": {"Municipio": "Santa Clara La Laguna", "Grupo": "ECA Paquip", "No": 158, "Nombre": "Izabel Compar To"}}, {"type": "Feature", "geometry": {"type": "Point", "coordinates": [-91.306352, 14.7209489]}, "properties": {"Municipio": "Santa Clara La Laguna", "Grupo": "ECA Paquip", "No": 159, "Nombre": "Juana Chacom chocoy"}}, {"type": "Feature", "geometry": {"type": "Point", "coordinates": [-91.2957922, 14.7130461]}, "properties": {"Municipio": "Santa Clara La Laguna", "Grupo": "ECA Paquip", "No": 160, "Nombre": "Hilda Lucía Chocóy Compar"}}, {"type": "Feature", "geometry": {"type": "Point", "coordinates": [-91.3158581, 14.7004241]}, "properties": {"Municipio": "Santa Clara La Laguna", "Grupo": "ECA Paquip", "No": 161, "Nombre": "Alberto Alvarado Pérez"}}, {"type": "Feature", "geometry": {"type": "Point", "coordinates": [-91.3042291, 14.7113695]}, "properties": {"Municipio": "Santa Clara La Laguna", "Grupo": "ECA Paquip", "No": 162, "Nombre": "Angelina Vásquez Salvador"}}, {"type": "Feature", "geometry": {"type": "Point", "coordinates": [-91.3125013, 14.7046829]}, "properties": {"Municipio": "Santa Clara La Laguna", "Grupo": "ECA Paquip", "No": 163, "Nombre": "Herlindo Álvarez Román"}}, {"type": "Feature", "geometry": {"type": "Point", "coordinates": [-91.3010082, 14.7142842]}, "properties": {"Municipio": "Santa Clara La Laguna", "Grupo": "ECA Paquip", "No": 164, "Nombre": "Mariano Tzaj Chacom"}}, {"type": "Feature", "geometry": {"type": "Point", "coordinates": [-91.3026846, 14.7144427]}, "properties": {"Municipio": "Santa Clara La Laguna", "Grupo": "ECA Paquip", "No": 165, "Nombre": "Eladia Ricarda Ixcotoyac Yac"}}, {"type": "Feature", "geometry": {"type": "Point", "coordinates": [-91.3026441, 14.7145027]}, "properties": {"Municipio": "Santa Clara La Laguna", "Grupo": "ECA Paquip", "No": 166, "Nombre": "María del Rosario Ixmatá Chocoy"}}, {"type": "Feature", "geometry": {"type": "Point", "coordinates": [-91.3044424, 14.7116787]}, "properties": {"Municipio": "Santa Clara La Laguna", "Grupo": "ECA Paquip", "No": 167, "Nombre": "Carmen Carolina Sac y Sac"}}, {"type": "Feature", "geometry": {"type": "Point", "coordinates": [-91.3032454, 14.7118847]}, "properties": {"Municipio": "Santa Clara La Laguna", "Grupo": "ECA Paquip", "No": 168, "Nombre": "Rosario Tzaj Tuj"}}, {"type": "Feature", "geometry": {"type": "Point", "coordinates": [-91.3079911, 14.7169544]}, "properties": {"Municipio": "Santa María Visitación", "Grupo": "ECA Montecristo", "No": 169, "Nombre": "Magdalena Chavajay Chavajay"}}, {"type": "Feature", "geometry": {"type": "Point", "coordinates": [-91.3097233, 14.7121417]}, "properties": {"Municipio": "Santa María Visitación", "Grupo": "ECA Montecristo", "No": 170, "Nombre": "Lorenzo Cux Mendez"}}, {"type": "Feature", "geometry": {"type": "Point", "coordinates": [-91.3236225, 14.6999399]}, "properties": {"Municipio": "Santa María Visitación", "Grupo": "ECA Montecristo", "No": 171, "Nombre": "Victor Cux tzoc"}}, {"type": "Feature", "geometry": {"type": "Point", "coordinates": [-91.3140005, 14.7062316]}, "properties": {"Municipio": "Santa María Visitación", "Grupo": "ECA Montecristo", "No": 172, "Nombre": "Imelda matea Cux Chox"}}, {"type": "Feature", "geometry": {"type": "Point", "coordinates": [-91.314118, 14.7063755]}, "properties": {"Municipio": "Santa María Visitación", "Grupo": "ECA Montecristo", "No": 173, "Nombre": "Edith María Ixcaya Ixcaya"}}, {"type": "Feature", "geometry": {"type": "Point", "coordinates": [-91.3104289, 14.7170392]}, "properties": {"Municipio": "Santa María Visitación", "Grupo": "ECA Montecristo", "No": 174, "Nombre": "María Magdalena Cos Chavajay"}}, {"type": "Feature", "geometry": {"type": "Point", "coordinates": [-91.3103384, 14.7169435]}, "properties": {"Municipio": "Santa María Visitación", "Grupo": "ECA Montecristo", "No": 175, "Nombre": "Delma elizabeth Chávez Cos"}}, {"type": "Feature", "geometry": {"type": "Point", "coordinates": [-91.3142419, 14.7064054]}, "properties": {"Municipio": "Santa María Visitación", "Grupo": "ECA Montecristo", "No": 176, "Nombre": "Olga Yolanda Cux"}}, {"type": "Feature", "geometry": {"type": "Point", "coordinates": [-91.3142419, 14.7064054]}, "properties": {"Municipio": "Santa María Visitación", "Grupo": "ECA Montecristo", "No": 177, "Nombre": "Faustina Chox Vicente"}}, {"type": "Feature", "geometry": {"type": "Point", "coordinates": [-91.3096713, 14.7201562]}, "properties": {"Municipio": "Santa María Visitación", "Grupo": "ECA Montecristo", "No": 178, "Nombre": "Nancy Pamela Gonzales Chox"}}, {"type": "Feature", "geometry": {"type": "Point", "coordinates": [-91.3089717, 14.7189515]}, "properties": {"Municipio": "Santa María Visitación", "Grupo": "ECA Montecristo", "No": 179, "Nombre": "Palmira Yakelin Par Sazo"}}, {"type": "Feature", "geometry": {"type": "Point", "coordinates": [-91.3103035, 14.7171247]}, "properties": {"Municipio": "Santa María Visitación", "Grupo": "ECA Montecristo", "No": 180, "Nombre": "Silvia Elizabeth Chávez Cos"}}, {"type": "Feature", "geometry": {"type": "Point", "coordinates": [-91.3078848, 14.7169468]}, "properties": {"Municipio": "Santa María Visitación", "Grupo": "ECA Montecristo", "No": 181, "Nombre": "Jennifer Betzabé Chavajay Méndez"}}, {"type": "Feature", "geometry": {"type": "Point", "coordinates": [-91.3105252, 14.7155533]}, "properties": {"Municipio": "Santa María Visitación", "Grupo": "ECA Montecristo", "No": 182, "Nombre": "Juana Leticia Chavajay Chavajay"}}, {"type": "Feature", "geometry": {"type": "Point", "coordinates": [-91.3221521, 14.7021179]}, "properties": {"Municipio": "Santa María Visitación", "Grupo": "ECA Montecristo", "No": 183, "Nombre": "José de León Chutá"}}, {"type": "Feature", "geometry": {"type": "Point", "coordinates": [-91.3143016, 14.7056238]}, "properties": {"Municipio": "Santa María Visitación", "Grupo": "ECA Montecristo", "No": 184, "Nombre": "Pedro Armando Guarchaj Puac"}}, {"type": "Feature", "geometry": {"type": "Point", "coordinates": [-91.309062, 14.7162822]}, "properties": {"Municipio": "Santa María Visitación", "Grupo": "ECA Montecristo", "No": 185, "Nombre": "Aura Gabriela Chávez Pérez"}}, {"type": "Feature", "geometry": {"type": "Point", "coordinates": [-91.3090052, 14.7164178]}, "properties": {"Municipio": "Santa María Visitación", "Grupo": "ECA Montecristo", "No": 186, "Nombre": "Isabel Lucrecia Chox Ixcol"}}, {"type": "Feature", "geometry": {"type": "Point", "coordinates": [-91.3090283, 14.719035]}, "properties": {"Municipio": "Santa María Visitación", "Grupo": "ECA Montecristo", "No": 187, "Nombre": "Magdalena Sosa Bizarro"}}, {"type": "Feature", "geometry": {"type": "Point", "coordinates": [-91.3157456, 14.6844129]}, "properties": {"Municipio": "San Juan La Laguna", "Grupo": "ECA Cipresales", "No": 188, "Nombre": "Soly Angela Escun Tzoc"}}, {"type": "Feature", "geometry": {"type": "Point", "coordinates": [-91.311617, 14.6770826]}, "properties": {"Municipio": "San Juan La Laguna", "Grupo": "ECA Cipresales", "No": 189, "Nombre": "Esperanza Marisol Puac Morales"}}, {"type": "Feature", "geometry": {"type": "Point", "coordinates": [-91.3131598, 14.679633]}, "properties": {"Municipio": "San Juan La Laguna", "Grupo": "ECA Cipresales", "No": 190, "Nombre": "Elena Rosalda Coj Gonzales"}}, {"type": "Feature", "geometry": {"type": "Point", "coordinates": [-91.3146711, 14.6801517]}, "properties": {"Municipio": "San Juan La Laguna", "Grupo": "ECA Cipresales", "No": 191, "Nombre": "Santos Margarita Tohóm Vásquez "}}, {"type": "Feature", "geometry": {"type": "Point", "coordinates": [-91.3143911, 14.6805897]}, "properties": {"Municipio": "San Juan La Laguna", "Grupo": "ECA Cipresales", "No": 192, "Nombre": "Santos Olivia Tohom Vázquez"}}, {"type": "Feature", "geometry": {"type": "Point", "coordinates": [-91.314452, 14.6806136]}, "properties": {"Municipio": "San Juan La Laguna", "Grupo": "ECA Cipresales", "No": 193, "Nombre": "Santos Daniel Gorge Menchu"}}, {"type": "Feature", "geometry": {"type": "Point", "coordinates": [-91.3122019, 14.6768523]}, "properties": {"Municipio": "San Juan La Laguna", "Grupo": "ECA Cipresales", "No": 194, "Nombre": "Santa Venancia Morales Gonzáles"}}, {"type": "Feature", "geometry": {"type": "Point", "coordinates": [-91.3142599, 14.6759846]}, "properties": {"Municipio": "San Juan La Laguna", "Grupo": "ECA Cipresales", "No": 195, "Nombre": "Soly Angela Escún Tzoc"}}, {"type": "Feature", "geometry": {"type": "Point", "coordinates": [-91.3127409, 14.6911429]}, "properties": {"Municipio": "San Juan La Laguna", "Grupo": "ECA Cipresales", "No": 196, "Nombre": "Matea Emiliana Jorge Tohom"}}, {"type": "Feature", "geometry": {"type": "Point", "coordinates": [-91.3117985, 14.675449]}, "properties": {"Municipio": "San Juan La Laguna", "Grupo": "ECA Cipresales", "No": 197, "Nombre": "Tomasa Catarina Coj González"}}, {"type": "Feature", "geometry": {"type": "Point", "coordinates": [-91.3117324, 14.6753924]}, "properties": {"Municipio": "San Juan La Laguna", "Grupo": "ECA Cipresales", "No": 198, "Nombre": "Francisca González Puac"}}, {"type": "Feature", "geometry": {"type": "Point", "coordinates": [-91.3123906, 14.6801801]}, "properties": {"Municipio": "San Juan La Laguna", "Grupo": "ECA Cipresales", "No": 199, "Nombre": "Elena Morales González"}}, {"type": "Feature", "geometry": {"type": "Point", "coordinates": [-91.314417, 14.6795262]}, "properties": {"Municipio": "San Juan La Laguna", "Grupo": "ECA Cipresales", "No": 200, "Nombre": "Irma Tohom Vásquez"}}, {"type": "Feature", "geometry": {"type": "Point", "coordinates": [-91.3140654, 14.6799594]}, "properties": {"Municipio": "San Juan La Laguna", "Grupo": "ECA Cipresales", "No": 201, "Nombre": "Brenda Isabel Morales González "}}, {"type": "Feature", "geometry": {"type": "Point", "coordinates": [-91.313572, 14.679483]}, "properties": {"Municipio": "San Juan La Laguna", "Grupo": "ECA Cipresales", "No": 202, "Nombre": "Josefina Gricelda Jorge Tohom"}}, {"type": "Feature", "geometry": {"type": "Point", "coordinates": [-91.3135679, 14.6794972]}, "properties": {"Municipio": "San Juan La Laguna", "Grupo": "ECA Cipresales", "No": 203, "Nombre": "Olga Alicia Jorge Tohom"}}, {"type": "Feature", "geometry": {"type": "Point", "coordinates": [-91.3187925, 14.66975]}, "properties": {"Municipio": "San Juan La Laguna", "Grupo": "ECA Panyebar", "No": 204, "Nombre": "Sandra Orvelia Morales Chávez"}}, {"type": "Feature", "geometry": {"type": "Point", "coordinates": [-91.3186957, 14.6694754]}, "properties": {"Municipio": "San Juan La Laguna", "Grupo": "ECA Panyebar", "No": 205, "Nombre": "Manuela Tuch Chavajay"}}, {"type": "Feature", "geometry": {"type": "Point", "coordinates": [-91.3189061, 14.6670207]}, "properties": {"Municipio": "San Juan La Laguna", "Grupo": "ECA Panyebar", "No": 206, "Nombre": "Gema Amparo Ramos Buch"}}, {"type": "Feature", "geometry": {"type": "Point", "coordinates": [-91.3183389, 14.6687704]}, "properties": {"Municipio": "San Juan La Laguna", "Grupo": "ECA Panyebar", "No": 207, "Nombre": "Tiburcia Yac Tzep"}}, {"type": "Feature", "geometry": {"type": "Point", "coordinates": [-91.3186275, 14.6712254]}, "properties": {"Municipio": "San Juan La Laguna", "Grupo": "ECA Panyebar", "No": 208, "Nombre": "Rosalía Fransisca Tzic Dionisio"}}, {"type": "Feature", "geometry": {"type": "Point", "coordinates": [-91.3184996, 14.6711536]}, "properties": {"Municipio": "San Juan La Laguna", "Grupo": "ECA Panyebar", "No": 209, "Nombre": "Natalia Tzic Puác"}}, {"type": "Feature", "geometry": {"type": "Point", "coordinates": [-91.3169998, 14.6719604]}, "properties": {"Municipio": "San Juan La Laguna", "Grupo": "ECA Panyebar", "No": 210, "Nombre": "Julia Chávez Pech"}}, {"type": "Feature", "geometry": {"type": "Point", "coordinates": [-91.3185144, 14.6710851]}, "properties": {"Municipio": "San Juan La Laguna", "Grupo": "ECA Panyebar", "No": 211, "Nombre": "Manuela Xum Yac"}}, {"type": "Feature", "geometry": {"type": "Point", "coordinates": [-91.3187581, 14.6668763]}, "properties": {"Municipio": "San Juan La Laguna", "Grupo": "ECA Panyebar", "No": 212, "Nombre": "Paulina Estela Puac Salquil"}}, {"type": "Feature", "geometry": {"type": "Point", "coordinates": [-91.3159968, 14.6697626]}, "properties": {"Municipio": "San Juan La Laguna", "Grupo": "ECA Panyebar", "No": 213, "Nombre": "María Sebastiana Pech Puac"}}, {"type": "Feature", "geometry": {"type": "Point", "coordinates": [-91.3276247, 14.6625679]}, "properties": {"Municipio": "San Juan La Laguna", "Grupo": "ECA Panyebar", "No": 214, "Nombre": "Leslie Martina Damaris Puac Tzic"}}, {"type": "Feature", "geometry": {"type": "Point", "coordinates": [-91.3181653, 14.6706193]}, "properties": {"Municipio": "San Juan La Laguna", "Grupo": "ECA Panyebar", "No": 215, "Nombre": "Fausto Hugo Ixcamparic Pacheco"}}, {"type": "Feature", "geometry": {"type": "Point", "coordinates": [-91.3179209, 14.6692257]}, "properties": {"Municipio": "San Juan La Laguna", "Grupo": "ECA Panyebar", "No": 216, "Nombre": "Cristy Gricelda Sulugui Aguilar"}}, {"type": "Feature", "geometry": {"type": "Point", "coordinates": [-91.3208221, 14.6682764]}, "properties": {"Municipio": "San Juan La Laguna", "Grupo": "ECA Panyebar", "No": 217, "Nombre": "Santa Feliciana Tuch Pérez"}}, {"type": "Feature", "geometry": {"type": "Point", "coordinates": [-91.3189048, 14.6700946]}, "properties": {"Municipio": "San Juan La Laguna", "Grupo": "ECA Panyebar", "No": 218, "Nombre": "Vilma Magalí Tzic Xum"}}, {"type": "Feature", "geometry": {"type": "Point", "coordinates": [-91.3181092, 14.6705978]}, "properties": {"Municipio": "San Juan La Laguna", "Grupo": "ECA Panyebar", "No": 219, "Nombre": "Angélica Elizabeth Puac Ixcamparic"}}, {"type": "Feature", "geometry": {"type": "Point", "coordinates": [-91.3102695, 14.7805768]}, "properties": {"Municipio": "Nahualá", "Grupo": "ECA Tzucubal", "No": 220, "Nombre": "Fransisco Chávez Ixtos"}}, {"type": "Feature", "geometry": {"type": "Point", "coordinates": [-91.3098058, 14.7809423]}, "properties": {"Municipio": "Nahualá", "Grupo": "ECA Tzucubal", "No": 221, "Nombre": "Catarina Estela Ajquí Chávez"}}, {"type": "Feature", "geometry": {"type": "Point", "coordinates": [-91.3102227, 14.781419]}, "properties": {"Municipio": "Nahualá", "Grupo": "ECA Tzucubal", "No": 222, "Nombre": "Domingo Cocom Guarchaj"}}, {"type": "Feature", "geometry": {"type": "Point", "coordinates": [-91.3100225, 14.781295]}, "properties": {"Municipio": "Nahualá", "Grupo": "ECA Tzucubal", "No": 223, "Nombre": "Manuela Chávez Ajquí"}}, {"type": "Feature", "geometry": {"type": "Point", "coordinates": [-91.3101883, 14.7809097]}, "properties": {"Municipio": "Nahualá", "Grupo": "ECA Tzucubal", "No": 224, "Nombre": "Juan Chávez Tulul"}}, {"type": "Feature", "geometry": {"type": "Point", "coordinates": [-91.3105517, 14.7809205]}, "properties": {"Municipio": "Nahualá", "Grupo": "ECA Tzucubal", "No": 225, "Nombre": "Juan Chávez Ajquí"}}, {"type": "Feature", "geometry": {"type": "Point", "coordinates": [-91.3126086, 14.7824782]}, "properties": {"Municipio": "Nahualá", "Grupo": "ECA Tzucubal", "No": 226, "Nombre": "Baltazar Tepaz Xocol"}}, {"type": "Feature", "geometry": {"type": "Point", "coordinates": [-91.3124225, 14.7825904]}, "properties": {"Municipio": "Nahualá", "Grupo": "ECA Tzucubal", "No": 227, "Nombre": "Lorenzo Tulul Tulul"}}, {"type": "Feature", "geometry": {"type": "Point", "coordinates": [-91.3120221, 14.78271]}, "properties": {"Municipio": "Nahualá", "Grupo": "ECA Tzucubal", "No": 228, "Nombre": "Catarina Tulul Tepaz"}}, {"type": "Feature", "geometry": {"type": "Point", "coordinates": [-91.3119914, 14.7831932]}, "properties": {"Municipio": "Nahualá", "Grupo": "ECA Tzucubal", "No": 229, "Nombre": "Manuel Coj Chávez"}}, {"type": "Feature", "geometry": {"type": "Point", "coordinates": [-91.3097529, 14.7807989]}, "properties": {"Municipio": "Nahualá", "Grupo": "ECA Tzucubal", "No": 230, "Nombre": "Catarina Chávez Tulul"}}, {"type": "Feature", "geometry": {"type": "Point", "coordinates": [-91.3102999, 14.7809701]}, "properties": {"Municipio": "Nahualá", "Grupo": "ECA Tzucubal", "No": 231, "Nombre": "María Sipac Tzep"}}, {"type": "Feature", "geometry": {"type": "Point", "coordinates": [-91.3082541, 14.7806012]}, "properties": {"Municipio": "Nahualá", "Grupo": "ECA Tzucubal", "No": 232, "Nombre": "Ana María Sipac Tulul"}}, {"type": "Feature", "geometry": {"type": "Point", "coordinates": [-91.3076484, 14.7807746]}, "properties": {"Municipio": "Nahualá", "Grupo": "ECA Tzucubal", "No": 233, "Nombre": "María Chávez Tulul"}}, {"type": "Feature", "geometry": {"type": "Point", "coordinates": [-91.3076374, 14.7807885]}, "properties": {"Municipio": "Nahualá", "Grupo": "ECA Tzucubal", "No": 234, "Nombre": "Miguel Coj Sac"}}, {"type": "Feature", "geometry": {"type": "Point", "coordinates": [-91.3106375, 14.7809505]}, "properties": {"Municipio": "Nahualá", "Grupo": "ECA Tzucubal", "No": 235, "Nombre": "Manuel Chávez Ixtós"}}, {"type": "Feature", "geometry": {"type": "Point", "coordinates": [-91.3106274, 14.7809445]}, "properties": {"Municipio": "Nahualá", "Grupo": "ECA Tzucubal", "No": 236, "Nombre": "Catarina Tulul Tulul"}}, {"type": "Feature", "geometry": {"type": "Point", "coordinates": [-91.3106233, 14.7809147]}, "properties": {"Municipio": "Nahualá", "Grupo": "ECA Tzucubal", "No": 237, "Nombre": "Juana Chávez Ajquí"}}, {"type": "Feature", "geometry": {"type": "Point", "coordinates": [-91.3105805, 14.7808157]}, "properties": {"Municipio": "Nahualá", "Grupo": "ECA Tzucubal", "No": 238, "Nombre": "Yolanda María Sac Tzep"}}, {"type": "Feature", "geometry": {"type": "Point", "coordinates": [-91.2088033, 14.7720744]}, "properties": {"Municipio": "San José Chacayá", "Grupo": "ECA Chuacruz", "No": 239, "Nombre": "Débora Xoquic Tuy"}}, {"type": "Feature", "geometry": {"type": "Point", "coordinates": [-91.2089383, 14.7715434]}, "properties": {"Municipio": "San José Chacayá", "Grupo": "ECA Chuacruz", "No": 240, "Nombre": "Juana Vicente Tojin"}}, {"type": "Feature", "geometry": {"type": "Point", "coordinates": [-91.2081581, 14.7716436]}, "properties": {"Municipio": "San José Chacayá", "Grupo": "ECA Chuacruz", "No": 241, "Nombre": "Vicenta Quisquina Chuj"}}, {"type": "Feature", "geometry": {"type": "Point", "coordinates": [-91.2082625, 14.771694]}, "properties": {"Municipio": "San José Chacayá", "Grupo": "ECA Chuacruz", "No": 242, "Nombre": "Vilma Lucia Vicente Macías"}}, {"type": "Feature", "geometry": {"type": "Point", "coordinates": [-91.2064015, 14.7721023]}, "properties": {"Municipio": "San José Chacayá", "Grupo": "ECA Chuacruz", "No": 243, "Nombre": "Catalina Vicenta Tojin"}}, {"type": "Feature", "geometry": {"type": "Point", "coordinates": [-91.2095789, 14.7713707]}, "properties": {"Municipio": "San José Chacayá", "Grupo": "ECA Chuacruz", "No": 244, "Nombre": "Magdalena Ajcalon Ajcalon"}}, {"type": "Feature", "geometry": {"type": "Point", "coordinates": [-91.208353, 14.771592]}, "properties": {"Municipio": "San José Chacayá", "Grupo": "ECA Chuacruz", "No": 245, "Nombre": "Rosario necias pilo"}}, {"type": "Feature", "geometry": {"type": "Point", "coordinates": [-91.2086062, 14.7719619]}, "properties": {"Municipio": "San José Chacayá", "Grupo": "ECA Chuacruz", "No": 246, "Nombre": "Elvira Xitamul Cotuc"}}, {"type": "Feature", "geometry": {"type": "Point", "coordinates": [-91.2076948, 14.7713819]}, "properties": {"Municipio": "San José Chacayá", "Grupo": "ECA Chuacruz", "No": 247, "Nombre": "Angelina Coxaj Cuá"}}, {"type": "Feature", "geometry": {"type": "Point", "coordinates": [-91.207822, 14.7710198]}, "properties": {"Municipio": "San José Chacayá", "Grupo": "ECA Chuacruz", "No": 248, "Nombre": "Concepción Mecías Piló"}}, {"type": "Feature", "geometry": {"type": "Point", "coordinates": [-91.2077795, 14.7710167]}, "properties": {"Municipio": "San José Chacayá", "Grupo": "ECA Chuacruz", "No": 249, "Nombre": "Regina Floridalma Coxaj Mecía "}}, {"type": "Feature", "geometry": {"type": "Point", "coordinates": [-91.2078106, 14.7710405]}, "properties": {"Municipio": "San José Chacayá", "Grupo": "ECA Chuacruz", "No": 250, "Nombre": "Sebastiana Jesús Coxaj Cúa"}}, {"type": "Feature", "geometry": {"type": "Point", "coordinates": [-91.2064404, 14.7719598]}, "properties": {"Municipio": "San José Chacayá", "Grupo": "ECA Chuacruz", "No": 251, "Nombre": "Felipa Ajcalon Chiyal"}}, {"type": "Feature", "geometry": {"type": "Point", "coordinates": [-91.2064763, 14.7719666]}, "properties": {"Municipio": "San José Chacayá", "Grupo": "ECA Chuacruz", "No": 252, "Nombre": "Micaela Solares Ajquichí"}}, {"type": "Feature", "geometry": {"type": "Point", "coordinates": [-91.2074829, 14.7716116]}, "properties": {"Municipio": "San José Chacayá", "Grupo": "ECA Chuacruz", "No": 253, "Nombre": "María Vicente Vicente "}}, {"type": "Feature", "geometry": {"type": "Point", "coordinates": [-91.2065247, 14.7713998]}, "properties": {"Municipio": "San José Chacayá", "Grupo": "ECA Chuacruz", "No": 254, "Nombre": "Angélica Ajcalón Ajcalón"}}, {"type": "Feature", "geometry": {"type": "Point", "coordinates": [-91.206899, 14.7713236]}, "properties": {"Municipio": "San José Chacayá", "Grupo": "ECA Chuacruz", "No": 255, "Nombre": "Paulina Vicente Vicente"}}, {"type": "Feature", "geometry": {"type": "Point", "coordinates": [-91.2067621, 14.7714271]}, "properties": {"Municipio": "San José Chacayá", "Grupo": "ECA Chuacruz", "No": 256, "Nombre": "Francisca Quisquiná Tzurec"}}, {"type": "Feature", "geometry": {"type": "Point", "coordinates": [-91.2067637, 14.7723906]}, "properties": {"Municipio": "San José Chacayá", "Grupo": "ECA Chuacruz", "No": 257, "Nombre": "Margarita Ajcalón Chiyal"}}, {"type": "Feature", "geometry": {"type": "Point", "coordinates": [-91.220925, 14.7675679]}, "properties": {"Municipio": "San José Chacayá", "Grupo": "ECA Paromero", "No": 258, "Nombre": "Lorenzo Pablo Jeteya Xitamul"}}, {"type": "Feature", "geometry": {"type": "Point", "coordinates": [-91.2197929, 14.7702236]}, "properties": {"Municipio": "San José Chacayá", "Grupo": "ECA Paromero", "No": 259, "Nombre": "Rosa Marcela Roquel aju"}}, {"type": "Feature", "geometry": {"type": "Point", "coordinates": [-91.2095789, 14.7713707]}, "properties": {"Municipio": "San José Chacayá", "Grupo": "ECA Paromero", "No": 260, "Nombre": "Gloria elizabeth cumez yatz"}}, {"type": "Feature", "geometry": {"type": "Point", "coordinates": [-91.2095789, 14.7717353]}, "properties": {"Municipio": "San José Chacayá", "Grupo": "ECA Paromero", "No": 261, "Nombre": "Lea Marleny joj Chávez"}}, {"type": "Feature", "geometry": {"type": "Point", "coordinates": [-91.2050735, 14.7724879]}, "properties": {"Municipio": "San José Chacayá", "Grupo": "ECA Paromero", "No": 262, "Nombre": "Juana Saquic Roquel"}}, {"type": "Feature", "geometry": {"type": "Point", "coordinates": [-91.2203938, 14.7698558]}, "properties": {"Municipio": "San José Chacayá", "Grupo": "ECA Paromero", "No": 263, "Nombre": "Débora Yolanda Batz Bocel"}}, {"type": "Feature", "geometry": {"type": "Point", "coordinates": [-91.2095789, 14.7717353]}, "properties": {"Municipio": "San José Chacayá", "Grupo": "ECA Paromero", "No": 264, "Nombre": "Felipa Evangelina Chávez"}}, {"type": "Feature", "geometry": {"type": "Point", "coordinates": [-91.2095789, 14.7713707]}, "properties": {"Municipio": "San José Chacayá", "Grupo": "ECA Paromero", "No": 265, "Nombre": "Rosa Jeteya Roquel"}}, {"type": "Feature", "geometry": {"type": "Point", "coordinates": [-91.2251663, 14.7682514]}, "properties": {"Municipio": "San José Chacayá", "Grupo": "ECA Paromero", "No": 266, "Nombre": "Cecilia Roquel Vázquez"}}, {"type": "Feature", "geometry": {"type": "Point", "coordinates": [-91.2251608, 14.768286]}, "properties": {"Municipio": "San José Chacayá", "Grupo": "ECA Paromero", "No": 267, "Nombre": "María cipriana Ajú Roquel"}}, {"type": "Feature", "geometry": {"type": "Point", "coordinates": [-91.2252036, 14.7683018]}, "properties": {"Municipio": "San José Chacayá", "Grupo": "ECA Paromero", "No": 268, "Nombre": "Hilda Cecilia Aju Roquel"}}, {"type": "Feature", "geometry": {"type": "Point", "coordinates": [-91.2246475, 14.7669487]}, "properties": {"Municipio": "San José Chacayá", "Grupo": "ECA Paromero", "No": 269, "Nombre": "Paula Estela Saquic Vicente"}}, {"type": "Feature", "geometry": {"type": "Point", "coordinates": [-91.224639, 14.7669741]}, "properties": {"Municipio": "San José Chacayá", "Grupo": "ECA Paromero", "No": 270, "Nombre": "Paula Matea Roquel Vicente"}}, {"type": "Feature", "geometry": {"type": "Point", "coordinates": [-91.2224097, 14.7683853]}, "properties": {"Municipio": "San José Chacayá", "Grupo": "ECA Paromero", "No": 271, "Nombre": "Antonia Aju Sazo"}}, {"type": "Feature", "geometry": {"type": "Point", "coordinates": [-91.2241703, 14.7700869]}, "properties": {"Municipio": "San José Chacayá", "Grupo": "ECA Paromero", "No": 272, "Nombre": "Sipriana Romelia Gonzales Chávez"}}, {"type": "Feature", "geometry": {"type": "Point", "coordinates": [-91.2238767, 14.7698422]}, "properties": {"Municipio": "San José Chacayá", "Grupo": "ECA Paromero", "No": 273, "Nombre": "Espíritu Santo Sipac Pérez"}}, {"type": "Feature", "geometry": {"type": "Point", "coordinates": [-91.2249391, 14.7685969]}, "properties": {"Municipio": "San José Chacayá", "Grupo": "ECA Paromero", "No": 274, "Nombre": "Mirka Diotira Xitamul Cotuc"}}]}