{"type": "FeatureCollection", "features": [{"type": "Feature", "geometry": {"type": "Point", "coordinates": [-91.274212, 14.8113371]}, "properties": {"Municipio": "Santa Lucía Utatlán", "No": 1, "Grupo": "Xesampual", "Nombre": "Pedro Zabala Joj"}}, {"type": "Feature", "geometry": {"type": "Point", "coordinates": [-91.2958955, 14.7699339]}, "properties": {"Municipio": "Santa Lucía Utatlán", "No": 2, "Grupo": "Buena Vista", "Nombre": "Rosa Jeteyá Chávez"}}, {"type": "Feature", "geometry": {"type": "Point", "coordinates": [-91.2703257, 14.7810536]}, "properties": {"Municipio": "Santa Lucía Utatlán", "No": 3, "Grupo": "Pachipak", "Nombre": "Rosa Yax Vásquez"}}, {"type": "Feature", "geometry": {"type": "Point", "coordinates": [-91.326473, 14.661926]}, "properties": {"Municipio": "San Juan La Laguna", "No": 4, "Grupo": "Panyebar", "Nombre": "Angélica Elizabeth Puac Ixcamparic"}}, {"type": "Feature", "geometry": {"type": "Point", "coordinates": [-91.3102695, 14.7805768]}, "properties": {"Municipio": "Nahualá", "No": 5, "Grupo": "Tzucubal", "Nombre": "Fransisco Chávez Ixtos"}}]}