{"type": "FeatureCollection", "features": [{"type": "Feature", "geometry": {"type": "Point", "coordinates": [-91.279715, 14.813893]}, "properties": {"Nombre": "Pedro Zabala Joj", "Genero": "Hombre", "Comunidad_linguistica": "K'iche", "Municipio_residencia": "Santa Lucía Utatlán", "Comunidad": "Paraje Xesampual"}}, {"type": "Feature", "geometry": {"type": "Point", "coordinates": [-91.277587, 14.814433]}, "properties": {"Nombre": "Adrián Francisco Zavala Joj", "Genero": "Hombre", "Comunidad_linguistica": "K'iche", "Municipio_residencia": "Santa Lucía Utatlán", "Comunidad": "Xesampual"}}, {"type": "Feature", "geometry": {"type": "Point", "coordinates": [-91.277518, 14.815112]}, "properties": {"Nombre": "Bayron Gómez Charar", "Genero": "Hombre", "Comunidad_linguistica": "K'iche", "Municipio_residencia": "Santa Lucía Utatlán", "Comunidad": "Xesampual"}}, {"type": "Feature", "geometry": {"type": "Point", "coordinates": [-91.295194, 14.704451]}, "properties": {"Nombre": "Federico González Xum", "Genero": "Hombre", "Comunidad_linguistica": "Tz'utujil", "Municipio_residencia": "San Juan La Laguna", "Comunidad": "Colonia el Carmen"}}, {"type": "Feature", "geometry": {"type": "Point", "coordinates": [-91.295128, 14.678628]}, "properties": {"Nombre": "Juan Luis Cholotío Quic", "Genero": "Hombre", "Comunidad_linguistica": "Tz'utujil", "Municipio_residencia": "San Juan La Laguna", "Comunidad": "Cantón Chinimayá,"}}, {"type": "Feature", "geometry": {"type": "Point", "coordinates": [-91.296606, 14.681724]}, "properties": {"Nombre": "Ambrosio Juan Ujpán Méndez", "Genero": "Hombre", "Comunidad_linguistica": "Tz'utujil", "Municipio_residencia": "San Juan La Laguna", "Comunidad": "Cantón central"}}, {"type": "Feature", "geometry": {"type": "Point", "coordinates": [-91.30146, 14.680043]}, "properties": {"Nombre": "Rudy Rolando González Xum", "Genero": "Hombre", "Comunidad_linguistica": "Tz'utujil", "Municipio_residencia": "San Juan La Laguna", "Comunidad": "Colonia el Carmen"}}, {"type": "Feature", "geometry": {"type": "Point", "coordinates": [-91.300994, 14.672705]}, "properties": {"Nombre": "Santos Gabino Tzep Cholotío", "Genero": "Hombre", "Comunidad_linguistica": "Tz'utujil", "Municipio_residencia": "San Juan La Laguna", "Comunidad": "Cantón Tzanjuyu"}}, {"type": "Feature", "geometry": {"type": "Point", "coordinates": [-91.28831, 14.704782]}, "properties": {"Nombre": "David Mendoza Ajcac", "Genero": "Hombre", "Comunidad_linguistica": "Tz'utujil", "Municipio_residencia": "San Juan La Laguna", "Comunidad": "Cantón central"}}, {"type": "Feature", "geometry": {"type": "Point", "coordinates": [-91.284343, 14.690164]}, "properties": {"Nombre": "Juan Visarro Yojcom", "Genero": "Hombre", "Comunidad_linguistica": "Tz'utujil", "Municipio_residencia": "San Juan La Laguna", "Comunidad": "Cantón central"}}, {"type": "Feature", "geometry": {"type": "Point", "coordinates": [-91.297967, 14.688673]}, "properties": {"Nombre": "María Oneyda González Xum", "Genero": "Mujer", "Comunidad_linguistica": "Tz'utujil", "Municipio_residencia": "San Juan La Laguna", "Comunidad": "Colonia el carmen"}}, {"type": "Feature", "geometry": {"type": "Point", "coordinates": [-91.285784, 14.697329]}, "properties": {"Nombre": "Pedro Vázquez y Vázquez", "Genero": "Hombre", "Comunidad_linguistica": "Tz'utujil", "Municipio_residencia": "San Juan La Laguna", "Comunidad": "Colonia Sanjuanerita"}}, {"type": "Feature", "geometry": {"type": "Point", "coordinates": [-91.298026, 14.692439]}, "properties": {"Nombre": "Juan Balentin Cholotío Hernández", "Genero": "Hombre", "Comunidad_linguistica": "Tz'utujil", "Municipio_residencia": "San Juan La Laguna", "Comunidad": "Cantón Tzanjay"}}, {"type": "Feature", "geometry": {"type": "Point", "coordinates": [-91.301489, 14.672734]}, "properties": {"Nombre": "Miguel Leonardo Hernández Hernández", "Genero": "Hombre", "Comunidad_linguistica": "Tz'utujil", "Municipio_residencia": "San Juan La Laguna", "Comunidad": "Chicuá"}}, {"type": "Feature", "geometry": {"type": "Point", "coordinates": [-91.291997, 14.675026]}, "properties": {"Nombre": "Clara Hernández Mendoza de Cholotío", "Genero": "Mujer", "Comunidad_linguistica": "Tz'utujil", "Municipio_residencia": "San Juan La Laguna", "Comunidad": "Catón centro"}}, {"type": "Feature", "geometry": {"type": "Point", "coordinates": [-91.32641, 14.700229]}, "properties": {"Nombre": "Fredy José Cux Chox", "Genero": "Hombre", "Comunidad_linguistica": "K'iche", "Municipio_residencia": "Santa María Visitación", "Comunidad": "Caserío Montecristo"}}, {"type": "Feature", "geometry": {"type": "Point", "coordinates": [-91.325109, 14.700297]}, "properties": {"Nombre": "Ovidio Fidel Atz Cosigua", "Genero": "Hombre", "Comunidad_linguistica": "K'iche", "Municipio_residencia": "Santa María Visitación", "Comunidad": "Caserío Montecristo"}}, {"type": "Feature", "geometry": {"type": "Point", "coordinates": [-91.326418, 14.704425]}, "properties": {"Nombre": "Lucas Vicente Par", "Genero": "Hombre", "Comunidad_linguistica": "K'iche", "Municipio_residencia": "Santa María Visitación", "Comunidad": "Caserío Montecristo"}}, {"type": "Feature", "geometry": {"type": "Point", "coordinates": [-91.328832, 14.720904]}, "properties": {"Nombre": "Ada Maria Victoria Cutzal Chavajay", "Genero": "Mujer", "Comunidad_linguistica": "Español (mestizo)", "Municipio_residencia": "Santa María Visitación", "Comunidad": "Sector centro"}}, {"type": "Feature", "geometry": {"type": "Point", "coordinates": [-91.326893, 14.72052]}, "properties": {"Nombre": "Diego Nestor Ajpú Chavajay Cutzal", "Genero": "Hombre", "Comunidad_linguistica": "Tz'utujil", "Municipio_residencia": "Santa María Visitación", "Comunidad": "Sector centro"}}, {"type": "Feature", "geometry": {"type": "Point", "coordinates": [-91.318276, 14.728798]}, "properties": {"Nombre": "Diego Delfino Dionisio Tohom", "Genero": "Hombre", "Comunidad_linguistica": "Tz'utujil", "Municipio_residencia": "Santa María Visitación", "Comunidad": "Sector la Salle"}}, {"type": "Feature", "geometry": {"type": "Point", "coordinates": [-91.304603, 14.723899]}, "properties": {"Nombre": "Juliana Velasquez Yac", "Genero": "Mujer", "Comunidad_linguistica": "K'iche", "Municipio_residencia": "Santa María Visitación", "Comunidad": "Calle principal"}}, {"type": "Feature", "geometry": {"type": "Point", "coordinates": [-91.311263, 14.708496]}, "properties": {"Nombre": "Víctor Quiché Ajché", "Genero": "Hombre", "Comunidad_linguistica": "K'iche", "Municipio_residencia": "Santa María Visitación", "Comunidad": "Sector centro"}}, {"type": "Feature", "geometry": {"type": "Point", "coordinates": [-91.325501, 14.711829]}, "properties": {"Nombre": "Geronimo Gómez Calvo", "Genero": "Hombre", "Comunidad_linguistica": "K'iche", "Municipio_residencia": "Santa María Visitación", "Comunidad": "Sector norte"}}, {"type": "Feature", "geometry": {"type": "Point", "coordinates": [-91.325616, 14.711663]}, "properties": {"Nombre": "Abner Abdias Gómez Simaj", "Genero": "Hombre", "Comunidad_linguistica": "Tz'utujil", "Municipio_residencia": "Santa María Visitación", "Comunidad": "Sector Centro"}}, {"type": "Feature", "geometry": {"type": "Point", "coordinates": [-91.322503, 14.7044]}, "properties": {"Nombre": "Emanuel de Jesús Atz Cosiguá", "Genero": "Hombre", "Comunidad_linguistica": "K'iche", "Municipio_residencia": "Santa María Visitación", "Comunidad": "Montecristo"}}, {"type": "Feature", "geometry": {"type": "Point", "coordinates": [-91.324279, 14.70562]}, "properties": {"Nombre": "Romario Ernesto Chox Cumpar", "Genero": "Hombre", "Comunidad_linguistica": "K'iche", "Municipio_residencia": "Santa María Visitación", "Comunidad": "Montecristo"}}, {"type": "Feature", "geometry": {"type": "Point", "coordinates": [-91.313921, 14.704967]}, "properties": {"Nombre": "Rudy Emanuel Cux Sac", "Genero": "Hombre", "Comunidad_linguistica": "K'iche", "Municipio_residencia": "Santa María Visitación", "Comunidad": "Montecristo"}}, {"type": "Feature", "geometry": {"type": "Point", "coordinates": [-91.323081, 14.715426]}, "properties": {"Nombre": "Johana del Rosario Quiché Pérez", "Genero": "Mujer", "Comunidad_linguistica": "Tz'utujil", "Municipio_residencia": "Santa María Visitación", "Comunidad": "Sector centro"}}, {"type": "Feature", "geometry": {"type": "Point", "coordinates": [-91.320824, 14.71585]}, "properties": {"Nombre": "Elías Sosa Dionisio", "Genero": "Hombre", "Comunidad_linguistica": "Tz'utujil", "Municipio_residencia": "Santa María Visitación", "Comunidad": "Sector centro"}}, {"type": "Feature", "geometry": {"type": "Point", "coordinates": [-91.319991, 14.716503]}, "properties": {"Nombre": "Candelaria Vicenta Sosa Atz", "Genero": "Mujer", "Comunidad_linguistica": "K'iche", "Municipio_residencia": "Santa María Visitación", "Comunidad": "Sector centro"}}, {"type": "Feature", "geometry": {"type": "Point", "coordinates": [-91.313868, 14.718351]}, "properties": {"Nombre": "Nicolás Estanislao Sosa Chavajay", "Genero": "Hombre", "Comunidad_linguistica": "Tz'utujil", "Municipio_residencia": "Santa María Visitación", "Comunidad": "Sector Sur"}}, {"type": "Feature", "geometry": {"type": "Point", "coordinates": [-91.315941, 14.716835]}, "properties": {"Nombre": "Diego Chavajay Dionicio", "Genero": "Hombre", "Comunidad_linguistica": "Tz'utujil", "Municipio_residencia": "Santa María Visitación", "Comunidad": "Sector centro"}}, {"type": "Feature", "geometry": {"type": "Point", "coordinates": [-91.322054, 14.707774]}, "properties": {"Nombre": "Manuel de Jesús Vicente Chocoy", "Genero": "Hombre", "Comunidad_linguistica": "K'iche", "Municipio_residencia": "Santa María Visitación", "Comunidad": "Montecristo"}}, {"type": "Feature", "geometry": {"type": "Point", "coordinates": [-91.318183, 14.707209]}, "properties": {"Nombre": "Julio César Vicente Par", "Genero": "Hombre", "Comunidad_linguistica": "K'iche", "Municipio_residencia": "Santa María Visitación", "Comunidad": "Montecristo"}}, {"type": "Feature", "geometry": {"type": "Point", "coordinates": [-91.303956, 14.680157]}, "properties": {"Nombre": "Francisca González Puac", "Genero": "Mujer", "Comunidad_linguistica": "K'iche", "Municipio_residencia": "San Juan La Laguna", "Comunidad": "Cantón Chuacanac, Aldea Panyebar"}}, {"type": "Feature", "geometry": {"type": "Point", "coordinates": [-91.258961, 14.730771]}, "properties": {"Nombre": "Julia Elena Chiyal Sipac", "Genero": "Mujer", "Comunidad_linguistica": "Kaqchikel", "Municipio_residencia": "San Marcos La Laguna", "Comunidad": "Barrio 1"}}, {"type": "Feature", "geometry": {"type": "Point", "coordinates": [-91.259248, 14.730815]}, "properties": {"Nombre": "Rosario Encarnación Chiyal Sipac", "Genero": "Mujer", "Comunidad_linguistica": "Kaqchikel", "Municipio_residencia": "San Marcos La Laguna", "Comunidad": "Barrio 1"}}, {"type": "Feature", "geometry": {"type": "Point", "coordinates": [-91.319279, 14.686664]}, "properties": {"Nombre": "Juan Elías Chávez Cua", "Genero": "Hombre", "Comunidad_linguistica": "K'iche", "Municipio_residencia": "San Juan La Laguna", "Comunidad": "Aldea Palestina"}}, {"type": "Feature", "geometry": {"type": "Point", "coordinates": [-91.309703, 14.685725]}, "properties": {"Nombre": "Jacobo Chaves Puac", "Genero": "Hombre", "Comunidad_linguistica": "K'iche", "Municipio_residencia": "San Juan La Laguna", "Comunidad": "Aldea Palestina, Sector Campo"}}, {"type": "Feature", "geometry": {"type": "Point", "coordinates": [-91.309266, 14.685641]}, "properties": {"Nombre": "Pablo Abel Chávez Puac", "Genero": "Hombre", "Comunidad_linguistica": "K'iche", "Municipio_residencia": "San Juan La Laguna", "Comunidad": "Aldea Palestina"}}, {"type": "Feature", "geometry": {"type": "Point", "coordinates": [-91.309293, 14.685803]}, "properties": {"Nombre": "Edgar Ovidio Chávez Chox", "Genero": "Hombre", "Comunidad_linguistica": "K'iche", "Municipio_residencia": "San Juan La Laguna", "Comunidad": "Aldea Palestina"}}, {"type": "Feature", "geometry": {"type": "Point", "coordinates": [-91.223506, 14.759532]}, "properties": {"Nombre": "Selvin Jerónimo Roquel Muz", "Genero": "Hombre", "Comunidad_linguistica": "Kaqchikel", "Municipio_residencia": "San José Chacayá", "Comunidad": "Caserío San Felipe"}}, {"type": "Feature", "geometry": {"type": "Point", "coordinates": [-91.301174, 14.686944]}, "properties": {"Nombre": "Jesús Victoriano Jorge Tohom", "Genero": "Hombre", "Comunidad_linguistica": "K'iche", "Municipio_residencia": "San Juan La Laguna", "Comunidad": "Caserío los Cipresales, Aldea Palestina"}}, {"type": "Feature", "geometry": {"type": "Point", "coordinates": [-91.303782, 14.673788]}, "properties": {"Nombre": "Santiago Menchú Chacom", "Genero": "Hombre", "Comunidad_linguistica": "K'iche", "Municipio_residencia": "San Juan La Laguna", "Comunidad": "Cantón Chuacanac, Aldea Panyebar"}}, {"type": "Feature", "geometry": {"type": "Point", "coordinates": [-91.293984, 14.68859]}, "properties": {"Nombre": "Lorenzo Isaias Cholotío Batz", "Genero": "Hombre", "Comunidad_linguistica": "Tz'utujil", "Municipio_residencia": "San Juan La Laguna", "Comunidad": "Cantón central"}}, {"type": "Feature", "geometry": {"type": "Point", "coordinates": [-91.225299, 14.762159]}, "properties": {"Nombre": "Marco Antonio Xitamul Roquel", "Genero": "Hombre", "Comunidad_linguistica": "Español (mestizo)", "Municipio_residencia": "San José Chacayá", "Comunidad": "Caserío San Felipe"}}, {"type": "Feature", "geometry": {"type": "Point", "coordinates": [-91.225146, 14.762186]}, "properties": {"Nombre": "Juan Gerónimo Roquel Chávez", "Genero": "Hombre", "Comunidad_linguistica": "Kaqchikel", "Municipio_residencia": "San José Chacayá", "Comunidad": "Caserío San Felipe"}}, {"type": "Feature", "geometry": {"type": "Point", "coordinates": [-91.092223, 14.695559]}, "properties": {"Nombre": "Ceferino León Joj", "Genero": "Hombre", "Comunidad_linguistica": "K'iche", "Municipio_residencia": "San Antonio Palopó", "Comunidad": "Xequistel"}}, {"type": "Feature", "geometry": {"type": "Point", "coordinates": [-91.118459, 14.646961]}, "properties": {"Nombre": "José Manuel Álvarez de Leon", "Genero": "Hombre", "Comunidad_linguistica": "Español (mestizo)", "Municipio_residencia": "San Antonio Palopó", "Comunidad": "Cantón el Naranjo"}}, {"type": "Feature", "geometry": {"type": "Point", "coordinates": [-91.105356, 14.676719]}, "properties": {"Nombre": "Carlos Enrique Bixcul Sánchez", "Genero": "Hombre", "Comunidad_linguistica": "Kaqchikel", "Municipio_residencia": "San Antonio Palopó", "Comunidad": "Caserío San José, Xiquinabaj"}}, {"type": "Feature", "geometry": {"type": "Point", "coordinates": [-91.102988, 14.679259]}, "properties": {"Nombre": "Yostin Antoni Girón Rodriguez", "Genero": "Hombre", "Comunidad_linguistica": "Español (mestizo)", "Municipio_residencia": "San Andrés Semetabaj", "Comunidad": "Godines, San Andres Memetabaj"}}, {"type": "Feature", "geometry": {"type": "Point", "coordinates": [-91.118953, 14.648945]}, "properties": {"Nombre": "Miguel Coché Sapon", "Genero": "Hombre", "Comunidad_linguistica": "Kaqchikel", "Municipio_residencia": "San Antonio Palopó", "Comunidad": "Cantón el Naranjo"}}, {"type": "Feature", "geometry": {"type": "Point", "coordinates": [-91.09194, 14.675866]}, "properties": {"Nombre": "Moisés Coché Tereta", "Genero": "Hombre", "Comunidad_linguistica": "Kaqchikel", "Municipio_residencia": "San Antonio Palopó", "Comunidad": "Hojo de agua"}}, {"type": "Feature", "geometry": {"type": "Point", "coordinates": [-91.121587, 14.632415]}, "properties": {"Nombre": "Rufino Antonio Pérez Alonzo", "Genero": "Hombre", "Comunidad_linguistica": "Kaqchikel", "Municipio_residencia": "San Antonio Palopó", "Comunidad": "Cantón San Gabriel"}}, {"type": "Feature", "geometry": {"type": "Point", "coordinates": [-91.231141, 14.768041]}, "properties": {"Nombre": "Delfino Sacarías Xitamul Cotuc", "Genero": "Hombre", "Comunidad_linguistica": "Kaqchikel", "Municipio_residencia": "San José Chacayá", "Comunidad": "Chuimanzana"}}, {"type": "Feature", "geometry": {"type": "Point", "coordinates": [-91.233475, 14.764867]}, "properties": {"Nombre": "Pedro Xitamul Chalí", "Genero": "Hombre", "Comunidad_linguistica": "Kaqchikel", "Municipio_residencia": "San José Chacayá", "Comunidad": "Chuimanzana"}}, {"type": "Feature", "geometry": {"type": "Point", "coordinates": [-91.233518, 14.769877]}, "properties": {"Nombre": "Victoriano Chutá Xocop", "Genero": "Hombre", "Comunidad_linguistica": "Kaqchikel", "Municipio_residencia": "San José Chacayá", "Comunidad": "Chuimanzana"}}, {"type": "Feature", "geometry": {"type": "Point", "coordinates": [-91.231342, 14.768123]}, "properties": {"Nombre": "Jorge Luis Xitamul Ajú", "Genero": "Hombre", "Comunidad_linguistica": "Kaqchikel", "Municipio_residencia": "San José Chacayá", "Comunidad": "Caserío Chuimanzana"}}, {"type": "Feature", "geometry": {"type": "Point", "coordinates": [-91.225424, 14.779645]}, "properties": {"Nombre": "Inocente Jeteyá Lejá", "Genero": "Hombre", "Comunidad_linguistica": "Kaqchikel", "Municipio_residencia": "San José Chacayá", "Comunidad": "Sector San Gabriel, Cantón los tablones"}}, {"type": "Feature", "geometry": {"type": "Point", "coordinates": [-91.227849, 14.782773]}, "properties": {"Nombre": "Santos Mateo Jeteyá Lejá", "Genero": "Hombre", "Comunidad_linguistica": "Kaqchikel", "Municipio_residencia": "San José Chacayá", "Comunidad": "Sector San Gabriel, los Tablones"}}, {"type": "Feature", "geometry": {"type": "Point", "coordinates": [-91.230938, 14.768138]}, "properties": {"Nombre": "Francisco Mercedes Xitamul Cotuc", "Genero": "Hombre", "Comunidad_linguistica": "Kaqchikel", "Municipio_residencia": "San José Chacayá", "Comunidad": "Chuimanzana"}}, {"type": "Feature", "geometry": {"type": "Point", "coordinates": [-91.233335, 14.770896]}, "properties": {"Nombre": "Nelson Jenaro Chávez Ajmac", "Genero": "Hombre", "Comunidad_linguistica": "Kaqchikel", "Municipio_residencia": "San José Chacayá", "Comunidad": "Chuimanzana"}}, {"type": "Feature", "geometry": {"type": "Point", "coordinates": [-91.223559, 14.759758]}, "properties": {"Nombre": "Rodrigo Ajcalón Vicente", "Genero": "Hombre", "Comunidad_linguistica": "Kaqchikel", "Municipio_residencia": "San José Chacayá", "Comunidad": "San Felipe"}}, {"type": "Feature", "geometry": {"type": "Point", "coordinates": [-91.315124, 14.706378]}, "properties": {"Nombre": "Santos Mauricio Vicente Mendoza", "Genero": "Hombre", "Comunidad_linguistica": "K'iche", "Municipio_residencia": "Santa María Visitación", "Comunidad": "Montecristo"}}]}