{"type":"FeatureCollection","features":[{"type":"Feature","geometry":{"type":"Polygon","coordinates":[[[-91.30445574177551,14.632871603050893],[-91.30649591081847,14.639080620153313],[-91.30720436392522,14.642817789094378],[-91.3078098026895,14.643970504862104],[-91.3085516615237,14.646559602315598],[-91.31118098451493,14.648543293625039],[-91.31226819031001,14.65088237206745],[-91.31120849731045,14.652966771539848],[-91.32863573369376,14.650209656670103],[-91.33262711361198,14.641279516764593],[-91.33713894615404,14.642208818843264],[-91.33943101153358,14.635776560342759],[-91.33948394644986,14.634182385947161],[-91.3410693977838,14.624785821553733],[-91.34044394456775,14.626296192508972],[-91.33583151116808,14.629890891250842],[-91.32997926240002,14.631735027200126],[-91.32917906277468,14.627329613706477],[-91.30445574177551,14.632871603050893]]]},"properties":{"FID":0,"PRM":"Panan","Perimeter":12648.8397547,"Area":7152360.0169,"Hectares":715.23600169},"id":0},{"type":"Feature","geometry":{"type":"Polygon","coordinates":[[[-91.32358125348989,14.753898427437417],[-91.32286039501065,14.74992392311364],[-91.32149584889049,14.747669073997121],[-91.3215399498114,14.747045239835234],[-91.32241840953722,14.746002655339439],[-91.32315297526257,14.746216973494946],[-91.32563868057386,14.745286156237981],[-91.32664375677737,14.745806816568448],[-91.3269108557452,14.745209301328288],[-91.32695339899922,14.746637278804418],[-91.3275109178974,14.746698556276503],[-91.32937906587058,14.742118236361415],[-91.32791640618994,14.738480840111405],[-91.32629266872499,14.738911467597783],[-91.32216381983962,14.737561314294974],[-91.3205324122541,14.738425791894093],[-91.32025041500093,14.740008583976994],[-91.32218680745608,14.741212911555364],[-91.32011258657133,14.745369087365512],[-91.31862445368897,14.747308664509024],[-91.31901952035969,14.748635970698466],[-91.31829423785251,14.750907279300629],[-91.32086238611798,14.754604085079578],[-91.32358125348989,14.753898427437417]]]},"properties":{"FID":1,"PRM":"Tzamtem","Perimeter":5981.19312146,"Area":1053760.5,"Hectares":105.37605},"id":1},{"type":"Feature","geometry":{"type":"Polygon","coordinates":[[[-91.31004298206733,14.737477516066349],[-91.30867169612897,14.740889953211411],[-91.30488427467847,14.743976365917414],[-91.30627789148511,14.746610852746098],[-91.30644517371344,14.749159220621745],[-91.30493951081178,14.751424175192962],[-91.30332541058986,14.75199019665753],[-91.30199425509636,14.753730274877844],[-91.30224795558358,14.754524812290319],[-91.30217487396408,14.754859502857512],[-91.30563723930769,14.759294565636026],[-91.3091918610812,14.7610085611695],[-91.30806078202292,14.761591003701032],[-91.30888259643976,14.762781252311065],[-91.31283258621771,14.763382029337947],[-91.31418743592342,14.760530034469571],[-91.31441127541271,14.75827858219287],[-91.31579927444312,14.759349305043933],[-91.31604842879075,14.761400234196685],[-91.31533835611933,14.762785677991896],[-91.31606454504892,14.765720725046002],[-91.31833161875582,14.763389734353465],[-91.3194278034542,14.76093633514473],[-91.32044514614176,14.759757681761913],[-91.32096896585419,14.75825538124623],[-91.318786080104,14.753273705396477],[-91.3187806041336,14.751809438229843],[-91.31734896696955,14.751480067683659],[-91.3154777579579,14.750338745536155],[-91.31591507062947,14.748050382884474],[-91.31747686246698,14.745929785313942],[-91.31590112943094,14.741813648047119],[-91.31495074611702,14.741003503790624],[-91.31195640480372,14.73751600457717],[-91.31004298206733,14.737477516066349]]]},"properties":{"FID":2,"PRM":"Taklol","Perimeter":9724.58635495,"Area":3433840.5,"Hectares":343.38405},"id":2},{"type":"Feature","geometry":{"type":"Polygon","coordinates":[[[-91.27005641452098,14.836878929911796],[-91.27007963601335,14.838189483090334],[-91.27579934249468,14.829176628298052],[-91.27435378701148,14.828303752578963],[-91.27369818684053,14.827519795008136],[-91.2742710537197,14.825313154631031],[-91.27316830854068,14.823527171540544],[-91.26945389106584,14.821514915729326],[-91.26599032718747,14.822123029950147],[-91.26256514084726,14.823083481257648],[-91.26770919618474,14.83001725681276],[-91.26890967142594,14.833167803869793],[-91.27005641452098,14.836878929911796]]]},"properties":{"FID":3,"PRM":"Payajut","Perimeter":5061.06044791,"Area":1189791.83565,"Hectares":118.979183565},"id":3},{"type":"Feature","geometry":{"type":"Polygon","coordinates":[[[-91.22344309045494,14.560825019713961],[-91.20864643947216,14.542428827466617],[-91.17987709815966,14.568808412692112],[-91.1960846781709,14.57768571201995],[-91.22344309045494,14.560825019713961]]]},"properties":{"FID":4,"PRM":"Reserva Natural Privada, Refugio del Quetzal","Perimeter":12334.9479604,"Area":8557209.58074,"Hectares":855.720958074},"id":4}]}