{"type": "FeatureCollection", "features": [{"type": "Feature", "geometry": {"type": "Point", "coordinates": [-91.22998713788407, 14.806686976527187]}, "properties": {"FID": 0, "NPOB_INE": "POCOXOM", "CAT_INE": "CASERIO", "CPOB": "705017", "CMPIO": "05", "CDPTO": "07", "X": 421433.2934, "Y": 1637400.3272}, "id": 0}, {"type": "Feature", "geometry": {"type": "Point", "coordinates": [-91.27938646479566, 14.827043817135994]}, "properties": {"FID": 1, "NPOB_INE": "PAYAJUT", "CAT_INE": "CASERIO", "CPOB": "705201", "CMPIO": "05", "CDPTO": "07", "X": 416124.1233, "Y": 1639670.3799}, "id": 1}, {"type": "Feature", "geometry": {"type": "Point", "coordinates": [-91.304296737354, 14.714145978690256]}, "properties": {"FID": 2, "NPOB_INE": "SANTA CLARA LA LAGUNA", "CAT_INE": "PUEBLO", "CPOB": "707001", "CMPIO": "07", "CDPTO": "07", "X": 413398.4778, "Y": 1627189.5333}, "id": 2}, {"type": "Feature", "geometry": {"type": "Point", "coordinates": [-91.22940731477665, 14.638597293472406]}, "properties": {"FID": 3, "NPOB_INE": "SANTIAGO ATITLAN", "CAT_INE": "PUEBLO", "CPOB": "719001", "CMPIO": "19", "CDPTO": "07", "X": 421435.5333, "Y": 1618804.0667}, "id": 3}, {"type": "Feature", "geometry": {"type": "Point", "coordinates": [-91.18447745981614, 14.768236768564151]}, "properties": {"FID": 4, "NPOB_INE": "SOLOLA", "CAT_INE": "CIUDAD", "CPOB": "701001", "CMPIO": "01", "CDPTO": "07", "X": 426318.627, "Y": 1633131.0732}, "id": 4}]}