{"type": "FeatureCollection", "features": [{"type": "Feature", "geometry": {"type": "Point", "coordinates": [-91.316751, 14.67246]}, "properties": {"Nombre_Escuela": "EORM Aldea Panyebar", "Distrito": "SANTA CLARA LA LAGUNA", "Director": "Manuela Regina Perez Chocoy", "Genero_Director": "F", "Telefono_Director": 41734063, "Correo_Director": "pmanuelaregina@gmail.com", "Docentes": 3, "Ninos": 41, "Ninas": 55, "Total_Estudiantes": 96}}, {"type": "Feature", "geometry": {"type": "Point", "coordinates": [-91.337463, 14.654718]}, "properties": {"Nombre_Escuela": "EODP Aldea Pasajquim", "Distrito": "SANTA CLARA LA LAGUNA", "Director": "Elisa Antonieta Ixcamparic Tzoc", "Genero_Director": "F", "Telefono_Director": 44983867, "Correo_Director": "elysaixcam@gmail.com", "Docentes": 1, "Ninos": 9, "Ninas": 11, "Total_Estudiantes": 20}}, {"type": "Feature", "geometry": {"type": "Point", "coordinates": [-91.337463, 14.654718]}, "properties": {"Nombre_Escuela": "CEIBI Wajxaqib' No'j", "Distrito": "SANTA CLARA LA LAGUNA", "Director": "Diego Marconi Saloj Mazariegos", "Genero_Director": "M", "Telefono_Director": 59182699, "Correo_Director": "diegosaloj5@gmail.com", "Docentes": 4, "Ninos": 44, "Ninas": 46, "Total_Estudiantes": 90}}, {"type": "Feature", "geometry": {"type": "Point", "coordinates": [-91.311789, 14.679958]}, "properties": {"Nombre_Escuela": "EOEPI Cipresales", "Distrito": "SANTA CLARA LA LAGUNA", "Director": "Claudia Susana Saloj", "Genero_Director": "F", "Telefono_Director": 51676831, "Correo_Director": "Susypuac@gmail.com", "Docentes": 1, "Ninos": 11, "Ninas": 12, "Total_Estudiantes": 23}}, {"type": "Feature", "geometry": {"type": "Point", "coordinates": [-91.313568, 14.675634]}, "properties": {"Nombre_Escuela": "EORM Chuacanac", "Distrito": "SANTA CLARA LA LAGUNA", "Director": "Sandra Yanet Saloj Par", "Genero_Director": "F", "Telefono_Director": 32842791, "Correo_Director": null, "Docentes": 2, "Ninos": 15, "Ninas": 18, "Total_Estudiantes": 33}}, {"type": "Feature", "geometry": {"type": "Point", "coordinates": [-91.312116, 14.689086]}, "properties": {"Nombre_Escuela": "PAIN de Palestina", "Distrito": "SANTA CLARA LA LAGUNA", "Director": "Catarina Chacom Vasquez", "Genero_Director": "F", "Telefono_Director": 31622057, "Correo_Director": "catarinachacom76@gmail.com", "Docentes": 2, "Ninos": 17, "Ninas": 20, "Total_Estudiantes": 37}}, {"type": "Feature", "geometry": {"type": "Point", "coordinates": [-91.312116, 14.689086]}, "properties": {"Nombre_Escuela": "EORM Palestina", "Distrito": "SANTA CLARA LA LAGUNA", "Director": "Miguel Saloj Canastuj", "Genero_Director": "F", "Telefono_Director": 35965349, "Correo_Director": null, "Docentes": 1, "Ninos": 14, "Ninas": 8, "Total_Estudiantes": 22}}, {"type": "Feature", "geometry": {"type": "Point", "coordinates": [-91.31238, 14.702377]}, "properties": {"Nombre_Escuela": "CEIBI Wajxaqi Kan Truinfo la Paz", "Distrito": "SANTA CLARA LA LAGUNA", "Director": "Juan Chiyal Santos", "Genero_Director": "F", "Telefono_Director": 42181930, "Correo_Director": "chiyalsantosjhon78@gmail.com", "Docentes": 1, "Ninos": 7, "Ninas": 11, "Total_Estudiantes": 18}}, {"type": "Feature", "geometry": {"type": "Point", "coordinates": [-91.31474, 14.698527]}, "properties": {"Nombre_Escuela": "CEIBI Lajuj Batz' Paquip", "Distrito": "SANTA CLARA LA LAGUNA", "Director": "Celestina Elizabeth Ulario Quiché", "Genero_Director": "F", "Telefono_Director": 49180910, "Correo_Director": "ccibilajujbatz@gmail.com", "Docentes": 1, "Ninos": 15, "Ninas": 12, "Total_Estudiantes": 27}}, {"type": "Feature", "geometry": {"type": "Point", "coordinates": [-91.322378, 14.694593]}, "properties": {"Nombre_Escuela": "EORM Aldea Paquip", "Distrito": "SANTA CLARA LA LAGUNA", "Director": "Carmen Josefina Mazariegos Yac", "Genero_Director": "F", "Telefono_Director": 42181970, "Correo_Director": "carmenjosmazariegos@gmail.com", "Docentes": 1, "Ninos": 11, "Ninas": 8, "Total_Estudiantes": 19}}, {"type": "Feature", "geometry": {"type": "Point", "coordinates": [-91.304494, 14.712139]}, "properties": {"Nombre_Escuela": "EOUM No. 2", "Distrito": "SANTA CLARA LA LAGUNA", "Director": "Olivia Verónica Quiacaín Ratzam", "Genero_Director": "F", "Telefono_Director": 56218836, "Correo_Director": "v.xtan.oli1@gmail.com", "Docentes": 2, "Ninos": 19, "Ninas": 26, "Total_Estudiantes": 45}}, {"type": "Feature", "geometry": {"type": "Point", "coordinates": [-91.304341, 14.714979]}, "properties": {"Nombre_Escuela": "EOUM No. 1 JV", "Distrito": "SANTA CLARA LA LAGUNA", "Director": "Silvia Fabiola Cuá Puac", "Genero_Director": "F", "Telefono_Director": 48878482, "Correo_Director": "fabycua55@hotmail.com", "Docentes": 2, "Ninos": 10, "Ninas": 18, "Total_Estudiantes": 28}}, {"type": "Feature", "geometry": {"type": "Point", "coordinates": [-91.29996, 14.716681]}, "properties": {"Nombre_Escuela": "EORM No. 3  Sector Chichiyal", "Distrito": "SANTA CLARA LA LAGUNA", "Director": "Juana Catarina Atz Ajche", "Genero_Director": "F", "Telefono_Director": 48208484, "Correo_Director": "Cattyatz@gmail.com", "Docentes": 1, "Ninos": 12, "Ninas": 12, "Total_Estudiantes": 24}}, {"type": "Feature", "geometry": {"type": "Point", "coordinates": [-91.308399, 14.713245]}, "properties": {"Nombre_Escuela": "EORM Barrio San Antonio", "Distrito": "SANTA CLARA LA LAGUNA", "Director": "Alejandro Santiago Tuj Sosa", "Genero_Director": "M", "Telefono_Director": 42795726, "Correo_Director": "alexantytuj@gamil.com", "Docentes": 2, "Ninos": 16, "Ninas": 23, "Total_Estudiantes": 39}}, {"type": "Feature", "geometry": {"type": "Point", "coordinates": [-91.305257, 14.720877]}, "properties": {"Nombre_Escuela": "EORM Caserio Chacap", "Distrito": "SANTA CLARA LA LAGUNA", "Director": "Bartolo Vasquez Salvador", "Genero_Director": "M", "Telefono_Director": 51184835, "Correo_Director": "bartosalvador13@gmail.com", "Docentes": 1, "Ninos": 12, "Ninas": 15, "Total_Estudiantes": 27}}, {"type": "Feature", "geometry": {"type": "Point", "coordinates": [-91.309194, 14.729046]}, "properties": {"Nombre_Escuela": "EORM Canton Xiprian", "Distrito": "SANTA CLARA LA LAGUNA", "Director": "Mirna Estela To Caniz", "Genero_Director": "F", "Telefono_Director": 58261921, "Correo_Director": "tocaniz@yahoo.es", "Docentes": 1, "Ninos": 9, "Ninas": 6, "Total_Estudiantes": 15}}, {"type": "Feature", "geometry": {"type": "Point", "coordinates": [-91.304297, 14.714146]}, "properties": {"Nombre_Escuela": "Supervisión Educativa", "Distrito": "SANTA CLARA LA LAGUNA", "Director": null, "Genero_Director": null, "Telefono_Director": null, "Correo_Director": null, "Docentes": 4, "Ninos": 44, "Ninas": 31, "Total_Estudiantes": 75}}, {"type": "Feature", "geometry": {"type": "Point", "coordinates": [-91.304341, 14.714979]}, "properties": {"Nombre_Escuela": "EOUM No. 1 JM", "Distrito": "SANTA CLARA LA LAGUNA", "Director": "Gabriela Esperanza Cua Monroy", "Genero_Director": "F", "Telefono_Director": 42068487, "Correo_Director": "yacbeatriz68@gmail.com", "Docentes": 1, "Ninos": 12, "Ninas": 6, "Total_Estudiantes": 18}}, {"type": "Feature", "geometry": {"type": "Point", "coordinates": [-91.307335, 14.717719]}, "properties": {"Nombre_Escuela": "Escuela oficial de párvulos sector sur Santa María Visitación", "Distrito": "SANTA MARIA VISITACION", "Director": "Lidia Maribel Pérez Cuc", "Genero_Director": "F", "Telefono_Director": 46729732, "Correo_Director": "perez41182@gmail.com", "Docentes": 2, "Ninos": 19, "Ninas": 21, "Total_Estudiantes": 40}}, {"type": "Feature", "geometry": {"type": "Point", "coordinates": [-91.31493, 14.70561]}, "properties": {"Nombre_Escuela": "Cetro de educación inicial Pain", "Distrito": "SANTA MARIA VISITACION", "Director": "Magdalena Carmen Sosa Atz", "Genero_Director": "F", "Telefono_Director": 30246088, "Correo_Director": "magdacarmen1967@gmail.com", "Docentes": 1, "Ninos": 12, "Ninas": 15, "Total_Estudiantes": 27}}, {"type": "Feature", "geometry": {"type": "Point", "coordinates": [-91.354502, 14.737216]}, "properties": {"Nombre_Escuela": "EORM Comon Oj", "Distrito": "SANTA MARIA VISITACION", "Director": "Juan David Cuy Chavez", "Genero_Director": "M", "Telefono_Director": 32521418, "Correo_Director": "cuychavez @gmail.com", "Docentes": 1, "Ninos": 2, "Ninas": 2, "Total_Estudiantes": 4}}, {"type": "Feature", "geometry": {"type": "Point", "coordinates": [-91.327924, 14.722375]}, "properties": {"Nombre_Escuela": "Escuela Oficial Rural Mixta, caserio Chuipoj", "Distrito": "SANTA MARIA VISITACION", "Director": "Olivia Francisca Chavajay Chavajay", "Genero_Director": "F", "Telefono_Director": 54544567, "Correo_Director": "oliviachavajay@gmail.com", "Docentes": 1, "Ninos": 4, "Ninas": 4, "Total_Estudiantes": 8}}, {"type": "Feature", "geometry": {"type": "Point", "coordinates": [-91.308281, 14.71997]}, "properties": {"Nombre_Escuela": "Escuela oficial Urbana Mixta Jose Urbano Barrios Rodríguez Jornada Vespertina", "Distrito": "SANTA MARIA VISITACION", "Director": "Candelaria Vicenta Sosa Atz", "Genero_Director": null, "Telefono_Director": 56987962, "Correo_Director": null, "Docentes": 1, "Ninos": 7, "Ninas": 3, "Total_Estudiantes": 10}}, {"type": "Feature", "geometry": {"type": "Point", "coordinates": [-91.383507, 14.659877]}, "properties": {"Nombre_Escuela": "COPB Anexo Escuela Oficial Rural Mixta, Caserío Palá Aldea Chuachinup, Nahualá", "Distrito": "SANTA MARIA VISITACION", "Director": "Lorenzo Tzep", "Genero_Director": "M", "Telefono_Director": 40840606, "Correo_Director": null, "Docentes": 1, "Ninos": 7, "Ninas": 15, "Total_Estudiantes": 22}}, {"type": "Feature", "geometry": {"type": "Point", "coordinates": [-91.290326, 14.761266]}, "properties": {"Nombre_Escuela": "Escuela oficial Rural Mixta nuevo amanecer caserío pacorral", "Distrito": "SANTA LUCIA UTATLAN DISTRITO 1", "Director": "Maria Luisa Sumoza Yojcom", "Genero_Director": "F", "Telefono_Director": 55355290, "Correo_Director": "luisasumoza360@gmail.com", "Docentes": 1, "Ninos": 7, "Ninas": 6, "Total_Estudiantes": 13}}, {"type": "Feature", "geometry": {"type": "Point", "coordinates": [-91.293008, 14.766738]}, "properties": {"Nombre_Escuela": "EOP anexa a EORM Pamezabal", "Distrito": "SANTA LUCIA UTATLAN DISTRITO 1", "Director": "Isaac Santiago Saquic Alva", "Genero_Director": "M", "Telefono_Director": 51143534, "Correo_Director": "saquic38@gmail.com", "Docentes": 3, "Ninos": 34, "Ninas": 35, "Total_Estudiantes": 69}}, {"type": "Feature", "geometry": {"type": "Point", "coordinates": [-91.300731, 14.776391]}, "properties": {"Nombre_Escuela": "Escuela Oficial Rural Mixta caserio Tierra Linda, Santa Lucia Utatlan", "Distrito": "SANTA LUCIA UTATLAN DISTRITO 1", "Director": "Lucia Araceli Xum Yac", "Genero_Director": "F", "Telefono_Director": 33467396, "Correo_Director": null, "Docentes": 1, "Ninos": 14, "Ninas": 7, "Total_Estudiantes": 21}}, {"type": "Feature", "geometry": {"type": "Point", "coordinates": [-91.254733, 14.763037]}, "properties": {"Nombre_Escuela": "EORM Chuijumil", "Distrito": "SANTA LUCIA UTATLAN DISTRITO 1", "Director": "Vilma Carina Yac Ixcamparic", "Genero_Director": "F", "Telefono_Director": "30664628", "Correo_Director": "vilmayac44@gmail.com", "Docentes": 1, "Ninos": 10, "Ninas": 10, "Total_Estudiantes": 20}}, {"type": "Feature", "geometry": {"type": "Point", "coordinates": [-91.298297, 14.761391]}, "properties": {"Nombre_Escuela": "EORM SAN CRISTOBAL BUENA VISTA", "Distrito": "SANTA LUCIA UTATLAN DISTRITO 1", "Director": "Elias Bernabé Pérez Ajpacajá", "Genero_Director": "M", "Telefono_Director": 48234130, "Correo_Director": null, "Docentes": 2, "Ninos": 18, "Ninas": 15, "Total_Estudiantes": 33}}, {"type": "Feature", "geometry": {"type": "Point", "coordinates": [-91.270985, 14.779288]}, "properties": {"Nombre_Escuela": "Escuela Oficial de Párvulos, paraje Chuimacha", "Distrito": "SANTA LUCIA UTATLAN DISTRITO 1", "Director": "Gladyz Amarilis Gómez Ovalle", "Genero_Director": "F", "Telefono_Director": 32831768, "Correo_Director": "gomezovalleama@gmail.com", "Docentes": 1, "Ninos": 1, "Ninas": 2, "Total_Estudiantes": 3}}, {"type": "Feature", "geometry": {"type": "Point", "coordinates": [-91.254778, 14.769804]}, "properties": {"Nombre_Escuela": "COPB anexo a EORM chichimuch", "Distrito": "SANTA LUCIA UTATLAN DISTRITO 1", "Director": "Francisca Elizabeth Vásquez López", "Genero_Director": "F", "Telefono_Director": "44715825", "Correo_Director": "franciscalopez10@gmail.com", "Docentes": 1, "Ninos": 9, "Ninas": 6, "Total_Estudiantes": 15}}, {"type": "Feature", "geometry": {"type": "Point", "coordinates": [-91.260958, 14.779969]}, "properties": {"Nombre_Escuela": "COPB anexo a EORM Paraje Chocol", "Distrito": "SANTA LUCIA UTATLAN DISTRITO 1", "Director": "Pedro Gaspar Calel Yac", "Genero_Director": "M", "Telefono_Director": 57553438, "Correo_Director": "pgcalelyac@gmail.com", "Docentes": 1, "Ninos": 11, "Ninas": 6, "Total_Estudiantes": 17}}, {"type": "Feature", "geometry": {"type": "Point", "coordinates": [-91.253552, 14.775609]}, "properties": {"Nombre_Escuela": "COPB anexo EORM Nikaj Kim", "Distrito": "SANTA LUCIA UTATLAN DISTRITO 1", "Director": "Josue Trinidad Pixabaj Chávez", "Genero_Director": "M", "Telefono_Director": 44815272, "Correo_Director": "josuesitoald2025@gmail.com", "Docentes": 1, "Ninos": 3, "Ninas": 9, "Total_Estudiantes": 12}}, {"type": "Feature", "geometry": {"type": "Point", "coordinates": [-91.294839, 14.759031]}, "properties": {"Nombre_Escuela": "EORM LOS MANANTIALES", "Distrito": "SANTA LUCIA UTATLAN DISTRITO 1", "Director": "Maria Rutilia Alvarez Gonzalez", "Genero_Director": "F", "Telefono_Director": "50312863", "Correo_Director": "alvarezruttilia@gmail.com", "Docentes": 1, "Ninos": 13, "Ninas": 10, "Total_Estudiantes": 23}}, {"type": "Feature", "geometry": {"type": "Point", "coordinates": [-91.263668, 14.773223]}, "properties": {"Nombre_Escuela": "Escuela Oficial de Párvulos Gabriela Mistral", "Distrito": "SANTA LUCIA UTATLAN DISTRITO 1", "Director": "Miriam Leogana Paulina Chávez Yaxón", "Genero_Director": "F", "Telefono_Director": "53523120", "Correo_Director": "janymi21@yahoo.com", "Docentes": 4, "Ninos": 48, "Ninas": 45, "Total_Estudiantes": 93}}, {"type": "Feature", "geometry": {"type": "Point", "coordinates": [-91.31362, 14.776763]}, "properties": {"Nombre_Escuela": "Escuela Oficial Rural Mixta Aldea Tzucubal Santa Catarina Ixtahuacan", "Distrito": "SANTA LUCIA UTATLAN DISTRITO 1", "Director": "Francisca Guarchaj Catinac", "Genero_Director": "F", "Telefono_Director": "31810504", "Correo_Director": null, "Docentes": 2, "Ninos": 19, "Ninas": 24, "Total_Estudiantes": 43}}, {"type": "Feature", "geometry": {"type": "Point", "coordinates": [-91.266582, 14.770217]}, "properties": {"Nombre_Escuela": "CEIBI Ukotz'jal Na'oj", "Distrito": "SANTA LUCIA UTATLAN DISTRITO 1", "Director": "Glendy Abigail Yac Lux", "Genero_Director": "F", "Telefono_Director": 49494372, "Correo_Director": "yaclux.abi@gmail.com", "Docentes": 2, "Ninos": 9, "Ninas": 7, "Total_Estudiantes": 16}}, {"type": "Feature", "geometry": {"type": "Point", "coordinates": [-91.282687, 14.765304]}, "properties": {"Nombre_Escuela": "Escuela Oficila Rural Mixta vista Hermosa 97", "Distrito": "SANTA LUCIA UTATLAN DISTRITO 1", "Director": "Ilse Dinora Bizarro Perez", "Genero_Director": "F", "Telefono_Director": "36353839", "Correo_Director": "norabizarro@gmail.com", "Docentes": 1, "Ninos": 4, "Ninas": 2, "Total_Estudiantes": 6}}, {"type": "Feature", "geometry": {"type": "Point", "coordinates": [-91.291405, 14.784797]}, "properties": {"Nombre_Escuela": "COPB anexo A EORM Pahaj", "Distrito": "SANTA LUCIA UTATLAN DISTRITO 2", "Director": "José Emanuel Ulario Ixcol", "Genero_Director": "M", "Telefono_Director": 45668215, "Correo_Director": "alimaya.e@gmail.com", "Docentes": 3, "Ninos": 40, "Ninas": 35, "Total_Estudiantes": 75}}, {"type": "Feature", "geometry": {"type": "Point", "coordinates": [-91.285019, 14.795374]}, "properties": {"Nombre_Escuela": "Escuela Oficial Rural Mixta Max Russ", "Distrito": "SANTA LUCIA UTATLAN DISTRITO 2", "Director": "Rolando Melecio Vásquez Chávez", "Genero_Director": "M", "Telefono_Director": 30146868, "Correo_Director": null, "Docentes": 3, "Ninos": 32, "Ninas": 39, "Total_Estudiantes": 71}}, {"type": "Feature", "geometry": {"type": "Point", "coordinates": [-91.274086, 14.817072]}, "properties": {"Nombre_Escuela": "COPB anexo a EORM Xesampual", "Distrito": "SANTA LUCIA UTATLAN DISTRITO 2", "Director": "Juan Eusebio Ixcol Cux", "Genero_Director": "M", "Telefono_Director": "40677233", "Correo_Director": "juanixcolcux@gmail.com", "Docentes": 2, "Ninos": 23, "Ninas": 15, "Total_Estudiantes": 38}}, {"type": "Feature", "geometry": {"type": "Point", "coordinates": [-91.249001, 14.800452]}, "properties": {"Nombre_Escuela": "EORM CIENAGA GRANDE", "Distrito": "SANTA LUCIA UTATLAN DISTRITO 2", "Director": "Luis Miguel Can Chavez", "Genero_Director": "M", "Telefono_Director": "49944204", "Correo_Director": "eormciengagrande@gmail.com", "Docentes": 2, "Ninos": 15, "Ninas": 22, "Total_Estudiantes": 37}}, {"type": "Feature", "geometry": {"type": "Point", "coordinates": [-91.26952, 14.794902]}, "properties": {"Nombre_Escuela": "Escuela Oficial Rural Mixta Aldea el Novillero", "Distrito": "SANTA LUCIA UTATLAN DISTRITO 2", "Director": "Enelda Maricela Vásquez López", "Genero_Director": "F", "Telefono_Director": "30998715", "Correo_Director": "emaryvasquez23@gmail.com", "Docentes": 4, "Ninos": 61, "Ninas": 45, "Total_Estudiantes": 106}}, {"type": "Feature", "geometry": {"type": "Point", "coordinates": [-91.290941, 14.778842]}, "properties": {"Nombre_Escuela": "COPB anexo a EORM Paraje Cruz B", "Distrito": "SANTA LUCIA UTATLAN DISTRITO 2", "Director": "Urizar Eli Cox Sosa", "Genero_Director": "M", "Telefono_Director": 46777022, "Correo_Director": null, "Docentes": 1, "Ninos": 10, "Ninas": 9, "Total_Estudiantes": 19}}, {"type": "Feature", "geometry": {"type": "Point", "coordinates": [-91.264497, 14.81033]}, "properties": {"Nombre_Escuela": "COPB anexo EORM los planes", "Distrito": "SANTA LUCIA UTATLAN DISTRITO 2", "Director": "Marvin Eduardo Yac Barrueto", "Genero_Director": "M", "Telefono_Director": "51712643", "Correo_Director": "eormlosplanes@gmail.com", "Docentes": 2, "Ninos": 25, "Ninas": 13, "Total_Estudiantes": 38}}, {"type": "Feature", "geometry": {"type": "Point", "coordinates": [-91.247526, 14.793946]}, "properties": {"Nombre_Escuela": "Centro Oficial de Preprimaria Bilingue anexo a EORM Chirij Caja 2, Nahuala", "Distrito": "SANTA LUCIA UTATLAN DISTRITO 2", "Director": "Domingo Tziac Tó", "Genero_Director": "M", "Telefono_Director": "33313798", "Correo_Director": "dontziactó@gmail.com", "Docentes": 1, "Ninos": 6, "Ninas": 6, "Total_Estudiantes": 12}}, {"type": "Feature", "geometry": {"type": "Point", "coordinates": [-91.248638, 14.785611]}, "properties": {"Nombre_Escuela": "EORM caserío Chirij Caja 1", "Distrito": "SANTA LUCIA UTATLAN DISTRITO 2", "Director": "Cándida Verali Yaxon Saso", "Genero_Director": "F", "Telefono_Director": "57546162", "Correo_Director": "veraliyac@gmail.com", "Docentes": 1, "Ninos": 8, "Ninas": 8, "Total_Estudiantes": 16}}, {"type": "Feature", "geometry": {"type": "Point", "coordinates": [-91.249001, 14.800452]}, "properties": {"Nombre_Escuela": "CEIBI CIENAGA GRANDE", "Distrito": "SANTA LUCIA UTATLAN DISTRITO 2", "Director": "Glendy Abigail Yac Lux", "Genero_Director": "F", "Telefono_Director": 49494372, "Correo_Director": "yaclux.abi@gmail.com", "Docentes": 1, "Ninos": 3, "Ninas": 4, "Total_Estudiantes": 7}}, {"type": "Feature", "geometry": {"type": "Point", "coordinates": [-91.291656, 14.786008]}, "properties": {"Nombre_Escuela": "EORM LOS Ángeles", "Distrito": "SANTA LUCIA UTATLAN DISTRITO 2", "Director": "Norma Fidelina Saloj Alvarado", "Genero_Director": "F", "Telefono_Director": "55293762", "Correo_Director": null, "Docentes": 1, "Ninos": 12, "Ninas": 9, "Total_Estudiantes": 21}}]}