{"type": "FeatureCollection", "features": [{"type": "Feature", "geometry": {"type": "Point", "coordinates": [-91.1030426, 14.8174071]}, "properties": {"Fecha": "2025-05-05 09:28:00", "Entrevistado": "Manuela Morales Tiniguar", "Edad": 52, "Municipio": "Sololá", "Num_familias": 1, "Num_personas": 2, "Forma_cocinar": "Poyo", "Estado_cocina": "Regula", "Obtencion_lena": "Compra Recolecta", "Compromiso_estufa_ahorradora": "Si"}}, {"type": "Feature", "geometry": {"type": "Point", "coordinates": [-91.103616, 14.8172966]}, "properties": {"Fecha": "2025-05-05 09:54:00", "Entrevistado": "Elena Zet Churunel de Panjoj", "Edad": 66, "Municipio": "Sololá", "Num_familias": 1, "Num_personas": 2, "Forma_cocinar": "Poyo", "Estado_cocina": "Regula", "Obtencion_lena": "Recolecta", "Compromiso_estufa_ahorradora": "Si"}}, {"type": "Feature", "geometry": {"type": "Point", "coordinates": [-91.1029931, 14.8171446]}, "properties": {"Fecha": "2025-05-05 10:26:00", "Entrevistado": "Marina Juracán Lopic", "Edad": 40, "Municipio": "Sololá", "Num_familias": 2, "Num_personas": 11, "Forma_cocinar": "Poyo", "Estado_cocina": "Regula", "Obtencion_lena": "Compra Recolecta", "Compromiso_estufa_ahorradora": "Si"}}, {"type": "Feature", "geometry": {"type": "Point", "coordinates": [-91.1017361, 14.8168997]}, "properties": {"Fecha": "2025-05-05 11:13:00", "Entrevistado": "Sebastiana Ventura Tol", "Edad": 48, "Municipio": "Sololá", "Num_familias": 3, "Num_personas": 20, "Forma_cocinar": "Poyo", "Estado_cocina": "Regula", "Obtencion_lena": "Compra Recolecta", "Compromiso_estufa_ahorradora": "Si"}}, {"type": "Feature", "geometry": {"type": "Point", "coordinates": [-91.1036042, 14.8154287]}, "properties": {"Fecha": "2025-05-05 12:00:00", "Entrevistado": "Florinda Zet Panjoj", "Edad": 37, "Municipio": "Sololá", "Num_familias": 1, "Num_personas": 7, "Forma_cocinar": "Poyo", "Estado_cocina": "Regula", "Obtencion_lena": "Compra Recolecta", "Compromiso_estufa_ahorradora": "Si"}}, {"type": "Feature", "geometry": {"type": "Point", "coordinates": [-91.1039327, 14.8164084]}, "properties": {"Fecha": "2025-05-05 12:20:00", "Entrevistado": "Juana Churunel Balam", "Edad": 42, "Municipio": "Sololá", "Num_familias": 3, "Num_personas": 10, "Forma_cocinar": "Poyo", "Estado_cocina": "Regula", "Obtencion_lena": "Compra Recolecta", "Compromiso_estufa_ahorradora": "Si"}}, {"type": "Feature", "geometry": {"type": "Point", "coordinates": [-91.1055819, 14.8167533]}, "properties": {"Fecha": "2025-05-05 12:35:00", "Entrevistado": "María Zet Quisquiná", "Edad": 52, "Municipio": "Sololá", "Num_familias": 4, "Num_personas": 16, "Forma_cocinar": "Poyo", "Estado_cocina": "Regula", "Obtencion_lena": "Recolecta", "Compromiso_estufa_ahorradora": "Si"}}, {"type": "Feature", "geometry": {"type": "Point", "coordinates": [-91.118677, 14.8151633]}, "properties": {"Fecha": "2025-05-08 08:30:00", "Entrevistado": "Fabiola Ortencia Quisquina Zet", "Edad": 24, "Municipio": "Sololá", "Num_familias": 1, "Num_personas": 4, "Forma_cocinar": "Poyo", "Estado_cocina": "Regula", "Obtencion_lena": "Recolecta", "Compromiso_estufa_ahorradora": "Si"}}, {"type": "Feature", "geometry": {"type": "Point", "coordinates": [-91.11659, 14.8149558]}, "properties": {"Fecha": "2025-05-08 09:10:00", "Entrevistado": "Gregoria Lejá Xiap", "Edad": 40, "Municipio": "Sololá", "Num_familias": 1, "Num_personas": 7, "Forma_cocinar": "Otros -Especificar-", "Estado_cocina": "Regula", "Obtencion_lena": "Recolecta", "Compromiso_estufa_ahorradora": "Si"}}, {"type": "Feature", "geometry": {"type": "Point", "coordinates": [-91.1165732, 14.8172331]}, "properties": {"Fecha": "2025-05-08 09:45:00", "Entrevistado": "Silvia Isabela Ixjotop Batzin", "Edad": 39, "Municipio": "Sololá", "Num_familias": 1, "Num_personas": 9, "Forma_cocinar": "Otros -Especificar-", "Estado_cocina": "Regula", "Obtencion_lena": "Recolecta", "Compromiso_estufa_ahorradora": "Si"}}, {"type": "Feature", "geometry": {"type": "Point", "coordinates": [-91.1154515, 14.8171036]}, "properties": {"Fecha": "2025-05-08 10:42:00", "Entrevistado": "María Teresa Churunel Lux", "Edad": 19, "Municipio": "Sololá", "Num_familias": 2, "Num_personas": 11, "Forma_cocinar": "Poyo", "Estado_cocina": "Regula", "Obtencion_lena": "Recolecta", "Compromiso_estufa_ahorradora": "Si"}}, {"type": "Feature", "geometry": {"type": "Point", "coordinates": [-91.1136913, 14.817732]}, "properties": {"Fecha": "2025-05-08 11:41:00", "Entrevistado": "Pascuala Ordoñez Guachiac de Churunel", "Edad": 35, "Municipio": "Sololá", "Num_familias": 1, "Num_personas": 8, "Forma_cocinar": "Poyo", "Estado_cocina": "Regula", "Obtencion_lena": "Recolecta", "Compromiso_estufa_ahorradora": "Si"}}, {"type": "Feature", "geometry": {"type": "Point", "coordinates": [-91.2746109, 14.8219347]}, "properties": {"Fecha": "2025-05-13 09:12:00", "Entrevistado": "Margarita Pantaleona Yax Chavez", "Edad": 42, "Municipio": "Santa Lucía Utatlán", "Num_familias": 1, "Num_personas": 4, "Forma_cocinar": "Otros -Especificar-", "Estado_cocina": "Regula", "Obtencion_lena": "Compra", "Compromiso_estufa_ahorradora": "Si"}}, {"type": "Feature", "geometry": {"type": "Point", "coordinates": [-91.2746398, 14.8219795]}, "properties": {"Fecha": "2025-05-13 09:25:00", "Entrevistado": "Sonia Amarilys del Cármen Jeteyá Cochoy", "Edad": 33, "Municipio": "Santa Lucía Utatlán", "Num_familias": 1, "Num_personas": 4, "Forma_cocinar": "Otros -Especificar-", "Estado_cocina": "Regula", "Obtencion_lena": "Compra", "Compromiso_estufa_ahorradora": "Si"}}, {"type": "Feature", "geometry": {"type": "Point", "coordinates": [-91.1021655, 14.816639]}, "properties": {"Fecha": "2025-05-05 10:43:00", "Entrevistado": "Matea Salazar Tzunún", "Edad": 69, "Municipio": "Sololá", "Num_familias": 2, "Num_personas": 9, "Forma_cocinar": "Poyo", "Estado_cocina": "Regula", "Obtencion_lena": "Compra Recolecta", "Compromiso_estufa_ahorradora": "Si"}}, {"type": "Feature", "geometry": {"type": "Point", "coordinates": [-91.2855143, 14.8672157]}, "properties": {"Fecha": "2025-05-22 09:25:00", "Entrevistado": "Santa María Sic Vasquez de Toc", "Edad": 56, "Municipio": "Otros - Especificar", "Num_familias": 1, "Num_personas": 4, "Forma_cocinar": "Poyo", "Estado_cocina": "Regula", "Obtencion_lena": "Compra", "Compromiso_estufa_ahorradora": "Si"}}, {"type": "Feature", "geometry": {"type": "Point", "coordinates": [-91.1027353, 14.8191239]}, "properties": {"Fecha": "2025-05-05 09:11:00", "Entrevistado": "Delfina Cuc Quisquina de Panjoj", "Edad": 39, "Municipio": "Sololá", "Num_familias": 2, "Num_personas": 7, "Forma_cocinar": "Poyo", "Estado_cocina": "Regula", "Obtencion_lena": "Recolecta Compra", "Compromiso_estufa_ahorradora": "Si"}}, {"type": "Feature", "geometry": {"type": "Point", "coordinates": [-91.1025913, 14.8189804]}, "properties": {"Fecha": "2025-05-05 09:37:00", "Entrevistado": "Florinda Chiroy Xep de Panjoj", "Edad": 37, "Municipio": "Sololá", "Num_familias": 1, "Num_personas": 8, "Forma_cocinar": "Poyo", "Estado_cocina": "Regula", "Obtencion_lena": "Compra", "Compromiso_estufa_ahorradora": "Si"}}, {"type": "Feature", "geometry": {"type": "Point", "coordinates": [-91.102604, 14.819291]}, "properties": {"Fecha": "2025-05-05 10:05:00", "Entrevistado": "Evelyn  Hermelinda Panjoj Cuc", "Edad": 24, "Municipio": "Sololá", "Num_familias": 1, "Num_personas": 6, "Forma_cocinar": "Poyo", "Estado_cocina": "Regula", "Obtencion_lena": "Recolecta", "Compromiso_estufa_ahorradora": "Si"}}, {"type": "Feature", "geometry": {"type": "Point", "coordinates": [-91.0992736, 14.8212509]}, "properties": {"Fecha": "2025-05-05 10:31:00", "Entrevistado": "Micaela Ixacaya Cuc de Morales", "Edad": 61, "Municipio": "Sololá", "Num_familias": 2, "Num_personas": 12, "Forma_cocinar": "Poyo", "Estado_cocina": "Regula", "Obtencion_lena": "Recolecta Compra", "Compromiso_estufa_ahorradora": "Si"}}, {"type": "Feature", "geometry": {"type": "Point", "coordinates": [-91.0989372, 14.8212287]}, "properties": {"Fecha": "2025-05-05 11:07:00", "Entrevistado": "Teresa Quisquina Cuc", "Edad": 51, "Municipio": "Sololá", "Num_familias": 1, "Num_personas": 6, "Forma_cocinar": "Otros -Especificar-", "Estado_cocina": "Regula", "Obtencion_lena": "Recolecta Compra", "Compromiso_estufa_ahorradora": "Si"}}, {"type": "Feature", "geometry": {"type": "Point", "coordinates": [-91.0986399, 14.821001]}, "properties": {"Fecha": "2025-05-05 10:50:00", "Entrevistado": "Josefa Morales Zet", "Edad": 48, "Municipio": "Sololá", "Num_familias": 1, "Num_personas": 3, "Forma_cocinar": "Otros -Especificar-", "Estado_cocina": "Regula", "Obtencion_lena": "Recolecta", "Compromiso_estufa_ahorradora": "Si"}}, {"type": "Feature", "geometry": {"type": "Point", "coordinates": [-91.0986828, 14.8220276]}, "properties": {"Fecha": "2025-05-05 11:26:00", "Entrevistado": "Cecilia Quisquina Quieju de Morales", "Edad": 47, "Municipio": "Sololá", "Num_familias": 2, "Num_personas": 14, "Forma_cocinar": "Otros -Especificar-", "Estado_cocina": "Regula", "Obtencion_lena": "Recolecta", "Compromiso_estufa_ahorradora": null}}, {"type": "Feature", "geometry": {"type": "Point", "coordinates": [-91.1035349, 14.8180979]}, "properties": {"Fecha": "2025-05-05 12:01:00", "Entrevistado": "Lucía Morales Set", "Edad": 55, "Municipio": "Sololá", "Num_familias": 2, "Num_personas": 8, "Forma_cocinar": "Otros -Especificar-", "Estado_cocina": "Regula", "Obtencion_lena": "Recolecta", "Compromiso_estufa_ahorradora": "Si"}}, {"type": "Feature", "geometry": {"type": "Point", "coordinates": [-91.1049554, 14.8182823]}, "properties": {"Fecha": "2025-05-05 12:25:00", "Entrevistado": "Ana Angélica Yaxon Tun", "Edad": 26, "Municipio": "Sololá", "Num_familias": 1, "Num_personas": 5, "Forma_cocinar": "Otros -Especificar-", "Estado_cocina": "Regula", "Obtencion_lena": "Recolecta", "Compromiso_estufa_ahorradora": "Si"}}, {"type": "Feature", "geometry": {"type": "Point", "coordinates": [-91.105241, 14.8172942]}, "properties": {"Fecha": "2025-05-05 12:45:00", "Entrevistado": "Odilia Zet Sicajau", "Edad": 43, "Municipio": "Sololá", "Num_familias": 2, "Num_personas": 13, "Forma_cocinar": "Poyo", "Estado_cocina": "Regula", "Obtencion_lena": "Recolecta", "Compromiso_estufa_ahorradora": "Si"}}, {"type": "Feature", "geometry": {"type": "Point", "coordinates": [-91.1169364, 14.8144627]}, "properties": {"Fecha": "2025-05-08 09:17:00", "Entrevistado": "Matea Ajcalon Cuc", "Edad": 69, "Municipio": "Sololá", "Num_familias": 2, "Num_personas": 8, "Forma_cocinar": "Poyo", "Estado_cocina": "Regula", "Obtencion_lena": "Recolecta", "Compromiso_estufa_ahorradora": "Si"}}, {"type": "Feature", "geometry": {"type": "Point", "coordinates": [-91.1154632, 14.8173434]}, "properties": {"Fecha": "2025-05-08 10:33:00", "Entrevistado": "Isabel Churunel Solis", "Edad": 55, "Municipio": "Sololá", "Num_familias": 1, "Num_personas": 6, "Forma_cocinar": "Poyo", "Estado_cocina": "Regula", "Obtencion_lena": "Recolecta", "Compromiso_estufa_ahorradora": "Si"}}, {"type": "Feature", "geometry": {"type": "Point", "coordinates": [-91.1139045, 14.817826]}, "properties": {"Fecha": "2025-05-08 11:27:00", "Entrevistado": "Herlinda Churunel  Zet de Churunel", "Edad": 38, "Municipio": "Sololá", "Num_familias": 1, "Num_personas": 10, "Forma_cocinar": "Poyo", "Estado_cocina": "Regula", "Obtencion_lena": "Recolecta", "Compromiso_estufa_ahorradora": "Si"}}, {"type": "Feature", "geometry": {"type": "Point", "coordinates": [-91.1136345, 14.8171438]}, "properties": {"Fecha": "2025-05-08 11:44:00", "Entrevistado": "Ana Churunel Quisquina de Churunel", "Edad": 43, "Municipio": "Sololá", "Num_familias": 1, "Num_personas": 9, "Forma_cocinar": "Poyo", "Estado_cocina": "Regula", "Obtencion_lena": "Recolecta", "Compromiso_estufa_ahorradora": "Si"}}, {"type": "Feature", "geometry": {"type": "Point", "coordinates": [-91.3232143, 14.6923573]}, "properties": {"Fecha": "2025-05-21 08:48:00", "Entrevistado": "Guadalupe Cumpar de Chiyal", "Edad": 66, "Municipio": "Santa Clara la Laguna", "Num_familias": 1, "Num_personas": 2, "Forma_cocinar": "Otros -Especificar-", "Estado_cocina": "Regula", "Obtencion_lena": "Recolecta", "Compromiso_estufa_ahorradora": "Si"}}, {"type": "Feature", "geometry": {"type": "Point", "coordinates": [-91.323345, 14.6924866]}, "properties": {"Fecha": "2025-05-21 09:03:00", "Entrevistado": "Irma de León Cumpar", "Edad": 36, "Municipio": "Santa Clara la Laguna", "Num_familias": 1, "Num_personas": 6, "Forma_cocinar": "Poyo", "Estado_cocina": "Regula", "Obtencion_lena": "Recolecta", "Compromiso_estufa_ahorradora": "Si"}}, {"type": "Feature", "geometry": {"type": "Point", "coordinates": [-91.3208937, 14.6954573]}, "properties": {"Fecha": "2025-05-21 10:55:00", "Entrevistado": "Juana Balux Coxaj de Leon", "Edad": 62, "Municipio": "Santa Clara la Laguna", "Num_familias": 1, "Num_personas": 4, "Forma_cocinar": "Poyo", "Estado_cocina": "Regula", "Obtencion_lena": "Recolecta", "Compromiso_estufa_ahorradora": "Si"}}, {"type": "Feature", "geometry": {"type": "Point", "coordinates": [-91.3220662, 14.6932452]}, "properties": {"Fecha": "2025-05-21 10:17:00", "Entrevistado": "Adelia Maribel Chavajay Gonzalez", "Edad": 36, "Municipio": "Santa Clara la Laguna", "Num_familias": 1, "Num_personas": 4, "Forma_cocinar": "Poyo", "Estado_cocina": "Regula", "Obtencion_lena": "Recolecta Compra", "Compromiso_estufa_ahorradora": "Si"}}, {"type": "Feature", "geometry": {"type": "Point", "coordinates": [-91.2711027, 14.8606303]}, "properties": {"Fecha": "2025-05-22 09:55:00", "Entrevistado": "Santa Pérez Vazquez", "Edad": 57, "Municipio": "Otros - Especificar", "Num_familias": 1, "Num_personas": 1, "Forma_cocinar": "Otros -Especificar-", "Estado_cocina": "Regula", "Obtencion_lena": "Compra", "Compromiso_estufa_ahorradora": null}}, {"type": "Feature", "geometry": {"type": "Point", "coordinates": [-91.2658197, 14.8666992]}, "properties": {"Fecha": "2025-05-22 10:33:00", "Entrevistado": "Juana Gregoria Talé Barreno de Ajanel", "Edad": 39, "Municipio": "Otros - Especificar", "Num_familias": 1, "Num_personas": 7, "Forma_cocinar": "Poyo", "Estado_cocina": "Regula", "Obtencion_lena": "Compra Recolecta", "Compromiso_estufa_ahorradora": "Si"}}, {"type": "Feature", "geometry": {"type": "Point", "coordinates": [-91.2650242, 14.8620706]}, "properties": {"Fecha": "2025-05-22 11:30:00", "Entrevistado": "Candelaria Josefina Toc Sic de Toc", "Edad": 38, "Municipio": "Otros - Especificar", "Num_familias": 1, "Num_personas": 6, "Forma_cocinar": "Poyo", "Estado_cocina": "Regula", "Obtencion_lena": "Compra", "Compromiso_estufa_ahorradora": "Si"}}, {"type": "Feature", "geometry": {"type": "Point", "coordinates": [-91.2741821, 14.7849073]}, "properties": {"Fecha": "2025-05-26 16:10:00", "Entrevistado": "Reina Valentina Ovalle Yac", "Edad": 42, "Municipio": "Santa Lucía Utatlán", "Num_familias": 2, "Num_personas": 6, "Forma_cocinar": "Poyo", "Estado_cocina": "Regula", "Obtencion_lena": "Recolecta", "Compromiso_estufa_ahorradora": "Si"}}, {"type": "Feature", "geometry": {"type": "Point", "coordinates": [-91.1050724, 14.8180969]}, "properties": {"Fecha": "2025-06-10 08:48:00", "Entrevistado": "Paula Xoquic Churunel de Panjoj", "Edad": 59, "Municipio": "Sololá", "Num_familias": 1, "Num_personas": 7, "Forma_cocinar": "Poyo", "Estado_cocina": "Regula", "Obtencion_lena": "Compra Recolecta", "Compromiso_estufa_ahorradora": "Si"}}, {"type": "Feature", "geometry": {"type": "Point", "coordinates": [-91.1895792, 14.8394554]}, "properties": {"Fecha": "2025-06-25 07:47:00", "Entrevistado": "Candelaria Quino Sicajau", "Edad": 52, "Municipio": "Sololá", "Num_familias": 1, "Num_personas": 1, "Forma_cocinar": "Fogon abierto", "Estado_cocina": "Regula", "Obtencion_lena": "Recolecta", "Compromiso_estufa_ahorradora": "Si"}}, {"type": "Feature", "geometry": {"type": "Point", "coordinates": [-91.3232317, 14.6923136]}, "properties": {"Fecha": "2025-05-21 08:43:00", "Entrevistado": "María Olivia Ixcol", "Edad": 44, "Municipio": "Santa Clara la Laguna", "Num_familias": 2, "Num_personas": 7, "Forma_cocinar": "Poyo", "Estado_cocina": "Regula", "Obtencion_lena": "Recolecta", "Compromiso_estufa_ahorradora": "Si"}}, {"type": "Feature", "geometry": {"type": "Point", "coordinates": [-91.3229271, 14.6907295]}, "properties": {"Fecha": "2025-05-21 09:25:00", "Entrevistado": "Sonia Rosenda Pos Mazariegos", "Edad": 37, "Municipio": "Santa Clara la Laguna", "Num_familias": 2, "Num_personas": 9, "Forma_cocinar": "Poyo", "Estado_cocina": "Regula", "Obtencion_lena": "Recolecta Compra", "Compromiso_estufa_ahorradora": "Si"}}, {"type": "Feature", "geometry": {"type": "Point", "coordinates": [-91.3242878, 14.6887593]}, "properties": {"Fecha": "2025-05-21 09:48:00", "Entrevistado": "Lucía Mendoza Ajú", "Edad": 29, "Municipio": "Santa Clara la Laguna", "Num_familias": 2, "Num_personas": 9, "Forma_cocinar": "Poyo", "Estado_cocina": "Regula", "Obtencion_lena": "Recolecta", "Compromiso_estufa_ahorradora": "Si"}}, {"type": "Feature", "geometry": {"type": "Point", "coordinates": [-91.3220825, 14.6930664]}, "properties": {"Fecha": "2025-05-21 10:16:00", "Entrevistado": "Sandra Leticia Cacain Ulario", "Edad": 30, "Municipio": "Santa Clara la Laguna", "Num_familias": 1, "Num_personas": 4, "Forma_cocinar": "Poyo", "Estado_cocina": "Regula", "Obtencion_lena": "Recolecta", "Compromiso_estufa_ahorradora": "Si"}}, {"type": "Feature", "geometry": {"type": "Point", "coordinates": [-91.322067, 14.6936523]}, "properties": {"Fecha": "2025-05-21 10:47:00", "Entrevistado": "Jezrreelita María Julia Yac Saquic", "Edad": 24, "Municipio": "Santa Clara la Laguna", "Num_familias": 1, "Num_personas": 3, "Forma_cocinar": "Fogon abierto", "Estado_cocina": "Regula", "Obtencion_lena": "Recolecta", "Compromiso_estufa_ahorradora": "Si"}}, {"type": "Feature", "geometry": {"type": "Point", "coordinates": [-91.3221438, 14.6944968]}, "properties": {"Fecha": "2025-05-21 11:14:00", "Entrevistado": "Felisa Alvarado Ixcol de Muy", "Edad": 55, "Municipio": "Santa Clara la Laguna", "Num_familias": 3, "Num_personas": 14, "Forma_cocinar": "Poyo", "Estado_cocina": "Regula", "Obtencion_lena": "Recolecta", "Compromiso_estufa_ahorradora": "Si"}}, {"type": "Feature", "geometry": {"type": "Point", "coordinates": [-91.2754044, 14.8687445]}, "properties": {"Fecha": "2025-05-22 09:06:00", "Entrevistado": "María Josefina García Caxaj de Morales", "Edad": 54, "Municipio": "Otros - Especificar", "Num_familias": 1, "Num_personas": 5, "Forma_cocinar": "Poyo", "Estado_cocina": "Regula", "Obtencion_lena": "Recolecta Compra", "Compromiso_estufa_ahorradora": "Si"}}, {"type": "Feature", "geometry": {"type": "Point", "coordinates": [-91.2763961, 14.8648474]}, "properties": {"Fecha": "2025-05-22 09:29:00", "Entrevistado": "Rosario Veronica Tóc Guinea de Caxaj", "Edad": 50, "Municipio": "Otros - Especificar", "Num_familias": 1, "Num_personas": 2, "Forma_cocinar": "Otros -Especificar-", "Estado_cocina": "Regula", "Obtencion_lena": "Compra", "Compromiso_estufa_ahorradora": "Si"}}, {"type": "Feature", "geometry": {"type": "Point", "coordinates": [-91.27231, 14.8668063]}, "properties": {"Fecha": "2025-05-22 10:02:00", "Entrevistado": "Zoila María Talé Barreno de García", "Edad": 33, "Municipio": "Otros - Especificar", "Num_familias": 1, "Num_personas": 2, "Forma_cocinar": "Estufa gas", "Estado_cocina": "Regula", "Obtencion_lena": null, "Compromiso_estufa_ahorradora": "Si"}}, {"type": "Feature", "geometry": {"type": "Point", "coordinates": [-91.2672485, 14.8707908]}, "properties": {"Fecha": "2025-05-22 10:38:00", "Entrevistado": "Prudencia Yax Tzoc de Rodriguez", "Edad": 44, "Municipio": "Otros - Especificar", "Num_familias": 2, "Num_personas": 8, "Forma_cocinar": "Poyo", "Estado_cocina": "Regula", "Obtencion_lena": "Recolecta", "Compromiso_estufa_ahorradora": "Si"}}, {"type": "Feature", "geometry": {"type": "Point", "coordinates": [-91.3265354, 14.6618894]}, "properties": {"Fecha": "2025-05-27 08:58:00", "Entrevistado": "Adela Mariella Jorge Ixcamparic", "Edad": 24, "Municipio": "San Juan la Laguna", "Num_familias": 1, "Num_personas": 5, "Forma_cocinar": "Otros -Especificar-", "Estado_cocina": "Regula", "Obtencion_lena": "Recolecta", "Compromiso_estufa_ahorradora": "Si"}}, {"type": "Feature", "geometry": {"type": "Point", "coordinates": [-91.3140661, 14.7032357]}, "properties": {"Fecha": "2025-05-27 10:47:00", "Entrevistado": "Candelaria Xitamul Tahay de Alvarez", "Edad": 46, "Municipio": "Santa Clara la Laguna", "Num_familias": 1, "Num_personas": 5, "Forma_cocinar": "Fogon abierto", "Estado_cocina": "Regula", "Obtencion_lena": "Recolecta", "Compromiso_estufa_ahorradora": "Si"}}, {"type": "Feature", "geometry": {"type": "Point", "coordinates": [-91.323794, 14.7001536]}, "properties": {"Fecha": "2025-05-27 12:07:00", "Entrevistado": "Faustina Chox Vicente de Cux", "Edad": 55, "Municipio": "Santa María Visitación", "Num_familias": 1, "Num_personas": 15, "Forma_cocinar": "Otros -Especificar-", "Estado_cocina": "Regula", "Obtencion_lena": "Compra", "Compromiso_estufa_ahorradora": "Si"}}, {"type": "Feature", "geometry": {"type": "Point", "coordinates": [-91.1001862, 14.8202729]}, "properties": {"Fecha": "2025-06-10 08:22:00", "Entrevistado": "Estela Bocel Panjoj", "Edad": 30, "Municipio": "Sololá", "Num_familias": 1, "Num_personas": 3, "Forma_cocinar": "Poyo", "Estado_cocina": "Regula", "Obtencion_lena": "Recolecta", "Compromiso_estufa_ahorradora": "Si"}}, {"type": "Feature", "geometry": {"type": "Point", "coordinates": [-91.1036452, 14.8171316]}, "properties": {"Fecha": "2025-06-10 08:59:00", "Entrevistado": "Hermelinda Zet Guarcax", "Edad": 37, "Municipio": "Sololá", "Num_familias": 1, "Num_personas": 5, "Forma_cocinar": "Poyo", "Estado_cocina": "Regula", "Obtencion_lena": "Recolecta", "Compromiso_estufa_ahorradora": "Si"}}, {"type": "Feature", "geometry": {"type": "Point", "coordinates": [-91.0973424, 14.821003]}, "properties": {"Fecha": "2025-06-27 09:14:00", "Entrevistado": "Isabel Panjoj Yaxón", "Edad": 55, "Municipio": "Sololá", "Num_familias": 1, "Num_personas": 4, "Forma_cocinar": "Otros -Especificar-", "Estado_cocina": "Regula", "Obtencion_lena": "Compra", "Compromiso_estufa_ahorradora": "Si"}}, {"type": "Feature", "geometry": {"type": "Point", "coordinates": [-91.1029462, 14.8172695]}, "properties": {"Fecha": "2025-06-27 11:12:00", "Entrevistado": "Edelmira Zet Lebón", "Edad": 40, "Municipio": "Sololá", "Num_familias": 1, "Num_personas": 9, "Forma_cocinar": "Otros -Especificar-", "Estado_cocina": "Regula", "Obtencion_lena": "Compra Recolecta", "Compromiso_estufa_ahorradora": "Si"}}, {"type": "Feature", "geometry": {"type": "Point", "coordinates": [-91.0353925, 14.6477106]}, "properties": {"Fecha": "2026-03-25 13:59:00", "Entrevistado": "Jessica Leticia Yaquí Cristal", "Edad": 25, "Municipio": "Otros - Especificar", "Num_familias": 1, "Num_personas": 5, "Forma_cocinar": "Poyo", "Estado_cocina": "Regula", "Obtencion_lena": "Compra", "Compromiso_estufa_ahorradora": "Si"}}, {"type": "Feature", "geometry": {"type": "Point", "coordinates": [-91.0353768, 14.647509]}, "properties": {"Fecha": "2026-03-25 13:41:00", "Entrevistado": "Brenda Leticia Cot Maczul", "Edad": 36, "Municipio": "Otros - Especificar", "Num_familias": 1, "Num_personas": 5, "Forma_cocinar": "Poyo", "Estado_cocina": "Regula", "Obtencion_lena": "Recolecta", "Compromiso_estufa_ahorradora": null}}, {"type": "Feature", "geometry": {"type": "Point", "coordinates": [-91.2207836, 14.7677784]}, "properties": {"Fecha": "2026-02-12 09:41:00", "Entrevistado": "Gloria Elizabeth Cumes Jiatz", "Edad": 36, "Municipio": "San José Chacayá", "Num_familias": 1, "Num_personas": 4, "Forma_cocinar": "Poyo", "Estado_cocina": "Bueno", "Obtencion_lena": "Recolecta", "Compromiso_estufa_ahorradora": "Si"}}, {"type": "Feature", "geometry": {"type": "Point", "coordinates": [-91.2746127, 14.8126019]}, "properties": {"Fecha": "2026-02-19 11:15:00", "Entrevistado": "Adela Sebastiana Tax Cajchum de Zavala.", "Edad": 46, "Municipio": "Santa Lucía Utatlán", "Num_familias": 1, "Num_personas": 3, "Forma_cocinar": "Fogon abierto", "Estado_cocina": "Regula", "Obtencion_lena": null, "Compromiso_estufa_ahorradora": "Si"}}, {"type": "Feature", "geometry": {"type": "Point", "coordinates": [-91.3012766, 14.7688651]}, "properties": {"Fecha": "2026-02-19 13:27:00", "Entrevistado": "Eusebio Juana Ixcol Yac de Alvarez", "Edad": 53, "Municipio": "Santa Lucía Utatlán", "Num_familias": 1, "Num_personas": 6, "Forma_cocinar": "Poyo", "Estado_cocina": "Regula", "Obtencion_lena": "Recolecta", "Compromiso_estufa_ahorradora": "Si"}}, {"type": "Feature", "geometry": {"type": "Point", "coordinates": [-91.2823435, 14.7773849]}, "properties": {"Fecha": "2026-03-03 12:53:00", "Entrevistado": "Juana Petronila Yax Vasquez", "Edad": 44, "Municipio": "Santa Lucía Utatlán", "Num_familias": 1, "Num_personas": 7, "Forma_cocinar": "Poyo", "Estado_cocina": "Regula", "Obtencion_lena": "Recolecta", "Compromiso_estufa_ahorradora": "Si"}}, {"type": "Feature", "geometry": {"type": "Point", "coordinates": [-91.2331063, 14.8083043]}, "properties": {"Fecha": "2026-03-04 10:41:00", "Entrevistado": "Emilio Francisca Tziquin Guarchaj", "Edad": 42, "Municipio": "Nahualá", "Num_familias": 1, "Num_personas": 2, "Forma_cocinar": "Fogon abierto", "Estado_cocina": "Regula", "Obtencion_lena": null, "Compromiso_estufa_ahorradora": "Si"}}, {"type": "Feature", "geometry": {"type": "Point", "coordinates": [-91.2329733, 14.8066717]}, "properties": {"Fecha": "2026-03-04 14:02:00", "Entrevistado": "Magdalena Tahay Sohom", "Edad": 52, "Municipio": "Nahualá", "Num_familias": 1, "Num_personas": 9, "Forma_cocinar": "Poyo", "Estado_cocina": "Regula", "Obtencion_lena": "Recolecta", "Compromiso_estufa_ahorradora": "Si"}}, {"type": "Feature", "geometry": {"type": "Point", "coordinates": [-91.233351, 14.8065441]}, "properties": {"Fecha": "2026-03-04 15:30:00", "Entrevistado": "Resalta Carac Lopez", "Edad": 33, "Municipio": "Nahualá", "Num_familias": 1, "Num_personas": 3, "Forma_cocinar": "Poyo", "Estado_cocina": "Regula", "Obtencion_lena": "Recolecta", "Compromiso_estufa_ahorradora": "Si"}}, {"type": "Feature", "geometry": {"type": "Point", "coordinates": [-91.0429461, 14.6392711]}, "properties": {"Fecha": "2026-03-17 10:16:00", "Entrevistado": "Maria Juana Cumes Coyote", "Edad": 48, "Municipio": "Otros - Especificar", "Num_familias": 1, "Num_personas": 7, "Forma_cocinar": "Poyo", "Estado_cocina": "Malo", "Obtencion_lena": null, "Compromiso_estufa_ahorradora": "Si"}}, {"type": "Feature", "geometry": {"type": "Point", "coordinates": [-91.0438013, 14.6333488]}, "properties": {"Fecha": "2026-03-17 10:51:00", "Entrevistado": "Marta Lidia Aju Xinico", "Edad": 41, "Municipio": "Otros - Especificar", "Num_familias": 1, "Num_personas": 4, "Forma_cocinar": "Poyo", "Estado_cocina": "Regula", "Obtencion_lena": null, "Compromiso_estufa_ahorradora": "Si"}}, {"type": "Feature", "geometry": {"type": "Point", "coordinates": [-91.0438303, 14.6331816]}, "properties": {"Fecha": "2026-03-17 11:09:00", "Entrevistado": "Irme Yolanda Buch Sir", "Edad": 31, "Municipio": "Otros - Especificar", "Num_familias": 1, "Num_personas": 5, "Forma_cocinar": "Fogon abierto", "Estado_cocina": "Regula", "Obtencion_lena": "Recolecta", "Compromiso_estufa_ahorradora": "Si"}}, {"type": "Feature", "geometry": {"type": "Point", "coordinates": [-91.0436029, 14.6331481]}, "properties": {"Fecha": "2026-03-17 11:29:00", "Entrevistado": "Analizar Maricela Buch Sir", "Edad": 28, "Municipio": "Otros - Especificar", "Num_familias": 1, "Num_personas": 5, "Forma_cocinar": "Fogon abierto", "Estado_cocina": "Malo", "Obtencion_lena": "Recolecta", "Compromiso_estufa_ahorradora": "Si"}}, {"type": "Feature", "geometry": {"type": "Point", "coordinates": [-91.0436882, 14.6320346]}, "properties": {"Fecha": "2026-03-17 11:58:00", "Entrevistado": "Berta Pero Balam Upun", "Edad": 49, "Municipio": "Otros - Especificar", "Num_familias": 2, "Num_personas": 10, "Forma_cocinar": "Poyo", "Estado_cocina": "Malo", "Obtencion_lena": "Recolecta", "Compromiso_estufa_ahorradora": "Si"}}, {"type": "Feature", "geometry": {"type": "Point", "coordinates": [-91.0400139, 14.6301022]}, "properties": {"Fecha": "2026-03-17 13:06:00", "Entrevistado": "Reina Cristina Sir Lara", "Edad": 22, "Municipio": "Otros - Especificar", "Num_familias": 1, "Num_personas": 4, "Forma_cocinar": "Poyo", "Estado_cocina": "Regula", "Obtencion_lena": null, "Compromiso_estufa_ahorradora": "Si"}}, {"type": "Feature", "geometry": {"type": "Point", "coordinates": [-91.0428267, 14.6337883]}, "properties": {"Fecha": "2026-03-17 14:36:00", "Entrevistado": "Marleni Sir Chavac", "Edad": 24, "Municipio": "Otros - Especificar", "Num_familias": 1, "Num_personas": 3, "Forma_cocinar": "Poyo", "Estado_cocina": "Regula", "Obtencion_lena": "Recolecta", "Compromiso_estufa_ahorradora": "Si"}}, {"type": "Feature", "geometry": {"type": "Point", "coordinates": [-91.0369273, 14.648399]}, "properties": {"Fecha": "2026-03-25 09:37:00", "Entrevistado": "Brenda Esperanza  Xiquita Tomin", "Edad": 37, "Municipio": "Otros - Especificar", "Num_familias": 1, "Num_personas": 5, "Forma_cocinar": "Poyo", "Estado_cocina": "Regula", "Obtencion_lena": "Recolecta", "Compromiso_estufa_ahorradora": "Si"}}, {"type": "Feature", "geometry": {"type": "Point", "coordinates": [-91.0337026, 14.6458306]}, "properties": {"Fecha": "2026-03-25 10:04:00", "Entrevistado": "Julia Gonzalez Cocon", "Edad": 48, "Municipio": "Otros - Especificar", "Num_familias": 2, "Num_personas": 6, "Forma_cocinar": "Poyo", "Estado_cocina": "Malo", "Obtencion_lena": null, "Compromiso_estufa_ahorradora": "Si"}}, {"type": "Feature", "geometry": {"type": "Point", "coordinates": [-91.0338059, 14.6456116]}, "properties": {"Fecha": "2026-03-25 10:21:00", "Entrevistado": "Marta Lidia Muxtay Cocon", "Edad": 29, "Municipio": "Otros - Especificar", "Num_familias": 1, "Num_personas": 6, "Forma_cocinar": "Poyo", "Estado_cocina": "Malo", "Obtencion_lena": "Recolecta", "Compromiso_estufa_ahorradora": "Si"}}, {"type": "Feature", "geometry": {"type": "Point", "coordinates": [-91.0336283, 14.645455]}, "properties": {"Fecha": "2026-03-25 10:34:00", "Entrevistado": "Martina Cuxil Muxtay", "Edad": 55, "Municipio": null, "Num_familias": 2, "Num_personas": 7, "Forma_cocinar": "Estufa gas", "Estado_cocina": "Malo", "Obtencion_lena": null, "Compromiso_estufa_ahorradora": "Si"}}, {"type": "Feature", "geometry": {"type": "Point", "coordinates": [-91.0323395, 14.6460502]}, "properties": {"Fecha": "2026-03-25 12:29:00", "Entrevistado": "Gloria Hermelinda Coyote Salvador", "Edad": 30, "Municipio": "Otros - Especificar", "Num_familias": 1, "Num_personas": 5, "Forma_cocinar": "Poyo", "Estado_cocina": "Regula", "Obtencion_lena": null, "Compromiso_estufa_ahorradora": "Si"}}, {"type": "Feature", "geometry": {"type": "Point", "coordinates": [-91.0329713, 14.6461113]}, "properties": {"Fecha": "2026-03-25 13:44:00", "Entrevistado": "Martin Yaneth Cristal Xulu", "Edad": 38, "Municipio": "Otros - Especificar", "Num_familias": 1, "Num_personas": 6, "Forma_cocinar": "Poyo", "Estado_cocina": "Malo", "Obtencion_lena": "Recolecta", "Compromiso_estufa_ahorradora": "Si"}}, {"type": "Feature", "geometry": {"type": "Point", "coordinates": [-91.0338771, 14.647365]}, "properties": {"Fecha": "2026-03-25 14:02:00", "Entrevistado": "Luisa Xulu Cristales.", "Edad": 52, "Municipio": "Otros - Especificar", "Num_familias": 1, "Num_personas": 3, "Forma_cocinar": "Poyo", "Estado_cocina": "Malo", "Obtencion_lena": "Recolecta", "Compromiso_estufa_ahorradora": "Si"}}, {"type": "Feature", "geometry": {"type": "Point", "coordinates": [-91.0340077, 14.6474163]}, "properties": {"Fecha": "2026-03-25 14:16:00", "Entrevistado": "Jackeline Yaqui Upun", "Edad": 25, "Municipio": "Otros - Especificar", "Num_familias": 1, "Num_personas": 8, "Forma_cocinar": "Fogon abierto", "Estado_cocina": "Malo", "Obtencion_lena": "Recolecta", "Compromiso_estufa_ahorradora": "Si"}}, {"type": "Feature", "geometry": {"type": "Point", "coordinates": [-91.0341751, 14.6460299]}, "properties": {"Fecha": "2026-03-25 11:08:00", "Entrevistado": "Yulisa Elva Cuxil Lopez", "Edad": 19, "Municipio": "Otros - Especificar", "Num_familias": 1, "Num_personas": 3, "Forma_cocinar": "Fogon abierto", "Estado_cocina": "Regula", "Obtencion_lena": "Recolecta", "Compromiso_estufa_ahorradora": "Si"}}, {"type": "Feature", "geometry": {"type": "Point", "coordinates": [-91.0344358, 14.6446112]}, "properties": {"Fecha": "2026-03-25 11:23:00", "Entrevistado": "Karen Yecelia dela Cruz  Cum", "Edad": 22, "Municipio": "Otros - Especificar", "Num_familias": 2, "Num_personas": 6, "Forma_cocinar": "Poyo", "Estado_cocina": "Regula", "Obtencion_lena": "Recolecta", "Compromiso_estufa_ahorradora": "Si"}}, {"type": "Feature", "geometry": {"type": "Point", "coordinates": [-91.0351049, 14.6458752]}, "properties": {"Fecha": "2026-03-25 11:37:00", "Entrevistado": "Yaquelin Francisca Tzay Perobal", "Edad": 25, "Municipio": "Otros - Especificar", "Num_familias": 2, "Num_personas": 6, "Forma_cocinar": "Poyo", "Estado_cocina": "Bueno", "Obtencion_lena": null, "Compromiso_estufa_ahorradora": "Si"}}, {"type": "Feature", "geometry": {"type": "Point", "coordinates": [-91.0330052, 14.647244]}, "properties": {"Fecha": "2026-03-25 11:58:00", "Entrevistado": "Reina Xicay Baran", "Edad": 58, "Municipio": "Otros - Especificar", "Num_familias": 1, "Num_personas": 5, "Forma_cocinar": "Poyo", "Estado_cocina": "Malo", "Obtencion_lena": "Recolecta", "Compromiso_estufa_ahorradora": "Si"}}, {"type": "Feature", "geometry": {"type": "Point", "coordinates": [-91.0334297, 14.6472475]}, "properties": {"Fecha": "2026-03-25 12:14:00", "Entrevistado": "Irme Yolanda Upun Xiquita", "Edad": 30, "Municipio": "Otros - Especificar", "Num_familias": 1, "Num_personas": 6, "Forma_cocinar": "Poyo", "Estado_cocina": "Malo", "Obtencion_lena": "Recolecta", "Compromiso_estufa_ahorradora": "Si"}}]}