{"type": "FeatureCollection", "features": [{"type": "Feature", "geometry": {"type": "Point", "coordinates": [-91.35951227025409, 14.853267083009074]}, "properties": {"FID": 0, "NPOB_INE": "SANTA CATARINA IXTAHUACAN", "X": 407511.7667, "Y": 1642603.1785}, "id": 0}, {"type": "Feature", "geometry": {"type": "Point", "coordinates": [-91.14722258848582, 14.78396361253133]}, "properties": {"FID": 1, "NPOB_INE": "CONCEPCION", "X": 430334.1375, "Y": 1634859.0621}, "id": 1}, {"type": "Feature", "geometry": {"type": "Point", "coordinates": [-91.15280999966001, 14.74566000014832]}, "properties": {"FID": 2, "NPOB_INE": "PANAJACHEL", "X": 429720.3909, "Y": 1630623.252}, "id": 2}, {"type": "Feature", "geometry": {"type": "Point", "coordinates": [-91.13427611149233, 14.746181297255397]}, "properties": {"FID": 3, "NPOB_INE": "SAN ANDRES SEMETABAJ", "X": 431715.9299, "Y": 1630675.2184}, "id": 3}, {"type": "Feature", "geometry": {"type": "Point", "coordinates": [-91.11634610998811, 14.694433617616822]}, "properties": {"FID": 4, "NPOB_INE": "SAN ANTONIO PALOPO", "X": 433630.6318, "Y": 1624945.0364}, "id": 4}, {"type": "Feature", "geometry": {"type": "Point", "coordinates": [-91.21419356805924, 14.772195531376997]}, "properties": {"FID": 5, "NPOB_INE": "SAN JOSE CHACAYA", "X": 423121.0517, "Y": 1633578.9922}, "id": 5}, {"type": "Feature", "geometry": {"type": "Point", "coordinates": [-91.28664817567716, 14.694952620423948]}, "properties": {"FID": 6, "NPOB_INE": "SAN JUAN LA LAGUNA", "X": 415291.4671, "Y": 1625059.415}, "id": 6}, {"type": "Feature", "geometry": {"type": "Point", "coordinates": [-91.14489985072731, 14.635358970406193]}, "properties": {"FID": 7, "NPOB_INE": "SAN LUCAS TOLIMAN", "X": 430537.1735, "Y": 1618418.2228}, "id": 7}, {"type": "Feature", "geometry": {"type": "Point", "coordinates": [-91.25848909483139, 14.724362214701076]}, "properties": {"FID": 8, "NPOB_INE": "SAN MARCOS LA LAGUNA", "X": 418334.8136, "Y": 1628302.6924}, "id": 8}, {"type": "Feature", "geometry": {"type": "Point", "coordinates": [-91.35909495722466, 14.798244306674635]}, "properties": {"FID": 9, "NPOB_INE": "SANTA CATARINA IXTAHUACAN", "X": 407533.3173, "Y": 1636515.5188}, "id": 9}, {"type": "Feature", "geometry": {"type": "Point", "coordinates": [-91.13614999964257, 14.723810000377444]}, "properties": {"FID": 10, "NPOB_INE": "SANTA CATARINA PALOPO", "X": 431507.1965, "Y": 1628200.8513}, "id": 10}, {"type": "Feature", "geometry": {"type": "Point", "coordinates": [-91.30833458506486, 14.71671294148516]}, "properties": {"FID": 11, "NPOB_INE": "SANTA MARIA VISITACION", "X": 412964.7008, "Y": 1627475.0796}, "id": 11}, {"type": "Feature", "geometry": {"type": "Point", "coordinates": [-91.18447745981614, 14.768236768564151]}, "properties": {"FID": 12, "NPOB_INE": "SOLOLA", "X": 426318.627, "Y": 1633131.0732}, "id": 12}]}