{"type": "FeatureCollection", "features": [{"type": "Feature", "geometry": {"type": "Point", "coordinates": [-91.31820934942748, 14.843290172470278]}, "properties": {"FID": 0, "NPOB_INE": "NAHUALA", "CAT_INE": "PUEBLO", "CPOB": "705001", "CMPIO": "05", "CDPTO": "07", "X": 411952.4187, "Y": 1641482.7007}, "id": 0}, {"type": "Feature", "geometry": {"type": "Point", "coordinates": [-91.15121, 14.74676]}, "properties": {"FID": 1, "NPOB_INE": "PANAJACHEL", "CAT_INE": "PUEBLO", "CPOB": "710001", "CMPIO": "10", "CDPTO": "07", "X": 429720.3909, "Y": 1630623.252}, "id": 1}, {"type": "Feature", "geometry": {"type": "Point", "coordinates": [-91.1433, 14.636459]}, "properties": {"FID": 2, "NPOB_INE": "SAN LUCAS TOLIMAN", "CAT_INE": "PUEBLO", "CPOB": "713001", "CMPIO": "13", "CDPTO": "07", "X": 430537.1735, "Y": 1618418.2228}, "id": 2}, {"type": "Feature", "geometry": {"type": "Point", "coordinates": [-91.27226212877274, 14.691417159381682]}, "properties": {"FID": 3, "NPOB_INE": "SAN PEDRO LA LAGUNA", "CAT_INE": "PUEBLO", "CPOB": "718001", "CMPIO": "18", "CDPTO": "07", "X": 416839.3437, "Y": 1624662.9317}, "id": 3}, {"type": "Feature", "geometry": {"type": "Point", "coordinates": [-91.2063786269491, 14.743833695300232]}, "properties": {"FID": 4, "NPOB_INE": "SANTA CRUZ LA LAGUNA", "CAT_INE": "PUEBLO", "CPOB": "714001", "CMPIO": "14", "CDPTO": "07", "X": 423952.4693, "Y": 1630438.6175}, "id": 4}, {"type": "Feature", "geometry": {"type": "Point", "coordinates": [-91.26422579376036, 14.773494575578916]}, "properties": {"FID": 5, "NPOB_INE": "SANTA LUCIA UTATLAN", "CAT_INE": "PUEBLO", "CPOB": "704001", "CMPIO": "04", "CDPTO": "07", "X": 417735.5803, "Y": 1633740.4281}, "id": 5}, {"type": "Feature", "geometry": {"type": "Point", "coordinates": [-91.306735, 14.717813]}, "properties": {"FID": 6, "NPOB_INE": "SANTA MARIA VISITACION", "CAT_INE": "PUEBLO", "CPOB": "703001", "CMPIO": "03", "CDPTO": "07", "X": 412964.7008, "Y": 1627475.0796}, "id": 6}, {"type": "Feature", "geometry": {"type": "Point", "coordinates": [-91.22940731477665, 14.638597293472406]}, "properties": {"FID": 7, "NPOB_INE": "SANTIAGO ATITLAN", "CAT_INE": "PUEBLO", "CPOB": "719001", "CMPIO": "19", "CDPTO": "07", "X": 421435.5333, "Y": 1618804.0667}, "id": 7}]}