{"type": "FeatureCollection", "features": [{"type": "Feature", "geometry": {"type": "Point", "coordinates": [-91.2405969258916, 14.74329163187313]}, "properties": {"Nombre": "chuitzanchaj - CEDRACC", "Institucion": "Vivamos Mejor"}}, {"type": "Feature", "geometry": {"type": "Point", "coordinates": [-91.15223054718712, 14.738764255805402]}, "properties": {"Nombre": "Panajachel - VM", "Institucion": "Vivamos Mejor"}}, {"type": "Feature", "geometry": {"type": "Point", "coordinates": [-91.30481539612771, 14.714944222649]}, "properties": {"Nombre": "Santa Clara la Laguna", "Institucion": "Vivamos Mejor"}}, {"type": "Feature", "geometry": {"type": "Point", "coordinates": [-91.24384635099995, 14.80277770200007]}, "properties": {"Nombre": "Casa Santa Rita", "Institucion": "Vivamos Mejor"}}, {"type": "Feature", "geometry": {"type": "Point", "coordinates": [-91.24127446734971, 14.617520210569538]}, "properties": {"Nombre": "CoAtitlán - Santiago Atitlán", "Institucion": "Vivamos Mejor"}}, {"type": "Feature", "geometry": {"type": "Point", "coordinates": [-91.13902210315013, 14.744681287983674]}, "properties": {"Nombre": "Lomas de Atitlán - San Andres Semetabaj", "Institucion": "Vivamos Mejor"}}, {"type": "Feature", "geometry": {"type": "Point", "coordinates": [-91.1649540098969, 14.820021910831052]}, "properties": {"Nombre": "Caserío Chuacruz - Aldea Pujujil I - Sololá", "Institucion": "Vivamos Mejor"}}, {"type": "Feature", "geometry": {"type": "Point", "coordinates": [-91.16937907299996, 14.762714699000071]}, "properties": {"Nombre": "EFA-Sololá", "Institucion": "EFA"}}, {"type": "Feature", "geometry": {"type": "Point", "coordinates": [-91.22816612499997, 14.649409494000054]}, "properties": {"Nombre": "ADISA - Santiago Atitlán", "Institucion": "ADISA"}}, {"type": "Feature", "geometry": {"type": "Point", "coordinates": [-91.14333881499994, 14.628346430000013]}, "properties": {"Nombre": "ADISA - San Lucas Tolimán", "Institucion": "ADISA"}}]}