{"type": "FeatureCollection", "features": [{"type": "Feature", "geometry": {"type": "Point", "coordinates": [-91.2889856, 14.6896255]}, "properties": {"Nombre": "Elias Mendoza Cholotio", "Genero": "Hombre", "Comunidad_linguistica": "Tz'utujil", "Municipio_residencia": "San Juan La Laguna", "Comunidad": "Cantón chinimaya San Juan la laguna"}}, {"type": "Feature", "geometry": {"type": "Point", "coordinates": [-91.2889701, 14.6897293]}, "properties": {"Nombre": "Miguel Angel Cholotio Mendoza", "Genero": "Hombre", "Comunidad_linguistica": "Tz'utujil", "Municipio_residencia": "San Juan La Laguna", "Comunidad": "Cantón Chuitinamit."}}, {"type": "Feature", "geometry": {"type": "Point", "coordinates": [-91.2890138, 14.6898255]}, "properties": {"Nombre": "Florinda Hernández Yojcom", "Genero": "Mujer", "Comunidad_linguistica": "Tz'utujil", "Municipio_residencia": "San Juan La Laguna", "Comunidad": null}}, {"type": "Feature", "geometry": {"type": "Point", "coordinates": [-91.2890823, 14.6898671]}, "properties": {"Nombre": "Manuel Tipaz Ixmata", "Genero": "Hombre", "Comunidad_linguistica": "Tz'utujil", "Municipio_residencia": "San Juan La Laguna", "Comunidad": null}}, {"type": "Feature", "geometry": {"type": "Point", "coordinates": [-91.2852483, 14.6950519]}, "properties": {"Nombre": "Pablo Mendoza Cholotio", "Genero": "Hombre", "Comunidad_linguistica": "Tz'utujil", "Municipio_residencia": "San Juan La Laguna", "Comunidad": "San Juan la laguna centro"}}, {"type": "Feature", "geometry": {"type": "Point", "coordinates": [-91.2852409, 14.6950088]}, "properties": {"Nombre": "Cornelio Manuel Mendoza  Pérez", "Genero": "Hombre", "Comunidad_linguistica": "Tz'utujil", "Municipio_residencia": "San Juan La Laguna", "Comunidad": "Centro de San Juan La Laguna.."}}, {"type": "Feature", "geometry": {"type": "Point", "coordinates": [-91.2852845, 14.6949449]}, "properties": {"Nombre": "Marcos Mendoza Ixtamer", "Genero": "Hombre", "Comunidad_linguistica": "Tz'utujil", "Municipio_residencia": "San Juan La Laguna", "Comunidad": "Centro de San Juan"}}, {"type": "Feature", "geometry": {"type": "Point", "coordinates": [-91.314512, 14.6885989]}, "properties": {"Nombre": "Filomena Prudencia Saloj Batz", "Genero": "Mujer", "Comunidad_linguistica": "Kaqchikel", "Municipio_residencia": "San Juan La Laguna", "Comunidad": "Palestina San Juan la laguna"}}, {"type": "Feature", "geometry": {"type": "Point", "coordinates": [-91.3139761, 14.6889517]}, "properties": {"Nombre": "María Elvira Tojin lux de gonzales", "Genero": "Mujer", "Comunidad_linguistica": "K'iche", "Municipio_residencia": "San Juan La Laguna", "Comunidad": "Aldea palestina Sector Gonzáles."}}, {"type": "Feature", "geometry": {"type": "Point", "coordinates": [-91.3135378, 14.6884869]}, "properties": {"Nombre": "Marta Ofelia canastuj chosh de vasquez", "Genero": "Mujer", "Comunidad_linguistica": "K'iche", "Municipio_residencia": "San Juan La Laguna", "Comunidad": "Sector gonzales"}}, {"type": "Feature", "geometry": {"type": "Point", "coordinates": [-91.3159093, 14.6893445]}, "properties": {"Nombre": "Aura María Sac Tuj", "Genero": "Mujer", "Comunidad_linguistica": "K'iche", "Municipio_residencia": "San Juan La Laguna", "Comunidad": "Sector Gonzales"}}, {"type": "Feature", "geometry": {"type": "Point", "coordinates": [-91.3160673, 14.6892288]}, "properties": {"Nombre": "Ermegilda Modesta Jorge saloj de Ajpacaja", "Genero": "Mujer", "Comunidad_linguistica": "K'iche", "Municipio_residencia": "San Juan La Laguna", "Comunidad": "Sector gonzales"}}, {"type": "Feature", "geometry": {"type": "Point", "coordinates": [-91.3155844, 14.6886581]}, "properties": {"Nombre": "Loida Saloj Batz de Jorge", "Genero": "Mujer", "Comunidad_linguistica": "K'iche", "Municipio_residencia": "San Juan La Laguna", "Comunidad": "Sector tierra prometida..palestina San Juan la Laguna"}}, {"type": "Feature", "geometry": {"type": "Point", "coordinates": [-91.3157056, 14.6888514]}, "properties": {"Nombre": "Francisca Florencia Sac Sac", "Genero": "Mujer", "Comunidad_linguistica": "K'iche", "Municipio_residencia": "San Juan La Laguna", "Comunidad": "Sector tierra prometida"}}, {"type": "Feature", "geometry": {"type": "Point", "coordinates": [-91.3156867, 14.6883383]}, "properties": {"Nombre": "Geovany Leonel Ajpacaja Jorge", "Genero": "Hombre", "Comunidad_linguistica": "K'iche", "Municipio_residencia": "San Juan La Laguna", "Comunidad": "Sector gonzales"}}, {"type": "Feature", "geometry": {"type": "Point", "coordinates": [-91.3131356, 14.6796129]}, "properties": {"Nombre": "Brenda Isabel Morales Gonzales", "Genero": "Mujer", "Comunidad_linguistica": "K'iche", "Municipio_residencia": "San Juan La Laguna", "Comunidad": "Caserío los cipresales aldea palestina"}}, {"type": "Feature", "geometry": {"type": "Point", "coordinates": [-91.3131744, 14.6796286]}, "properties": {"Nombre": "Juana fidelia de León Ecomac", "Genero": "Mujer", "Comunidad_linguistica": "K'iche", "Municipio_residencia": "San Juan La Laguna", "Comunidad": "Caserío los Cipresales"}}, {"type": "Feature", "geometry": {"type": "Point", "coordinates": [-91.3132078, 14.6795546]}, "properties": {"Nombre": "Irma Tohom Vasquezq", "Genero": "Mujer", "Comunidad_linguistica": "K'iche", "Municipio_residencia": "San Juan La Laguna", "Comunidad": null}}, {"type": "Feature", "geometry": {"type": "Point", "coordinates": [-91.3133335, 14.6796383]}, "properties": {"Nombre": "Santos Daniel Jorge Menchu", "Genero": "Hombre", "Comunidad_linguistica": "K'iche", "Municipio_residencia": "San Juan La Laguna", "Comunidad": "Los ipresales"}}, {"type": "Feature", "geometry": {"type": "Point", "coordinates": [-91.3131822, 14.6795584]}, "properties": {"Nombre": "Santos Olivia Tohom Vasquez de Jorge", "Genero": "Mujer", "Comunidad_linguistica": "K'iche", "Municipio_residencia": "San Juan La Laguna", "Comunidad": "Caserío los cipresales"}}, {"type": "Feature", "geometry": {"type": "Point", "coordinates": [-91.3132247, 14.679564]}, "properties": {"Nombre": "Gloria Alicia Jorge tohom", "Genero": "Mujer", "Comunidad_linguistica": "K'iche", "Municipio_residencia": "San Juan La Laguna", "Comunidad": "Caserío los Cipresales "}}, {"type": "Feature", "geometry": {"type": "Point", "coordinates": [-91.3132398, 14.6795542]}, "properties": {"Nombre": "Marta Mauricia Julajuj Jorge", "Genero": "Mujer", "Comunidad_linguistica": "K'iche", "Municipio_residencia": "San Juan La Laguna", "Comunidad": "Los Cipresales aldea palestina San Juan la Laguna."}}, {"type": "Feature", "geometry": {"type": "Point", "coordinates": [-91.3129774, 14.6795407]}, "properties": {"Nombre": "Alva Lucía Cac Leja", "Genero": "Mujer", "Comunidad_linguistica": "K'iche", "Municipio_residencia": "San Juan La Laguna", "Comunidad": "Caserío los Cipresales"}}, {"type": "Feature", "geometry": {"type": "Point", "coordinates": [-91.3132333, 14.6796733]}, "properties": {"Nombre": "Elena Roselda Coj Gonzales", "Genero": "Mujer", "Comunidad_linguistica": "K'iche", "Municipio_residencia": "San Juan La Laguna", "Comunidad": "Caserío los Cipresales "}}, {"type": "Feature", "geometry": {"type": "Point", "coordinates": [-91.3150614, 14.6760314]}, "properties": {"Nombre": "Astrid Paola Cholotio Tzep de batz", "Genero": "Mujer", "Comunidad_linguistica": "K'iche", "Municipio_residencia": "San Juan La Laguna", "Comunidad": "San Andrés chuacanac, San Juan La laguna"}}, {"type": "Feature", "geometry": {"type": "Point", "coordinates": [-91.3150331, 14.6760113]}, "properties": {"Nombre": "Catarina Coj Chan", "Genero": "Otro", "Comunidad_linguistica": "K'iche", "Municipio_residencia": "San Juan La Laguna", "Comunidad": "San Andrés chuacanac"}}, {"type": "Feature", "geometry": {"type": "Point", "coordinates": [-91.314995, 14.6759656]}, "properties": {"Nombre": "María Tomasa Con Chan", "Genero": "Mujer", "Comunidad_linguistica": "K'iche", "Municipio_residencia": "San Juan La Laguna", "Comunidad": "Cantón chuacanac"}}, {"type": "Feature", "geometry": {"type": "Point", "coordinates": [-91.3150763, 14.6760512]}, "properties": {"Nombre": "Alida Albina Gonzáles Xum de caxaj", "Genero": "Mujer", "Comunidad_linguistica": "K'iche", "Municipio_residencia": "San Juan La Laguna", "Comunidad": "Cantón Chuacanac, San Juan la kaguna"}}, {"type": "Feature", "geometry": {"type": "Point", "coordinates": [-91.3151445, 14.6761366]}, "properties": {"Nombre": "María Fernanda Caxaj Tziac", "Genero": "Mujer", "Comunidad_linguistica": "K'iche", "Municipio_residencia": "San Juan La Laguna", "Comunidad": null}}, {"type": "Feature", "geometry": {"type": "Point", "coordinates": [-91.3150069, 14.6761144]}, "properties": {"Nombre": "Norma Lorena Caxaj Tziac", "Genero": "Mujer", "Comunidad_linguistica": "K'iche", "Municipio_residencia": "San Juan La Laguna", "Comunidad": "Chuacanac"}}, {"type": "Feature", "geometry": {"type": "Point", "coordinates": [-91.3150118, 14.6760707]}, "properties": {"Nombre": "Griselda Ilodia pur castro", "Genero": "Mujer", "Comunidad_linguistica": "K'iche", "Municipio_residencia": "San Juan La Laguna", "Comunidad": "Caserío chuacanac"}}, {"type": "Feature", "geometry": {"type": "Point", "coordinates": [-91.3149905, 14.6761307]}, "properties": {"Nombre": "Floridalma Azucena Sulugui Ixcamparic", "Genero": "Mujer", "Comunidad_linguistica": "K'iche", "Municipio_residencia": "San Juan La Laguna", "Comunidad": "Cantón Chiacanac"}}, {"type": "Feature", "geometry": {"type": "Point", "coordinates": [-91.3150083, 14.6761667]}, "properties": {"Nombre": "Antonieta Zet Lopez", "Genero": "Mujer", "Comunidad_linguistica": "K'iche", "Municipio_residencia": "San Juan La Laguna", "Comunidad": null}}, {"type": "Feature", "geometry": {"type": "Point", "coordinates": [-91.2196137, 14.7636549]}, "properties": {"Nombre": "Juana Albertina Ajuí Y Aju", "Genero": "Mujer", "Comunidad_linguistica": "K'iche", "Municipio_residencia": "San José Chacayá", "Comunidad": "Caserío San felipe"}}, {"type": "Feature", "geometry": {"type": "Point", "coordinates": [-91.2197687, 14.7637562]}, "properties": {"Nombre": "Reyna Saquic Aju", "Genero": "Mujer", "Comunidad_linguistica": "K'iche", "Municipio_residencia": "San José Chacayá", "Comunidad": "Caserío San Felipe San José chacaya"}}, {"type": "Feature", "geometry": {"type": "Point", "coordinates": [-91.2198024, 14.7636922]}, "properties": {"Nombre": "Rosalba Saquic Aju..", "Genero": "Mujer", "Comunidad_linguistica": "K'iche", "Municipio_residencia": "San José Chacayá", "Comunidad": "San felipe"}}, {"type": "Feature", "geometry": {"type": "Point", "coordinates": [-91.219868, 14.76376]}, "properties": {"Nombre": "\n\n\nCarmelina Saquic Aju", "Genero": "Mujer", "Comunidad_linguistica": "K'iche", "Municipio_residencia": "San José Chacayá", "Comunidad": "Caserío San Felipe San José chacaya"}}, {"type": "Feature", "geometry": {"type": "Point", "coordinates": [-91.2198575, 14.7636488]}, "properties": {"Nombre": "Eulogia Celia Saquic Aju", "Genero": "Mujer", "Comunidad_linguistica": "K'iche", "Municipio_residencia": "San José Chacayá", "Comunidad": "Caserío San felipe"}}, {"type": "Feature", "geometry": {"type": "Point", "coordinates": [-91.2197802, 14.7635854]}, "properties": {"Nombre": "Juana Manuela Saquic Aju.", "Genero": "Mujer", "Comunidad_linguistica": "K'iche", "Municipio_residencia": "San José Chacayá", "Comunidad": "Caserío San felipe"}}, {"type": "Feature", "geometry": {"type": "Point", "coordinates": [-91.2199019, 14.7635934]}, "properties": {"Nombre": "Josefina Saquic Aju.", "Genero": "Mujer", "Comunidad_linguistica": "K'iche", "Municipio_residencia": "San José Chacayá", "Comunidad": "Caserío San Felipe"}}, {"type": "Feature", "geometry": {"type": "Point", "coordinates": [-91.2230976, 14.7657873]}, "properties": {"Nombre": "Julia Teresa Torres Gonzáles de Xitamul", "Genero": "Mujer", "Comunidad_linguistica": "K'iche", "Municipio_residencia": "San José Chacayá", "Comunidad": "Caserío San felipe"}}, {"type": "Feature", "geometry": {"type": "Point", "coordinates": [-91.2509386, 14.7478562]}, "properties": {"Nombre": "Eva Mendoza Mendoza", "Genero": "Mujer", "Comunidad_linguistica": "Kaqchikel", "Municipio_residencia": "Santa Cruz La Laguna", "Comunidad": "Pajomel"}}, {"type": "Feature", "geometry": {"type": "Point", "coordinates": [-91.2508899, 14.7478369]}, "properties": {"Nombre": "Francisca Mendoza perez", "Genero": "Mujer", "Comunidad_linguistica": "Kaqchikel", "Municipio_residencia": "Santa Cruz La Laguna", "Comunidad": "Pajomel"}}, {"type": "Feature", "geometry": {"type": "Point", "coordinates": [-91.2510989, 14.7477771]}, "properties": {"Nombre": "María Canela sipac de Simon", "Genero": "Mujer", "Comunidad_linguistica": "Kaqchikel", "Municipio_residencia": "Santa Cruz La Laguna", "Comunidad": "Pajomel"}}, {"type": "Feature", "geometry": {"type": "Point", "coordinates": [-91.2508805, 14.747892]}, "properties": {"Nombre": "Lucia Simón Canel", "Genero": "Mujer", "Comunidad_linguistica": "Kaqchikel", "Municipio_residencia": "Santa Cruz La Laguna", "Comunidad": "Pajomel"}}, {"type": "Feature", "geometry": {"type": "Point", "coordinates": [-91.2509216, 14.7479436]}, "properties": {"Nombre": "Emelia Rosenda Canel Sipac..", "Genero": "Mujer", "Comunidad_linguistica": "Kaqchikel", "Municipio_residencia": "Santa Cruz La Laguna", "Comunidad": "Pajomel"}}, {"type": "Feature", "geometry": {"type": "Point", "coordinates": [-91.222985, 14.7657521]}, "properties": {"Nombre": "María Sebastián Torres Gonzales", "Genero": "Mujer", "Comunidad_linguistica": "Kaqchikel", "Municipio_residencia": "San José Chacayá", "Comunidad": "San felipe"}}, {"type": "Feature", "geometry": {"type": "Point", "coordinates": [-91.2229886, 14.7657218]}, "properties": {"Nombre": "Julia Elizabeth Xitamul Torres", "Genero": "Mujer", "Comunidad_linguistica": "Kaqchikel", "Municipio_residencia": "San José Chacayá", "Comunidad": "Caserio San felipe"}}, {"type": "Feature", "geometry": {"type": "Point", "coordinates": [-91.2305183, 14.8119958]}, "properties": {"Nombre": "Lissi Elizabeth García Ajpacaja", "Genero": "Mujer", "Comunidad_linguistica": "K'iche", "Municipio_residencia": "Sololá", "Comunidad": "Caserío la Mesita"}}, {"type": "Feature", "geometry": {"type": "Point", "coordinates": [-91.2335107, 14.8128984]}, "properties": {"Nombre": "Santos María Tzunun Pu de pascual", "Genero": "Mujer", "Comunidad_linguistica": "K'iche", "Municipio_residencia": "Sololá", "Comunidad": "Caserío la Mesita aldea Argueta"}}, {"type": "Feature", "geometry": {"type": "Point", "coordinates": [-91.2301076, 14.8121405]}, "properties": {"Nombre": "Miriam Yolanda Pascual Cotuc de sologui.", "Genero": "Mujer", "Comunidad_linguistica": "K'iche", "Municipio_residencia": "Sololá", "Comunidad": "Caserío la mesita,Argueta"}}, {"type": "Feature", "geometry": {"type": "Point", "coordinates": [-91.2227881, 14.8154368]}, "properties": {"Nombre": "Eunice Elena Alvarez Pacheco de pacheco", "Genero": "Mujer", "Comunidad_linguistica": "K'iche", "Municipio_residencia": "Sololá", "Comunidad": "Centro de Argueta."}}, {"type": "Feature", "geometry": {"type": "Point", "coordinates": [-91.2249409, 14.8157322]}, "properties": {"Nombre": "Santa Felipa pascual Cotuc de Tale", "Genero": "Mujer", "Comunidad_linguistica": "K'iche", "Municipio_residencia": "Sololá", "Comunidad": "Centro de Argueta"}}, {"type": "Feature", "geometry": {"type": "Point", "coordinates": [-91.2232406, 14.7670683]}, "properties": {"Nombre": "Marleny Cecilia Xitamul Torres.", "Genero": "Mujer", "Comunidad_linguistica": "Kaqchikel", "Municipio_residencia": "San José Chacayá", "Comunidad": "Caserío San felipe"}}, {"type": "Feature", "geometry": {"type": "Point", "coordinates": [-91.223187, 14.7668125]}, "properties": {"Nombre": "Graciela Camelia Xitamul Torres.", "Genero": "Mujer", "Comunidad_linguistica": "Kaqchikel", "Municipio_residencia": "San José Chacayá", "Comunidad": "Caserío San felipe"}}, {"type": "Feature", "geometry": {"type": "Point", "coordinates": [-91.2327478, 14.8196378]}, "properties": {"Nombre": "Abilia Rosalina García Solís..", "Genero": "Mujer", "Comunidad_linguistica": "K'iche", "Municipio_residencia": "Sololá", "Comunidad": "La Union"}}, {"type": "Feature", "geometry": {"type": "Point", "coordinates": [-91.2326513, 14.8197226]}, "properties": {"Nombre": "juana Gladys Roxana", "Genero": "Hombre", "Comunidad_linguistica": "K'iche", "Municipio_residencia": "Sololá", "Comunidad": "La union "}}, {"type": "Feature", "geometry": {"type": "Point", "coordinates": [-91.2327371, 14.8196781]}, "properties": {"Nombre": "Victoria Angélica Concepción", "Genero": "Mujer", "Comunidad_linguistica": "K'iche", "Municipio_residencia": "Sololá", "Comunidad": "Caserío la unión Argueta"}}, {"type": "Feature", "geometry": {"type": "Point", "coordinates": [-91.2328045, 14.8194791]}, "properties": {"Nombre": "Filomena Rosales de Matías", "Genero": "Mujer", "Comunidad_linguistica": "K'iche", "Municipio_residencia": "Sololá", "Comunidad": "La union"}}, {"type": "Feature", "geometry": {"type": "Point", "coordinates": [-91.2399253, 14.8237602]}, "properties": {"Nombre": "Felipa Esperanza Guitierrez Say de Alvarez", "Genero": "Mujer", "Comunidad_linguistica": "K'iche", "Municipio_residencia": "Sololá", "Comunidad": "La union"}}, {"type": "Feature", "geometry": {"type": "Point", "coordinates": [-91.2326425, 14.8197121]}, "properties": {"Nombre": "Florinda Luisa López Say", "Genero": "Mujer", "Comunidad_linguistica": "K'iche", "Municipio_residencia": "Sololá", "Comunidad": "Sector auxiliatura argueta solola"}}, {"type": "Feature", "geometry": {"type": "Point", "coordinates": [-91.2326191, 14.8197168]}, "properties": {"Nombre": "Irene perrona López Say de Batz", "Genero": "Mujer", "Comunidad_linguistica": "K'iche", "Municipio_residencia": "Sololá", "Comunidad": "Argueta, caserío la union"}}, {"type": "Feature", "geometry": {"type": "Point", "coordinates": [-91.2265916, 14.8146532]}, "properties": {"Nombre": "Alicia  Alvarez  Pacheco de Garcia", "Genero": "Mujer", "Comunidad_linguistica": "K'iche", "Municipio_residencia": "Sololá", "Comunidad": "Caserío La mesita argueta solola"}}, {"type": "Feature", "geometry": {"type": "Point", "coordinates": [-91.2326344, 14.8197766]}, "properties": {"Nombre": "Paula pascuala Talo Gutiérrez de Velazquez", "Genero": "Mujer", "Comunidad_linguistica": "K'iche", "Municipio_residencia": "Sololá", "Comunidad": "Caserío la Unión Argueta Solola"}}, {"type": "Feature", "geometry": {"type": "Point", "coordinates": [-91.2326889, 14.8195865]}, "properties": {"Nombre": "Josefa Pilo Tax de Par", "Genero": "Mujer", "Comunidad_linguistica": "K'iche", "Municipio_residencia": "Sololá", "Comunidad": "Caserío la Unión Argueta"}}, {"type": "Feature", "geometry": {"type": "Point", "coordinates": [-91.2841895, 14.6942135]}, "properties": {"Nombre": "Ana Maritza Gonzáles Ujpan de Machic", "Genero": "Mujer", "Comunidad_linguistica": "Tz'utujil", "Municipio_residencia": "San Juan La Laguna", "Comunidad": "Cantón Xacal San Juan la laguna."}}, {"type": "Feature", "geometry": {"type": "Point", "coordinates": [-91.2841702, 14.6940782]}, "properties": {"Nombre": "Rosalía Beatriz Yojcom Navichoc", "Genero": "Mujer", "Comunidad_linguistica": "Tz'utujil", "Municipio_residencia": "San Juan La Laguna", "Comunidad": "Cantón tzanjay"}}, {"type": "Feature", "geometry": {"type": "Point", "coordinates": [-91.2841784, 14.6941945]}, "properties": {"Nombre": "María Navichoc Bixcul de Yojcom.", "Genero": "Mujer", "Comunidad_linguistica": "Tz'utujil", "Municipio_residencia": "San Juan La Laguna", "Comunidad": "Cantón Tzanjuyu"}}, {"type": "Feature", "geometry": {"type": "Point", "coordinates": [-91.2842183, 14.6942152]}, "properties": {"Nombre": "María Andrea Gonzáles Ujpan", "Genero": "Mujer", "Comunidad_linguistica": "Tz'utujil", "Municipio_residencia": "San Pablo La Laguna", "Comunidad": "Cantón Xacal"}}, {"type": "Feature", "geometry": {"type": "Point", "coordinates": [-91.2841225, 14.6942201]}, "properties": {"Nombre": "María Cholotio Pantzay de Méndez.", "Genero": "Mujer", "Comunidad_linguistica": "Tz'utujil", "Municipio_residencia": "San Juan La Laguna", "Comunidad": "Cantón Chinimaya"}}, {"type": "Feature", "geometry": {"type": "Point", "coordinates": [-91.284238, 14.6942355]}, "properties": {"Nombre": "Mildred Amarilis Catarina Machic Gonzales", "Genero": "Mujer", "Comunidad_linguistica": "Tz'utujil", "Municipio_residencia": "San Juan La Laguna", "Comunidad": "Canton Xacal.."}}, {"type": "Feature", "geometry": {"type": "Point", "coordinates": [-91.2882445, 14.6936778]}, "properties": {"Nombre": "Aura Marina Temo Mendoza de Quic", "Genero": "Mujer", "Comunidad_linguistica": "Tz'utujil", "Municipio_residencia": "San Juan La Laguna", "Comunidad": "Cantón la cuchilla San Juan la laguna"}}, {"type": "Feature", "geometry": {"type": "Point", "coordinates": [-91.2881815, 14.6937684]}, "properties": {"Nombre": "María Ujpan Vasquez de perez", "Genero": "Mujer", "Comunidad_linguistica": "Tz'utujil", "Municipio_residencia": "San Juan La Laguna", "Comunidad": "Cantón Tzanjay"}}, {"type": "Feature", "geometry": {"type": "Point", "coordinates": [-91.2881207, 14.6936799]}, "properties": {"Nombre": "Cecilia Ujpan Vasquez de mendoza", "Genero": "Mujer", "Comunidad_linguistica": "Tz'utujil", "Municipio_residencia": "San Juan La Laguna", "Comunidad": "Cantón tzanjay"}}, {"type": "Feature", "geometry": {"type": "Point", "coordinates": [-91.2880699, 14.6937259]}, "properties": {"Nombre": "Dominga Quic Ixtamer", "Genero": "Mujer", "Comunidad_linguistica": "Tz'utujil", "Municipio_residencia": "San Juan La Laguna", "Comunidad": "Cantón Tzanjay"}}, {"type": "Feature", "geometry": {"type": "Point", "coordinates": [-91.2881593, 14.6937516]}, "properties": {"Nombre": "Teresa Ixtamer Ujpan de Quic", "Genero": "Mujer", "Comunidad_linguistica": "Tz'utujil", "Municipio_residencia": "San Juan La Laguna", "Comunidad": "Cantón la cuchilla"}}, {"type": "Feature", "geometry": {"type": "Point", "coordinates": [-91.288041, 14.6936915]}, "properties": {"Nombre": "Dominga Ruta Temo Mendoza", "Genero": "Mujer", "Comunidad_linguistica": "Tz'utujil", "Municipio_residencia": "San Juan La Laguna", "Comunidad": "Canto chuitinamit5"}}, {"type": "Feature", "geometry": {"type": "Point", "coordinates": [-91.2881527, 14.6937426]}, "properties": {"Nombre": "María Nohemí Coche Temo ", "Genero": "Mujer", "Comunidad_linguistica": "Tz'utujil", "Municipio_residencia": "San Juan La Laguna", "Comunidad": "Cantón Chuitinamit"}}, {"type": "Feature", "geometry": {"type": "Point", "coordinates": [-91.2880754, 14.6937368]}, "properties": {"Nombre": "Concepción Yojcom pop de Chavajay..", "Genero": "Mujer", "Comunidad_linguistica": "Tz'utujil", "Municipio_residencia": "San Juan La Laguna", "Comunidad": "Canton la cuchilla"}}, {"type": "Feature", "geometry": {"type": "Point", "coordinates": [-91.2881803, 14.6936927]}, "properties": {"Nombre": "Gloria Amelia Mendoza García De perez", "Genero": "Mujer", "Comunidad_linguistica": "Tz'utujil", "Municipio_residencia": "San Juan La Laguna", "Comunidad": "Cantón Chicua"}}, {"type": "Feature", "geometry": {"type": "Point", "coordinates": [-91.2880776, 14.6936209]}, "properties": {"Nombre": "Concha Vicenta Chavajay Yojcom de Chavajay.", "Genero": "Mujer", "Comunidad_linguistica": "Tz'utujil", "Municipio_residencia": "San Juan La Laguna", "Comunidad": "Comunidad la cuchilla"}}, {"type": "Feature", "geometry": {"type": "Point", "coordinates": [-91.2881536, 14.6937617]}, "properties": {"Nombre": "Gricelda Paulina Quic ixtamer", "Genero": "Mujer", "Comunidad_linguistica": "Tz'utujil", "Municipio_residencia": "San Juan La Laguna", "Comunidad": "Cantón la cuchilla"}}, {"type": "Feature", "geometry": {"type": "Point", "coordinates": [-91.2842102, 14.6941388]}, "properties": {"Nombre": "María Pérez mendez", "Genero": "Mujer", "Comunidad_linguistica": "Tz'utujil", "Municipio_residencia": "San Juan La Laguna", "Comunidad": "Cantón central"}}, {"type": "Feature", "geometry": {"type": "Point", "coordinates": [-91.2842897, 14.6941375]}, "properties": {"Nombre": "María Imelda Ujapan Baran", "Genero": "Mujer", "Comunidad_linguistica": "Tz'utujil", "Municipio_residencia": "San Juan La Laguna", "Comunidad": "Cantón panuxti"}}, {"type": "Feature", "geometry": {"type": "Point", "coordinates": [-91.2841705, 14.6941662]}, "properties": {"Nombre": "Juana Sharon Estefany acajabon Quiacain", "Genero": "Mujer", "Comunidad_linguistica": "Tz'utujil", "Municipio_residencia": "San Juan La Laguna", "Comunidad": "Cantón Tzanhuyu"}}, {"type": "Feature", "geometry": {"type": "Point", "coordinates": [-91.2842194, 14.6942071]}, "properties": {"Nombre": "Angela Mendoza Pichilla", "Genero": "Mujer", "Comunidad_linguistica": "Tz'utujil", "Municipio_residencia": "San Juan La Laguna", "Comunidad": "Cantón Xacal."}}, {"type": "Feature", "geometry": {"type": "Point", "coordinates": [-91.2841846, 14.6941714]}, "properties": {"Nombre": "Juana Bixcul Matzar", "Genero": "Mujer", "Comunidad_linguistica": "Tz'utujil", "Municipio_residencia": "San Juan La Laguna", "Comunidad": "Cantón Panuxti"}}, {"type": "Feature", "geometry": {"type": "Point", "coordinates": [-91.2842343, 14.6942185]}, "properties": {"Nombre": "Santa Teresa Hernández Mendoza de Hernandez", "Genero": "Mujer", "Comunidad_linguistica": "Tz'utujil", "Municipio_residencia": "San Juan La Laguna", "Comunidad": "Cantón Xacal"}}]}