{"type": "FeatureCollection", "features": [{"type": "Feature", "geometry": {"type": "Point", "coordinates": [-91.18491477799995, 14.834862110000074]}, "properties": {"FID": 0, "OID_": 0, "Name": "Comité de Agua", "FolderPath": "Grupos Comunitarios .kmz/Grupos Comunitarios", "SymbolID": 0, "AltMode": -1, "Base": 0, "Snippet": " ", "PopupInfo": " ", "HasLabel": -1, "LabelID": 0}, "id": 0}, {"type": "Feature", "geometry": {"type": "Point", "coordinates": [-91.22650028199996, 14.816177258000039]}, "properties": {"FID": 1, "OID_": 0, "Name": "Asociación de Mujeres Xabaj", "FolderPath": "Grupos Comunitarios .kmz/Grupos Comunitarios", "SymbolID": 0, "AltMode": -1, "Base": 0, "Snippet": " ", "PopupInfo": " ", "HasLabel": -1, "LabelID": 0}, "id": 1}, {"type": "Feature", "geometry": {"type": "Point", "coordinates": [-91.27966657999997, 14.793852435000076]}, "properties": {"FID": 2, "OID_": 0, "Name": "Consejo de Microcuencas del Rio Novilleronovillero", "FolderPath": "Grupos Comunitarios .kmz/Grupos Comunitarios", "SymbolID": 0, "AltMode": -1, "Base": 0, "Snippet": " ", "PopupInfo": " ", "HasLabel": -1, "LabelID": 0}, "id": 2}, {"type": "Feature", "geometry": {"type": "Point", "coordinates": [-91.23037099699997, 14.805649599000049]}, "properties": {"FID": 3, "OID_": 0, "Name": "Guarda Bosques", "FolderPath": "Grupos Comunitarios .kmz/Grupos Comunitarios", "SymbolID": 0, "AltMode": -1, "Base": 0, "Snippet": " ", "PopupInfo": " ", "HasLabel": -1, "LabelID": 0}, "id": 3}, {"type": "Feature", "geometry": {"type": "Point", "coordinates": [-91.26718597399997, 14.852689208000072]}, "properties": {"FID": 4, "OID_": 0, "Name": "Alcaldía Comunitaria Pamezebal Rancho de Teja", "FolderPath": "Grupos Comunitarios .kmz/Grupos Comunitarios", "SymbolID": 0, "AltMode": -1, "Base": 0, "Snippet": " ", "PopupInfo": " ", "HasLabel": -1, "LabelID": 0}, "id": 4}]}