{"type": "FeatureCollection", "features": [{"type": "Feature", "geometry": {"type": "Point", "coordinates": [-91.267243, 14.852019]}, "properties": {"FID": 0, "Nombre": "Rancho de Teja", "x": -91.267243, "y": 14.852019, "Tipo": "Pozo", "Colifor1": 14, "Ecoli1": 6.8, "PO3": 1.4, "coli_abr": 4.5, "Ecoli_abr": 1.8, "PO3_abr": 0.063, "NO3_abr": 32.37}}, {"type": "Feature", "geometry": {"type": "Point", "coordinates": [-91.291169, 14.784379]}, "properties": {"FID": 1, "Nombre": "Pahaj", "x": -91.291169, "y": 14.784379, "Tipo": "Pozo", "Colifor1": 130, "Ecoli1": 1.8, "PO3": 0.183, "coli_abr": 1.8, "Ecoli_abr": 1.8, "PO3_abr": 0.202, "NO3_abr": 5.44}}, {"type": "Feature", "geometry": {"type": "Point", "coordinates": [-91.160941, 14.792088]}, "properties": {"FID": 2, "Nombre": "Chuarrixche", "x": -91.160941, "y": 14.792088, "Tipo": "Pozo", "Colifor1": 34, "Ecoli1": 7.8, "PO3": 0.15, "coli_abr": 920, "Ecoli_abr": 9.3, "PO3_abr": 1.3, "NO3_abr": 16.9}}, {"type": "Feature", "geometry": {"type": "Point", "coordinates": [-91.185887, 14.768342]}, "properties": {"FID": 3, "Nombre": "Xamba", "x": -91.185887, "y": 14.768342, "Tipo": "Pozo", "Colifor1": 1.8, "Ecoli1": 1.8, "PO3": 0.425, "coli_abr": 1.8, "Ecoli_abr": 1.8, "PO3_abr": 1.3, "NO3_abr": 0.078}}, {"type": "Feature", "geometry": {"type": "Point", "coordinates": [-91.176977, 14.748218]}, "properties": {"FID": 4, "Nombre": "Jaibal", "x": -91.176977, "y": 14.748218, "Tipo": "Nacimiento", "Colifor1": 170, "Ecoli1": 20, "PO3": 0.045, "coli_abr": 1.8, "Ecoli_abr": 1.8, "PO3_abr": 0.139, "NO3_abr": 0.004}}, {"type": "Feature", "geometry": {"type": "Point", "coordinates": [-91.221621, 14.759536]}, "properties": {"FID": 5, "Nombre": "San Felipe", "x": -91.221621, "y": 14.759536, "Tipo": "Pozo", "Colifor1": 1.8, "Ecoli1": 1.8, "PO3": 9.7, "coli_abr": 1.8, "Ecoli_abr": 1.8, "PO3_abr": 0.015, "NO3_abr": 0.023}}]}