{"type": "FeatureCollection", "features": [{"type": "Feature", "geometry": {"type": "Point", "coordinates": [-91.185887, 14.768342]}, "properties": {"FID": 0, "Nombre": "Xamba", "x": -91.185887, "y": 14.768342, "Tipo": "Pozo", "Colifor1": 1.8, "Ecoli1": 1.8, "PO3": 0.425, "coli_abr": 1.8, "Ecoli_abr": 1.8, "PO3_abr": 1.3, "NO3_abr": 0.078}}, {"type": "Feature", "geometry": {"type": "Point", "coordinates": [-91.176977, 14.748218]}, "properties": {"FID": 1, "Nombre": "Jaibal", "x": -91.176977, "y": 14.748218, "Tipo": "Nacimiento", "Colifor1": 170, "Ecoli1": 20, "PO3": 0.045, "coli_abr": 1.8, "Ecoli_abr": 1.8, "PO3_abr": 0.139, "NO3_abr": 0.004}}, {"type": "Feature", "geometry": {"type": "Point", "coordinates": [-91.221621, 14.759536]}, "properties": {"FID": 2, "Nombre": "San Felipe", "x": -91.221621, "y": 14.759536, "Tipo": "Pozo", "Colifor1": 1.8, "Ecoli1": 1.8, "PO3": 9.7, "coli_abr": 1.8, "Ecoli_abr": 1.8, "PO3_abr": 0.015, "NO3_abr": 0.023}}]}