{"type": "FeatureCollection", "features": [{"type": "Feature", "geometry": {"type": "Point", "coordinates": [-91.1144, 14.75005]}, "properties": {"Comunidad": "Panimatzalam", "Ubicacion": "Panimatzalam, San Andrés Semetabaj", "Productor": "Manuel", "Rendimientos": {"2023": {"qq": 6.5, "kgha": 4123}, "2024": {"qq": 3.21, "kgha": 2037}, "2025": {"qq": 9.24, "kgha": 5858}}}}, {"type": "Feature", "geometry": {"type": "Point", "coordinates": [-91.19497, 14.82548]}, "properties": {"Comunidad": "Chaquijya", "Ubicacion": "Chaquijya, Sololá", "Productor": "Saloj", "Rendimientos": {"2023": {"qq": 8.07, "kgha": 5116}, "2024": {"qq": 6.08, "kgha": 3854}, "2025": {"qq": 7.74, "kgha": 4909}}}}, {"type": "Feature", "geometry": {"type": "Point", "coordinates": [-91.234001, 14.743844]}, "properties": {"Comunidad": "Chuitzamchaj", "Ubicacion": "Chuitzamchaj, Santa Cruz la Laguna", "Productor": "Santos", "Rendimientos": {"2023": {"qq": 3.72, "kgha": 2356}, "2024": {"qq": 0.45, "kgha": 93.9}, "2025": null}}}, {"type": "Feature", "geometry": {"type": "Point", "coordinates": [-91.278933, 14.810655]}, "properties": {"Comunidad": "Xesampaul", "Ubicacion": "Xesampaul, Santa Lucía Utatlán", "Productor": "Zavala", "Rendimientos": {"2023": {"qq": 4.19, "kgha": 2653}, "2024": {"qq": 4.03, "kgha": 2557}, "2025": {"qq": 5.57, "kgha": 3530}}}}, {"type": "Feature", "geometry": {"type": "Point", "coordinates": [-91.15902, 14.81918]}, "properties": {"Comunidad": "Chuacruz", "Ubicacion": "Chuacruz, Sololá", "Productor": "Lucas", "Rendimientos": {"2023": {"qq": 6.45, "kgha": 4088}, "2024": {"qq": 5.03, "kgha": 3186}, "2025": {"qq": 5.0, "kgha": 3167}}}}]}