{"type": "FeatureCollection", "features": [{"type": "Feature", "geometry": {"type": "Point", "coordinates": [-91.31806076499998, 14.671812578000072]}, "properties": {"Nombre": "Panyebar"}}, {"type": "Feature", "geometry": {"type": "Point", "coordinates": [-91.24068237099999, 14.616352907000078]}, "properties": {"Nombre": "CoAtitlan"}}, {"type": "Feature", "geometry": {"type": "Point", "coordinates": [-91.12868853460495, 14.531321672795762]}, "properties": {"Nombre": "Quixaya"}}, {"type": "Feature", "geometry": {"type": "Point", "coordinates": [-91.30916809054261, 14.683398737322657]}, "properties": {"Nombre": "Palestina"}}]}