{"type": "FeatureCollection", "features": [{"type": "Feature", "geometry": {"type": "Point", "coordinates": [-91.27444, 14.878448]}, "properties": {"Nombre": "Rancho de Teja", "Altitud": 3237, "Ecosistema": "Coníferas", "Categoria": "Reserva Natural Voluntaria", "TempReferencia": 9, "TempUltima": null, "FechaTemp": null, "TempMin": null, "TempMax": null, "AvesEspecies": 46, "AvesIndividuos": 181, "AvesRegistros": 86, "AniosAves": "2023, 2024, 2025", "ArbolesMedidos": 68, "ArbolesEspecies": 9, "ArbolesEspeciesConfirmadas": 8, "DAPPromedio": 19.5, "CrecimientoPromedio": 0.53}}, {"type": "Feature", "geometry": {"type": "Point", "coordinates": [-91.185721, 14.622495]}, "properties": {"Nombre": "Volcán- Tolimán", "Altitud": 3122, "Ecosistema": "Latifoliado", "Categoria": "Parque Regional Municipal", "TempReferencia": 11, "TempUltima": 9.59, "FechaTemp": "2026-07-31", "TempMin": 9.01, "TempMax": 11.64, "AvesEspecies": 35, "AvesIndividuos": 150, "AvesRegistros": 70, "AniosAves": "2023, 2024, 2025", "ArbolesMedidos": 94, "ArbolesEspecies": 7, "ArbolesEspeciesConfirmadas": 6, "DAPPromedio": 22.8, "CrecimientoPromedio": 1.31}}, {"type": "Feature", "geometry": {"type": "Point", "coordinates": [-91.270319, 14.828336]}, "properties": {"Nombre": "Payajut", "Altitud": 2797, "Ecosistema": "Mixto", "Categoria": "Parque Regional Municipal", "TempReferencia": 12, "TempUltima": 12.12, "FechaTemp": "2026-06-02", "TempMin": 11.73, "TempMax": 12.51, "AvesEspecies": 62, "AvesIndividuos": 288, "AvesRegistros": 139, "AniosAves": "2023, 2024, 2025", "ArbolesMedidos": 74, "ArbolesEspecies": 11, "ArbolesEspeciesConfirmadas": 8, "DAPPromedio": 13.5, "CrecimientoPromedio": 0.26}}, {"type": "Feature", "geometry": {"type": "Point", "coordinates": [-91.275908, 14.749591]}, "properties": {"Nombre": "Cerro Papa", "Altitud": 2443, "Ecosistema": "Mixto", "Categoria": "Parque Regional Municipal", "TempReferencia": 13, "TempUltima": 12.64, "FechaTemp": "2026-05-28", "TempMin": 11.44, "TempMax": 14.54, "AvesEspecies": 80, "AvesIndividuos": 320, "AvesRegistros": 167, "AniosAves": "2023, 2024, 2025", "ArbolesMedidos": 103, "ArbolesEspecies": 21, "ArbolesEspeciesConfirmadas": 18, "DAPPromedio": 19.8, "CrecimientoPromedio": 0.67}}, {"type": "Feature", "geometry": {"type": "Point", "coordinates": [-91.341313, 14.708988]}, "properties": {"Nombre": "Xiquichoy", "Altitud": 2073, "Ecosistema": "Latifoliado", "Categoria": "Parcela Familiar", "TempReferencia": 15, "TempUltima": 22.72, "FechaTemp": "2026-06-11", "TempMin": 21.73, "TempMax": 24.3, "AvesEspecies": 75, "AvesIndividuos": 268, "AvesRegistros": 157, "AniosAves": "2023, 2024, 2025", "ArbolesMedidos": 114, "ArbolesEspecies": 35, "ArbolesEspeciesConfirmadas": 18, "DAPPromedio": 14.9, "CrecimientoPromedio": 0.28}}, {"type": "Feature", "geometry": {"type": "Point", "coordinates": [-91.140605, 14.750469]}, "properties": {"Nombre": "Lomas de Atitlán", "Altitud": 1814, "Ecosistema": "Seco", "Categoria": "Reserva Natural Voluntaria", "TempReferencia": 17, "TempUltima": 16.99, "FechaTemp": "2025-10-31", "TempMin": 14.08, "TempMax": 20.88, "AvesEspecies": 79, "AvesIndividuos": 304, "AvesRegistros": 136, "AniosAves": "2023, 2024, 2025", "ArbolesMedidos": 143, "ArbolesEspecies": 18, "ArbolesEspeciesConfirmadas": 17, "DAPPromedio": 12.6, "CrecimientoPromedio": 0.27}}, {"type": "Feature", "geometry": {"type": "Point", "coordinates": [-91.286349, 14.598962]}, "properties": {"Nombre": "Rey Tepepul", "Altitud": 1608, "Ecosistema": "Latifoliado", "Categoria": "Parque Regional Municipal", "TempReferencia": 19, "TempUltima": 17.57, "FechaTemp": "2026-06-18", "TempMin": 16.84, "TempMax": 18.66, "AvesEspecies": 83, "AvesIndividuos": 260, "AvesRegistros": 144, "AniosAves": "2023, 2024, 2025", "ArbolesMedidos": 83, "ArbolesEspecies": 25, "ArbolesEspeciesConfirmadas": 15, "DAPPromedio": 17.6, "CrecimientoPromedio": 0.33}}, {"type": "Feature", "geometry": {"type": "Point", "coordinates": [-91.114595, 14.659261]}, "properties": {"Nombre": "Chicamán", "Altitud": 1699, "Ecosistema": "Seco", "Categoria": "Reserva Natural Voluntaria", "TempReferencia": 18, "TempUltima": null, "FechaTemp": null, "TempMin": null, "TempMax": null, "AvesEspecies": 66, "AvesIndividuos": 366, "AvesRegistros": 146, "AniosAves": "2023, 2024, 2025", "ArbolesMedidos": 95, "ArbolesEspecies": 27, "ArbolesEspeciesConfirmadas": 19, "DAPPromedio": 15.1, "CrecimientoPromedio": null}}, {"type": "Feature", "geometry": {"type": "Point", "coordinates": [-91.19319, 14.5494]}, "properties": {"Nombre": "Refugio del Quetzal", "Altitud": 1621, "Ecosistema": "Latifoliado", "Categoria": "Reserva Natural Voluntaria", "TempReferencia": 16, "TempUltima": null, "FechaTemp": null, "TempMin": null, "TempMax": null, "AvesEspecies": 76, "AvesIndividuos": 360, "AvesRegistros": 159, "AniosAves": "2023, 2024, 2025", "ArbolesMedidos": 105, "ArbolesEspecies": 28, "ArbolesEspeciesConfirmadas": 10, "DAPPromedio": 16.6, "CrecimientoPromedio": 0.62}}, {"type": "Feature", "geometry": {"type": "Point", "coordinates": [-91.136136, 14.510189]}, "properties": {"Nombre": "Los Tarrales", "Altitud": 689, "Ecosistema": "Latifoliado", "Categoria": "Reserva Natural Voluntaria", "TempReferencia": 23, "TempUltima": 21.62, "FechaTemp": "2025-11-13", "TempMin": 20.81, "TempMax": 24.18, "AvesEspecies": 126, "AvesIndividuos": 478, "AvesRegistros": 250, "AniosAves": "2023, 2024, 2025", "ArbolesMedidos": 56, "ArbolesEspecies": 30, "ArbolesEspeciesConfirmadas": 13, "DAPPromedio": 19.7, "CrecimientoPromedio": 0.8}}]}