{"type": "FeatureCollection", "features": [{"type": "Feature", "geometry": {"type": "Point", "coordinates": [-91.27912387412564, 14.810731066974057]}, "properties": {"Nombre": "Xesampual", "Instrumento": "Pluviómetro + Termómetro HOBO"}}, {"type": "Feature", "geometry": {"type": "Point", "coordinates": [-91.17523703699999, 14.844483957000033]}, "properties": {"Nombre": "El Progreso Xajaxac", "Instrumento": "Pluviómetro + Termómetro HOBO"}}, {"type": "Feature", "geometry": {"type": "Point", "coordinates": [-91.21208076834935, 14.76994100930615]}, "properties": {"Nombre": "San José Chacaya", "Instrumento": "Pluviómetro + Termómetro HOBO"}}, {"type": "Feature", "geometry": {"type": "Point", "coordinates": [-91.22421844899998, 14.80002889900004]}, "properties": {"Nombre": "Chuquel", "Instrumento": "Pluviómetro + Termómetro HOBO"}}, {"type": "Feature", "geometry": {"type": "Point", "coordinates": [-91.19533939015511, 14.825592257251685]}, "properties": {"Nombre": "Chaquiya", "Instrumento": "Pluviómetro + Termómetro HOBO"}}, {"type": "Feature", "geometry": {"type": "Point", "coordinates": [-91.2913529581897, 14.785684852276042]}, "properties": {"Nombre": "Pahaj", "Instrumento": "Pluviómetro + Termómetro HOBO"}}, {"type": "Feature", "geometry": {"type": "Point", "coordinates": [-91.30946220210315, 14.717358664447705]}, "properties": {"Nombre": "Santa Maria Visitación", "Instrumento": "Pluviómetro + Termómetro HOBO"}}, {"type": "Feature", "geometry": {"type": "Point", "coordinates": [-91.32136018088586, 14.695774408531925]}, "properties": {"Nombre": "Paquip", "Instrumento": "Pluviómetro + Termómetro HOBO"}}, {"type": "Feature", "geometry": {"type": "Point", "coordinates": [-91.34299694799995, 14.657884365000028]}, "properties": {"Nombre": "Pasajquim", "Instrumento": "Pluviómetro + Termómetro HOBO"}}, {"type": "Feature", "geometry": {"type": "Point", "coordinates": [-91.29967894299995, 14.759132092000073]}, "properties": {"Nombre": "Pamezabal", "Instrumento": "Pluviómetro + Termómetro HOBO"}}, {"type": "Feature", "geometry": {"type": "Point", "coordinates": [-91.35632661999995, 14.853737342000047]}, "properties": {"Nombre": "Nueva Santa Catarina Ixtahucan", "Instrumento": "Pluviómetro + Termómetro HOBO"}}, {"type": "Feature", "geometry": {"type": "Point", "coordinates": [-91.11098268298313, 14.75339384121335]}, "properties": {"Nombre": "Panimatzalam", "Instrumento": "Pluviómetro + Termómetro HOBO"}}, {"type": "Feature", "geometry": {"type": "Point", "coordinates": [-91.30916809054261, 14.683398737322657]}, "properties": {"Nombre": "Palestina, San Juan la Laguna", "Instrumento": "Pluviómetro + Termómetro HOBO"}}, {"type": "Feature", "geometry": {"type": "Point", "coordinates": [-91.12847069899999, 14.531306579000045]}, "properties": {"Nombre": "Quixaya, San Lucas Tolimán", "Instrumento": "Pluviómetro + Termómetro HOBO"}}, {"type": "Feature", "geometry": {"type": "Point", "coordinates": [-91.2272552614954, 14.743525272231894]}, "properties": {"Nombre": "Chuitzanchaj - CEDRACC", "Instrumento": "Pluviómetro"}}, {"type": "Feature", "geometry": {"type": "Point", "coordinates": [-91.13423766313728, 14.769172265438298]}, "properties": {"Nombre": "Finca Santa Victoria", "Instrumento": "Pluviómetro + Termómetro HOBO"}}, {"type": "Feature", "geometry": {"type": "Point", "coordinates": [-91.13573893693685, 14.601965053358402]}, "properties": {"Nombre": "Pampojila", "Instrumento": "Pluviómetro + Termómetro HOBO"}}]}