{"type":"FeatureCollection","features":[{"type":"Feature","geometry":{"type":"MultiPolygon","coordinates":[[[[-91.25292080933723,14.888356872974295],[-91.25379176403372,14.88821503858503],[-91.2546985034588,14.888221944130661],[-91.25655386923127,14.887929326502192],[-91.25875676269459,14.888069990100716],[-91.2584288369824,14.887068858878315],[-91.2579175396604,14.886082760910314],[-91.25649144448309,14.884902123183084],[-91.25574202304354,14.883587541821482],[-91.25557113831645,14.883127136516743],[-91.25563609736147,14.882336691066175],[-91.25543055586832,14.881645915521098],[-91.25626330196812,14.880431430842007],[-91.25626696346595,14.87997593811249],[-91.25601449826709,14.879601320176771],[-91.25598090819324,14.87848296990834],[-91.25623936485684,14.878112237195129],[-91.25650214528197,14.877203193387068],[-91.25693589611191,14.876212628611338],[-91.25767897777557,14.873816437373513],[-91.25777875539544,14.871995113228351],[-91.25761209843208,14.870286890855285],[-91.25770529072433,14.868935681832358],[-91.25714309070415,14.86631698240766],[-91.25706791471178,14.865074082779312],[-91.25758013389647,14.864912327066037],[-91.25868739485124,14.864879316935003],[-91.2603628893093,14.864112823345799],[-91.2609705088298,14.86361691559454],[-91.26178150091896,14.863194416007042],[-91.26244850857033,14.863085729358753],[-91.26321285332448,14.86333998033496],[-91.26414915172074,14.863388472190081],[-91.26478908697445,14.863227664494852],[-91.26539140652234,14.862445405425445],[-91.26616831453683,14.861126116652517],[-91.26638283502318,14.86092067921113],[-91.26560077495056,14.859057694825417],[-91.26605359750968,14.857870837942157],[-91.26730429328343,14.85749050658681],[-91.26811384135546,14.857413790579095],[-91.2685497998789,14.856133329203235],[-91.26919531772533,14.855268559076734],[-91.27005237189395,14.85457102296802],[-91.27078702718593,14.853829765642574],[-91.27066552241249,14.85242225359105],[-91.2709048617252,14.851261119463635],[-91.27146059401714,14.850469023471074],[-91.27206806247052,14.84994839438382],[-91.27272718111344,14.849674537315488],[-91.27444473837696,14.84830953559496],[-91.27534202092174,14.847902156854472],[-91.27593243584553,14.848610581740314],[-91.27669905014191,14.848574919885708],[-91.27731884128136,14.848671265539217],[-91.27785011967907,14.84837649269413],[-91.27848508251745,14.848222813951327],[-91.27891440544718,14.848384466529271],[-91.27950350778472,14.849034286898805],[-91.28031369665638,14.84909893918446],[-91.28086942040623,14.84881321758285],[-91.2813432710107,14.848112765495028],[-91.2818986643705,14.8478684488745],[-91.28317609554709,14.846626419024874],[-91.28304640248189,14.845861326058008],[-91.28304231307287,14.844725385029117],[-91.28444925755379,14.842959529709256],[-91.28505308015127,14.841970156423324],[-91.28571631773843,14.839999580541113],[-91.28611955932016,14.839183278344711],[-91.2866760091387,14.838613398202995],[-91.28678850482886,14.83784193412501],[-91.28782190634385,14.83635881153776],[-91.28816408802963,14.836154300973519],[-91.2880919817118,14.834497296882663],[-91.28865254274262,14.833590411296989],[-91.28899927662778,14.832806169867247],[-91.28922383643076,14.831317018764462],[-91.28957544704693,14.829911635492167],[-91.29048010680202,14.828551771734857],[-91.29095582909798,14.82760283607946],[-91.29079400958037,14.826524929483808],[-91.29101367137373,14.82565691317853],[-91.29162293134691,14.82396355473362],[-91.29184745981196,14.822474397108472],[-91.29169732731833,14.819905753447308],[-91.29182957075274,14.819326967761722],[-91.29230753474756,14.818088160422],[-91.29261101219075,14.817386412038688],[-91.29394416699792,14.815656996736324],[-91.29454494292092,14.81504026877257],[-91.29557849357569,14.813515683038615],[-91.29622247044426,14.812816445047238],[-91.29721664798876,14.812277308614304],[-91.2970860626118,14.81124918138989],[-91.29748394216611,14.809016686860067],[-91.29719609739263,14.80806127492569],[-91.29648715372582,14.807143339123645],[-91.29645906567946,14.8064025956843],[-91.29661767042232,14.805820756518479],[-91.29612377371748,14.804946767705959],[-91.29586997094152,14.803454746704107],[-91.29545446516548,14.802380830509096],[-91.2956943622833,14.798691076294695],[-91.29561603124915,14.797820847109842],[-91.29566506332029,14.796992970386597],[-91.29509610701535,14.796331863765365],[-91.29427864996556,14.794663648142258],[-91.29411821447604,14.793488248914858],[-91.29413604391323,14.793103980408024],[-91.29374056815944,14.79271330589793],[-91.29343094104243,14.792108627792754],[-91.29337208908416,14.790847044775985],[-91.29389284729298,14.789567127997747],[-91.29455949383178,14.788369664900907],[-91.29357106273399,14.787014856526332],[-91.29255248687791,14.786092304839972],[-91.29205323478381,14.78532949758798],[-91.29163703547741,14.784125470479252],[-91.29134883788899,14.782880977468972],[-91.29068020850457,14.781302374325376],[-91.28919941485682,14.780173279627727],[-91.28895249616002,14.779094738960067],[-91.28921854578304,14.777730120805415],[-91.29090745152327,14.774015561141043],[-91.29108577502285,14.772981583428287],[-91.29105228207386,14.771821800220488],[-91.29081151234402,14.769956480701874],[-91.2904791546933,14.768918722265687],[-91.29053595706182,14.767097018408627],[-91.29083935052411,14.76639526022539],[-91.29199352986394,14.76574120782347],[-91.29384157508645,14.763223993207008],[-91.29321320153906,14.762147379300437],[-91.29304653590273,14.761690617528547],[-91.2929250118504,14.760902890363857],[-91.29220740181358,14.7601521708088],[-91.29170321266741,14.759320203677433],[-91.29149852510388,14.758283390334132],[-91.29150757838309,14.757123922627224],[-91.29073802477451,14.753702051032388],[-91.29026997334134,14.752557657067088],[-91.29035454918933,14.751272465033324],[-91.29028498165408,14.750199079743483],[-91.29058553397442,14.750059084128377],[-91.2905631904265,14.749710418007252],[-91.29066990222681,14.749540989025126],[-91.28930553817403,14.749306460215418],[-91.28880759116205,14.749349388975753],[-91.2881210601733,14.750719661793573],[-91.28747832300995,14.751550375215526],[-91.28709215562813,14.75238261357567],[-91.28657726981919,14.75304889038185],[-91.28611355391241,14.753460159991947],[-91.28525886357897,14.75352869862683],[-91.28479900453108,14.753644947959907],[-91.28435555360697,14.753867553780902],[-91.28314077981987,14.754084399573491],[-91.28269347758803,14.754030419203945],[-91.28229569657965,14.75380957213505],[-91.28184852831757,14.753817321596943],[-91.28143137846344,14.754109023422249],[-91.281235890784,14.754475058085513],[-91.28101028720953,14.755339065885495],[-91.28067234351329,14.755802235567389],[-91.27646737825295,14.757510327981425],[-91.27498258070584,14.75730652844167],[-91.27359789077562,14.757234395799385],[-91.27193721622454,14.756698139133931],[-91.27016678724476,14.75671385197051],[-91.26931793708236,14.756599007237467],[-91.26740643249892,14.755495369259227],[-91.2666862884127,14.755316674818339],[-91.26558785285829,14.755542236951273],[-91.26356673476504,14.756379617210651],[-91.2626899004927,14.756137241177973],[-91.26182239688698,14.75612251784059],[-91.2609683417732,14.756284064844499],[-91.26015735210838,14.756575472036767],[-91.25921787133599,14.756744559986846],[-91.25782925380642,14.756604674469687],[-91.25654302413103,14.756386100575412],[-91.25573063432283,14.756158145688039],[-91.25407892068732,14.756154588446991],[-91.25288133706145,14.756350144623116],[-91.25039943467749,14.75633907000363],[-91.24961424553014,14.756164525154384],[-91.2487653541124,14.755531374760329],[-91.24786260148974,14.75547897928492],[-91.24563219492683,14.755039288694075],[-91.24450268184037,14.755025401962218],[-91.2435700618951,14.75490847978661],[-91.24281929846089,14.75463487733993],[-91.24175132322019,14.75387731328998],[-91.23984913090023,14.753857328017702],[-91.23914739381985,14.753456562502322],[-91.23839761077929,14.752902916283992],[-91.2371764286449,14.752423813981427],[-91.23638521981881,14.75189908661147],[-91.23457948378824,14.751207709771377],[-91.23377863720405,14.75106867165375],[-91.23234690857564,14.751599643761065],[-91.2318490259232,14.751902895531991],[-91.2316774046116,14.75214383871858],[-91.23155417682449,14.75247614395821],[-91.23151526992234,14.753307432972289],[-91.23117672543303,14.754737164891143],[-91.23114682263157,14.756967527401558],[-91.23103686623912,14.757399966636251],[-91.23092791708721,14.7574544700478],[-91.22905757773214,14.757457211694037],[-91.22806002263063,14.757845331134428],[-91.22624774264273,14.758072391160615],[-91.22461985294998,14.758463448281786],[-91.22416011411342,14.758440362420103],[-91.22331728271779,14.758254382586825],[-91.22241606230642,14.757668856220207],[-91.22123134796736,14.757602435432723],[-91.21988615602297,14.75812583753841],[-91.21871763894953,14.758471309123337],[-91.21746271340282,14.759155673353842],[-91.21672155095877,14.759272838934645],[-91.21500028014884,14.75926598189487],[-91.21472323252803,14.759189307540796],[-91.21339803693124,14.758234094076997],[-91.21270494620639,14.758117084703736],[-91.21200924837659,14.75769175929657],[-91.21109172979142,14.757652184852496],[-91.21084296022065,14.757569282235668],[-91.21064649873787,14.75743824823991],[-91.21022741281536,14.756864664114527],[-91.21009537942618,14.756816937157133],[-91.20945456558456,14.756789835115178],[-91.20843029206242,14.757059161753206],[-91.20777113132617,14.756827034303392],[-91.20750128963606,14.756823832359782],[-91.20700438373139,14.75696203386525],[-91.20651565783409,14.757332708890972],[-91.20520976897795,14.757400272279275],[-91.20319390737637,14.75820106916807],[-91.20229658667262,14.758183511054504],[-91.20103262411843,14.757403133228578],[-91.20049802408265,14.756677494994122],[-91.1993433125452,14.755825752231518],[-91.19832079859837,14.754899947114195],[-91.19719670306797,14.754243202124652],[-91.19678466334639,14.753587258764213],[-91.19657187932324,14.752172911783541],[-91.195881077447,14.751069988342728],[-91.1952028481707,14.750456085596769],[-91.19272355329332,14.749509897235374],[-91.19219161079162,14.749386514741628],[-91.19105412693348,14.748480823554942],[-91.19001592964968,14.748185597375581],[-91.18797173244917,14.7474332746813],[-91.18767638852295,14.747239027592228],[-91.1868726195523,14.746425996108457],[-91.18609690077365,14.74515873925487],[-91.1857944984194,14.742227998104683],[-91.1857478747657,14.742107396499794],[-91.18540610093225,14.741886877143626],[-91.18521255136235,14.74155334080415],[-91.18499072987483,14.74147481763561],[-91.18462343279339,14.74117836785334],[-91.18385789848988,14.740836380716743],[-91.18316516860523,14.74073421094131],[-91.18166334496674,14.74021724857263],[-91.18119831375945,14.739906573991743],[-91.18070909651416,14.739807072905482],[-91.18053466474605,14.73969708970605],[-91.17998417804854,14.739673007655671],[-91.17964802731458,14.73951742475764],[-91.17904566531148,14.739708183378566],[-91.17887264472492,14.7396958805754],[-91.17832457825203,14.740106987429341],[-91.1779117853594,14.740196144979986],[-91.17774205215602,14.740144338192902],[-91.17765806537555,14.7402527975889],[-91.17737076987784,14.740239211297284],[-91.17709691037366,14.740375279495666],[-91.17703514695714,14.740479163487715],[-91.17678157207209,14.740548480134239],[-91.17662394390608,14.740850096042646],[-91.17628573896009,14.741154983911056],[-91.17561598208667,14.741451213101554],[-91.17499859790603,14.742039778107928],[-91.17475683436346,14.742444495940374],[-91.17473982896266,14.74410190719215],[-91.17466825331604,14.744532357085584],[-91.17373691159992,14.745570680358515],[-91.17340720448308,14.746439138962609],[-91.1729344139954,14.747259616252869],[-91.17229129094102,14.749115747080623],[-91.17173453522453,14.7501425591909],[-91.17129099162044,14.750658708054626],[-91.17105341389961,14.750825500492267],[-91.17020760970733,14.751132789166517],[-91.16984890718614,14.751821020966489],[-91.16993003503957,14.752722921729163],[-91.17033679090079,14.753418475201576],[-91.17098339777831,14.754147059378452],[-91.17165750186427,14.757225464864295],[-91.17165151672255,14.757463372807392],[-91.17111573311824,14.758761845397885],[-91.17101171485082,14.760032126257764],[-91.17109604511352,14.760271614825943],[-91.17151155644089,14.760811603340157],[-91.17196761862111,14.76110792989448],[-91.17276354862345,14.761250943505564],[-91.17315103275203,14.761611491091637],[-91.17362406956386,14.763300493615162],[-91.17454230877433,14.76392629240494],[-91.17537136844224,14.76561449605574],[-91.17602105820707,14.766636021036106],[-91.17665127168657,14.767369349993537],[-91.17725519682499,14.76784969032059],[-91.17782811373718,14.768669190758622],[-91.1798446223049,14.772231015541424],[-91.18055689157057,14.773636615307334],[-91.18108618237618,14.775981833403614],[-91.18108558447625,14.778247321438258],[-91.18149915693067,14.780143630927023],[-91.1820074874702,14.78148165040757],[-91.18239692275827,14.782260541100785],[-91.18385551779582,14.784528863459718],[-91.18448927365985,14.785355146982436],[-91.18462035043444,14.787542241857341],[-91.18485177153468,14.789169555884818],[-91.18440775265313,14.790783387400076],[-91.18407573562948,14.791198961442944],[-91.18366641508364,14.791613106245638],[-91.18269970918517,14.792018949967902],[-91.1804528805762,14.793339165262536],[-91.17993655066809,14.793965040743803],[-91.17952919293475,14.795137362804645],[-91.17939969823793,14.798738909891348],[-91.17895441230046,14.802416220174726],[-91.17886692540495,14.803900734662065],[-91.17886763681017,14.80493002891664],[-91.17937116954312,14.80877421709549],[-91.17935309640565,14.810855691031659],[-91.17903727179231,14.811741585017996],[-91.1788230054756,14.811904190280066],[-91.17816553989033,14.812081974372393],[-91.17682158561641,14.812109046884055],[-91.1755037364475,14.812276261024477],[-91.174457274142,14.813816027024576],[-91.17349129744532,14.814324477496168],[-91.17279786231624,14.81480431689405],[-91.17235119667826,14.816058079538225],[-91.17235588190277,14.818651682835887],[-91.17273117676793,14.819628008059805],[-91.1732528436448,14.820247939169244],[-91.17360598066979,14.820422562334008],[-91.1746909575065,14.820496095080337],[-91.17579963865076,14.820714731957237],[-91.1766774235211,14.821441793350399],[-91.1768559139762,14.821948008259541],[-91.17683669011853,14.82209597747456],[-91.17650781305201,14.822673404391558],[-91.17554660144647,14.823147344721091],[-91.17446034052686,14.824871092521864],[-91.17440022894492,14.82584262523097],[-91.17476503583912,14.827688532700842],[-91.17477044618234,14.828358543370468],[-91.17423919822778,14.82922571635792],[-91.17296257460868,14.830139662810149],[-91.17265128375492,14.830581415236436],[-91.17263057420283,14.830852616725611],[-91.17284499944533,14.831734346421559],[-91.17249444375435,14.832696684089294],[-91.17164230201642,14.833292612374942],[-91.17060704766345,14.833560174103868],[-91.16860250673182,14.834995763287424],[-91.16719281051051,14.83702877342745],[-91.16619513229965,14.837560228656814],[-91.1644027798533,14.838225081654251],[-91.16376999439196,14.838604418502054],[-91.163524495046,14.838651716364222],[-91.16295937479575,14.838559847259729],[-91.16112655833149,14.837434821734783],[-91.15913959941038,14.836966497585992],[-91.15839398736,14.83694193292874],[-91.1576255417776,14.83765517893367],[-91.15755102224642,14.83847987415013],[-91.15712265252989,14.83923002061103],[-91.15646079155131,14.839626247134925],[-91.15581970515413,14.839771480958381],[-91.1540414379931,14.839851964068595],[-91.15370466738436,14.840451605957782],[-91.15368347146821,14.840997714824503],[-91.1534815095899,14.841542219856455],[-91.15298533229364,14.841933352859966],[-91.15224057690423,14.842035846013982],[-91.15165184970122,14.841853844700157],[-91.15115956630964,14.841838277468238],[-91.1503878976457,14.842184099714887],[-91.1492788527915,14.842539957194738],[-91.14935644078017,14.843312564490148],[-91.14922990734938,14.84402685287962],[-91.14936765476857,14.84495263476623],[-91.14911533383484,14.845457241279206],[-91.1477656085673,14.846676770840903],[-91.14762958979372,14.847300516653663],[-91.14721943652853,14.848192281545495],[-91.14642956326644,14.849199184788725],[-91.14592201708663,14.85054612144761],[-91.14591183101086,14.851740252875905],[-91.14578370569848,14.852221731326921],[-91.14591501036776,14.852734281873298],[-91.14613540646063,14.853153402635986],[-91.14785501145937,14.853649787191298],[-91.14824817522623,14.853950801779291],[-91.1486387758795,14.854726659411854],[-91.14969867423545,14.856203345833674],[-91.15044685501017,14.856577805727103],[-91.15157258127844,14.85691256429189],[-91.15219929286438,14.857593125157514],[-91.15300362299978,14.857804663670256],[-91.15409400186851,14.857921996262995],[-91.15445574891417,14.857323417581174],[-91.15509453537902,14.856942194186097],[-91.15572807284587,14.857179096571247],[-91.15703978617394,14.857073720546472],[-91.15799599299201,14.856733670525097],[-91.15847589659796,14.856351162491947],[-91.15899257033995,14.856316670223475],[-91.15962316651868,14.856901258087655],[-91.16013722621169,14.85717582750829],[-91.16081081723644,14.85737440063995],[-91.16160487571842,14.857419395324047],[-91.16256524164936,14.857845177685018],[-91.16343163714022,14.857472646160126],[-91.16433467506222,14.856858109376752],[-91.16476912357359,14.856813329873933],[-91.16534697476636,14.856444790691471],[-91.16594080510087,14.856681348700437],[-91.16678685346568,14.857263710492758],[-91.16711836871015,14.858352087579132],[-91.16827804942803,14.856913722094308],[-91.16899853838011,14.856783018710503],[-91.17042062730484,14.857721612570437],[-91.17141296671713,14.857806787977133],[-91.17217023792924,14.85750372968321],[-91.17312513180968,14.857318147341651],[-91.17368023115279,14.857438471210722],[-91.17414629659675,14.858142618012275],[-91.17507398481497,14.857024554119883],[-91.17571047040961,14.856913704236403],[-91.17662920775516,14.85630282460276],[-91.17801569478173,14.856162065180806],[-91.17944961154818,14.856286561775503],[-91.18036704150028,14.85583019947113],[-91.18116304686473,14.855643325467986],[-91.18185817163109,14.855633450086751],[-91.1826297582901,14.85600265979987],[-91.18366149645536,14.85612673082709],[-91.18474070134816,14.855323903267966],[-91.18526350794393,14.854555311169044],[-91.18538782618874,14.853938114861041],[-91.18630813713895,14.85313402495165],[-91.1873168969297,14.852502534176887],[-91.18743234742993,14.851998479892202],[-91.18858339612545,14.85179971138707],[-91.18966095276066,14.851190025393418],[-91.18976469421432,14.85023145688222],[-91.19106718660989,14.849269288513394],[-91.19254094463157,14.848778613312234],[-91.19325587592954,14.84878423599108],[-91.19528600571154,14.848259283261088],[-91.19628217121611,14.84788074156314],[-91.19727352688535,14.848081701743626],[-91.19799275056799,14.848492683030683],[-91.19802370084594,14.849232343073988],[-91.19872454128392,14.850333993188192],[-91.19891673236216,14.851108228090359],[-91.19959067600348,14.851268056089689],[-91.20050645101321,14.851004774930367],[-91.20129891250275,14.851242799129604],[-91.20185114394258,14.85171075978319],[-91.20264520731997,14.851755611140351],[-91.20328590893189,14.851888567651185],[-91.20402963176366,14.852461895242122],[-91.20448117395766,14.85308819572069],[-91.20545282892198,14.85328438316725],[-91.20693105593176,14.852252740332972],[-91.20763239781196,14.853184944183099],[-91.20950804268885,14.852852387784171],[-91.21100848004438,14.853945903507372],[-91.21262622797913,14.854684663757169],[-91.21312103305283,14.855391864754347],[-91.21369148458658,14.855919307097134],[-91.21403603773595,14.856527451509786],[-91.21505931088413,14.856582805038578],[-91.21595410371532,14.856341206735534],[-91.21694394233096,14.856735260470012],[-91.21813713804045,14.85655133849137],[-91.21912176908499,14.856213963232266],[-91.22192103708628,14.858544098622307],[-91.22234334359618,14.859052341515984],[-91.22295933061115,14.85948646177526],[-91.22732517834646,14.85994521176501],[-91.22812212338039,14.85964226930171],[-91.22864322291164,14.859066735058525],[-91.22936261059243,14.858531365762717],[-91.23015419821559,14.858885201379914],[-91.23066522358816,14.85954596679447],[-91.23120842235919,14.861134266992694],[-91.23167910445066,14.861871996202677],[-91.23131754356471,14.86244876480191],[-91.23024296328138,14.863513852770533],[-91.22924976162393,14.863880977647597],[-91.22846484087086,14.86449555785283],[-91.22785818106361,14.865347366835556],[-91.22789602246905,14.86592740454055],[-91.22826736021707,14.86737963706437],[-91.22807304980171,14.868114020298496],[-91.22793472160755,14.86915896902996],[-91.22788159163147,14.871124350321542],[-91.22813996444206,14.872554953272415],[-91.22821463489238,14.87383925262975],[-91.22760403913793,14.875615182482965],[-91.22754029432201,14.87658624930709],[-91.22890563012885,14.87786139684149],[-91.22906072396133,14.879726062318161],[-91.22982338361713,14.880187464498592],[-91.23101113928469,14.880734963531994],[-91.23378469470097,14.880010952390348],[-91.23476496978667,14.879894268864199],[-91.23510423422053,14.880062522266341],[-91.23599868204438,14.88083553107178],[-91.2365664697912,14.881705569358388],[-91.23769245793028,14.882345445260333],[-91.23850658783707,14.882568119548786],[-91.24107601723641,14.883579762027813],[-91.24179495579747,14.884108287391992],[-91.24301602744927,14.884460310420135],[-91.2437403780995,14.884321578767945],[-91.24485763890229,14.883753019236853],[-91.24571878962414,14.88274965291828],[-91.24567222189722,14.883921566218955],[-91.24574026818935,14.884679552132743],[-91.24607025284502,14.885150985878985],[-91.24820361339978,14.887202781626788],[-91.24896868662374,14.88737427069999],[-91.2499516663681,14.886926258042312],[-91.25135474983752,14.88718542816279],[-91.25228480024533,14.88802073749099],[-91.25292080933723,14.888356872974295]]]]},"properties":{"FID":0,"CUENCA":"Subcuenca del Rio Quiscab","Perimeter":67940.0615549,"Area":153326692.339,"Hectares":15332.6692339},"id":0}]}